latitude,longitude,name,zipcode,county
61.108737,-149.860912,Carl's Jr.,99515,Anchorage Municipality
61.137320,-149.840690,Carl's Jr.,99518,Anchorage Municipality
61.195163,-149.895102,Carl's Jr.,99503,Anchorage Municipality
61.331465,-149.565405,Carl's Jr.,99567,Anchorage Municipality
64.834275,-147.812614,Carl's Jr.,99775,Fairbanks North Star Borough
64.845500,-147.704800,Carl's Jr.,99790,Yukon-Koyukuk Census Area
60.558876,-151.238479,Carl's Jr.,99669,Kenai Peninsula Borough
61.578809,-149.405521,Carl's Jr.,99654,Matanuska-Susitna Borough
33.388242,-111.528635,Carl's Jr.,85119,Pinal County
33.443348,-112.556546,Carl's Jr.,85395,Maricopa County
34.985500,-114.352100,Carl's Jr.,86426,Mohave County
35.155900,-114.567100,Carl's Jr.,86429,Mohave County
34.574579,-111.883046,Carl's Jr.,86325,Yavapai County
32.879463,-111.713512,Carl's Jr.,85122,Pinal County
33.771134,-111.981365,Carl's Jr.,85331,Maricopa County
33.333729,-111.859363,Carl's Jr.,85224,Maricopa County
33.262335,-111.858335,Carl's Jr.,85286,Maricopa County
34.711840,-111.999125,Carl's Jr.,86326,Yavapai County
31.339008,-109.559796,Carl's Jr.,85617,Cochise County
32.781053,-111.619562,Carl's Jr.,85123,Pinal County
32.943741,-112.732728,Carl's Jr.,85337,Maricopa County
33.318325,-111.686903,Carl's Jr.,85295,Maricopa County
33.363114,-111.789963,Carl's Jr.,85233,Maricopa County
33.277311,-111.788119,Carl's Jr.,85297,Maricopa County
33.610563,-112.168778,Carl's Jr.,85306,Maricopa County
33.552963,-112.183566,Carl's Jr.,85302,Maricopa County
33.532776,-112.265549,Carl's Jr.,85305,Maricopa County
33.638437,-112.215311,Carl's Jr.,85381,Maricopa County
33.392781,-110.766296,Carl's Jr.,85501,Gila County
33.437238,-112.426821,Carl's Jr.,85395,Maricopa County
33.464163,-112.356275,Carl's Jr.,85392,Maricopa County
33.378063,-111.963583,Carl's Jr.,85283,Maricopa County
34.918345,-110.151372,Carl's Jr.,86025,Navajo County
35.222976,-114.036059,Carl's Jr.,86413,Mohave County
35.190837,-114.064918,Carl's Jr.,86413,Mohave County
34.725790,-114.315489,Carl's Jr.,86436,Mohave County
34.481950,-114.348065,Carl's Jr.,86403,Mohave County
33.377637,-112.166720,Carl's Jr.,85041,Maricopa County
32.441700,-111.234400,Carl's Jr.,85742,Pima County
33.070168,-112.045691,Carl's Jr.,85121,Pinal County
33.434663,-111.869635,Carl's Jr.,85201,Maricopa County
33.390846,-111.788463,Carl's Jr.,85204,Maricopa County
33.393337,-111.862544,Carl's Jr.,85210,Maricopa County
33.381335,-111.840263,Carl's Jr.,85210,Maricopa County
33.380350,-111.739642,Carl's Jr.,85234,Maricopa County
33.451575,-111.839951,Carl's Jr.,85201,Maricopa County
33.451719,-111.733535,Carl's Jr.,85213,Maricopa County
31.364694,-110.947397,Carl's Jr.,85621,Santa Cruz County
32.397125,-110.958788,Carl's Jr.,85737,Pima County
34.240686,-111.322821,Carl's Jr.,85541,Gila County
33.595099,-112.220464,Carl's Jr.,85381,Maricopa County
33.551500,-112.268000,Carl's Jr.,85305,Maricopa County
33.448504,-112.030363,Carl's Jr.,85034,Maricopa County
33.460571,-112.169365,Carl's Jr.,85035,Maricopa County
33.524078,-112.096912,Carl's Jr.,85015,Maricopa County
33.445900,-112.071312,Carl's Jr.,85004,Maricopa County
33.445800,-112.071524,Carl's Jr.,85004,Maricopa County
33.480437,-112.031303,Carl's Jr.,85006,Maricopa County
33.640263,-112.032075,Carl's Jr.,85032,Maricopa County
33.712763,-112.109260,Carl's Jr.,85027,Maricopa County
33.480537,-112.118487,Carl's Jr.,85017,Maricopa County
33.639837,-112.133652,Carl's Jr.,85053,Maricopa County
33.509363,-112.154128,Carl's Jr.,85019,Maricopa County
33.305537,-111.977849,Carl's Jr.,85226,Maricopa County
33.480321,-112.223119,Carl's Jr.,85033,Maricopa County
33.568907,-112.065034,Carl's Jr.,85020,Maricopa County
34.550917,-112.479127,Carl's Jr.,86303,Yavapai County
34.579377,-112.361139,Carl's Jr.,86314,Yavapai County
33.661700,-114.241220,Carl's Jr.,85344,La Paz County
33.248658,-111.629196,Carl's Jr.,85142,Maricopa County
32.827420,-109.732989,Carl's Jr.,85552,Graham County
31.910474,-110.980501,Carl's Jr.,85629,Pima County
32.505020,-114.786709,Carl's Jr.,85350,Yuma County
33.623209,-111.896402,Carl's Jr.,85260,Maricopa County
33.487168,-111.909077,Carl's Jr.,85251,Maricopa County
31.554463,-110.276595,Carl's Jr.,85613,Cochise County
33.634748,-112.345423,Carl's Jr.,85375,Maricopa County
33.442203,-111.926842,Carl's Jr.,85281,Maricopa County
33.334570,-111.968239,Carl's Jr.,85044,Maricopa County
33.458275,-112.239005,Carl's Jr.,85033,Maricopa County
32.177729,-110.955012,Carl's Jr.,85714,Pima County
32.133611,-111.000882,Carl's Jr.,85746,Pima County
32.221334,-110.944372,Carl's Jr.,85701,Pima County
32.134337,-110.922256,Carl's Jr.,85706,Pima County
32.273700,-110.978361,Carl's Jr.,85705,Pima County
32.206763,-110.904856,Carl's Jr.,85711,Pima County
32.220608,-110.980795,Carl's Jr.,85701,Pima County
32.250842,-110.857743,Carl's Jr.,85715,Pima County
32.286737,-110.962113,Carl's Jr.,85705,Pima County
32.221169,-110.826126,Carl's Jr.,85710,Pima County
32.102128,-110.772958,Carl's Jr.,85747,Pima County
33.970594,-112.721450,Carl's Jr.,85342,Maricopa County
35.262645,-112.194069,Carl's Jr.,86001,Coconino County
32.698737,-114.610404,Carl's Jr.,85364,Yuma County
32.669537,-114.623858,Carl's Jr.,85364,Yuma County
32.656240,-114.581824,Carl's Jr.,85364,Yuma County
49.054314,-122.370575,Carl's Jr.,98264,Whatcom County
49.106452,-121.976642,Carl's Jr.,98266,Whatcom County
49.263557,-122.768619,Carl's Jr.,98240,Whatcom County
49.193047,-123.170288,Carl's Jr.,98281,Whatcom County
49.039671,-122.801371,Carl's Jr.,98240,Whatcom County
49.009219,-122.735898,Carl's Jr.,98240,Whatcom County
49.283942,-123.117920,Carl's Jr.,98281,Whatcom County
34.509664,-117.399542,Carl's Jr.,92392,San Bernardino County
34.154282,-118.757251,Carl's Jr.,91377,Ventura County
37.782737,-122.273411,Carl's Jr.,94501,Alameda County
34.087969,-118.151651,Carl's Jr.,91803,Los Angeles County
33.593886,-117.728732,Carl's Jr.,92653,Orange County
32.838372,-116.778157,Carl's Jr.,91901,San Diego County
34.132923,-117.592108,Carl's Jr.,91701,San Bernardino County
33.855168,-117.837590,Carl's Jr.,92870,Orange County
33.818568,-117.889464,Carl's Jr.,92805,Orange County
33.850937,-117.924034,Carl's Jr.,92832,Orange County
33.832363,-117.950029,Carl's Jr.,92801,Orange County
33.803537,-117.888608,Carl's Jr.,92868,Orange County
33.795441,-117.915343,Carl's Jr.,92840,Orange County
33.832222,-117.919155,Carl's Jr.,92805,Orange County
33.836826,-117.870999,Carl's Jr.,92806,Orange County
33.851198,-117.856693,Carl's Jr.,92806,Orange County
33.859837,-117.790108,Carl's Jr.,92807,Orange County
33.841816,-117.958934,Carl's Jr.,92801,Orange County
33.867441,-117.745334,Carl's Jr.,92808,Orange County
37.968068,-121.786498,Carl's Jr.,94531,Contra Costa County
34.474002,-117.242233,Carl's Jr.,92395,San Bernardino County
34.524856,-117.218132,Carl's Jr.,92395,San Bernardino County
34.471111,-117.210304,Carl's Jr.,92395,San Bernardino County
34.130392,-118.026140,Carl's Jr.,91006,Los Angeles County
40.900199,-124.082590,Carl's Jr.,95524,Humboldt County
35.130685,-120.606255,Carl's Jr.,93433,San Luis Obispo County
35.485437,-120.663850,Carl's Jr.,93422,San Luis Obispo County
37.343106,-120.615461,Carl's Jr.,95301,Merced County
38.920430,-121.058254,Carl's Jr.,95603,Placer County
38.935073,-121.093045,Carl's Jr.,95603,Placer County
34.133463,-117.924599,Carl's Jr.,91010,Los Angeles County
35.092676,-116.242274,Carl's Jr.,92309,San Bernardino County
35.351198,-119.003098,Carl's Jr.,93304,Kern County
35.317918,-119.029135,Carl's Jr.,93304,Kern County
35.339637,-119.029567,Carl's Jr.,93304,Kern County
35.385999,-119.023331,Carl's Jr.,93301,Kern County
35.295850,-119.040727,Carl's Jr.,93304,Kern County
35.383437,-119.046710,Carl's Jr.,93301,Kern County
35.397563,-118.949523,Carl's Jr.,93305,Kern County
35.400577,-119.091931,Carl's Jr.,93312,Kern County
35.318149,-119.055482,Carl's Jr.,93304,Kern County
35.354437,-119.062621,Carl's Jr.,93309,Kern County
35.304966,-119.092257,Carl's Jr.,93309,Kern County
35.365428,-119.043567,Carl's Jr.,93309,Kern County
35.339937,-119.102204,Carl's Jr.,93309,Kern County
35.368697,-119.108045,Carl's Jr.,93312,Kern County
34.064576,-117.968999,Carl's Jr.,91790,Los Angeles County
33.925272,-116.897662,Carl's Jr.,92220,Riverside County
33.922830,-116.946534,Carl's Jr.,92223,Riverside County
34.893139,-117.002791,Carl's Jr.,92311,San Bernardino County
34.849701,-117.083066,Carl's Jr.,92311,San Bernardino County
33.969133,-118.178560,Carl's Jr.,90201,Los Angeles County
33.901863,-118.117629,Carl's Jr.,90706,Los Angeles County
38.086439,-122.113693,Carl's Jr.,94510,Solano County
33.757335,-116.302628,Carl's Jr.,92211,Riverside County
34.243263,-116.891828,Carl's Jr.,92315,San Bernardino County
37.368666,-118.395170,Carl's Jr.,93514,Inyo County
34.065360,-117.370300,Carl's Jr.,92316,San Bernardino County
33.609164,-114.605334,Carl's Jr.,85328,La Paz County
32.978737,-115.541167,Carl's Jr.,92281,Imperial County
33.911552,-117.887735,Carl's Jr.,92821,Orange County
37.961374,-121.736050,Carl's Jr.,94531,Contra Costa County
34.611313,-120.188531,Carl's Jr.,93427,Santa Barbara County
33.873336,-117.998034,Carl's Jr.,90621,Orange County
33.846937,-117.988087,Carl's Jr.,90620,Orange County
33.832233,-118.011264,Carl's Jr.,90620,Orange County
34.189601,-118.320371,Carl's Jr.,91502,Los Angeles County
34.160065,-118.343333,Carl's Jr.,91505,Los Angeles County
35.402937,-119.401029,Carl's Jr.,93206,Kern County
32.679163,-115.546725,Carl's Jr.,92231,Imperial County
33.996326,-117.058612,Carl's Jr.,92320,Riverside County
34.221637,-119.069965,Carl's Jr.,93010,Ventura County
38.656898,-120.968823,Carl's Jr.,95682,El Dorado County
34.208537,-118.571266,Carl's Jr.,91306,Los Angeles County
34.219763,-118.588663,Carl's Jr.,91306,Los Angeles County
34.201237,-118.594464,Carl's Jr.,91303,Los Angeles County
34.415590,-118.465646,Carl's Jr.,91351,Los Angeles County
36.975592,-121.965071,Carl's Jr.,95010,Santa Cruz County
33.176889,-117.326149,Carl's Jr.,92056,San Diego County
33.121792,-117.317717,Carl's Jr.,92008,San Diego County
33.162402,-117.344257,Carl's Jr.,92008,San Diego County
38.660847,-121.326681,Carl's Jr.,95841,Sacramento County
34.401674,-119.524822,Carl's Jr.,93108,Santa Barbara County
33.872545,-118.265737,Carl's Jr.,90746,Los Angeles County
33.846839,-118.234535,Carl's Jr.,90220,Los Angeles County
33.831430,-118.263930,Carl's Jr.,90745,Los Angeles County
34.489911,-118.618354,Carl's Jr.,91354,Los Angeles County
33.814525,-116.457834,Carl's Jr.,92234,Riverside County
33.778167,-116.458276,Carl's Jr.,92270,Riverside County
37.595991,-120.938526,Carl's Jr.,95307,Stanislaus County
33.858263,-118.090177,Carl's Jr.,90701,Los Angeles County
34.259200,-118.595300,Carl's Jr.,91304,Los Angeles County
39.727437,-121.805234,Carl's Jr.,95928,Butte County
39.756494,-121.860906,Carl's Jr.,95926,Butte County
34.035196,-117.689233,Carl's Jr.,91710,San Bernardino County
33.999671,-117.720051,Carl's Jr.,91710,San Bernardino County
34.004753,-117.651669,Carl's Jr.,91762,San Bernardino County
33.982778,-117.713106,Carl's Jr.,91710,San Bernardino County
37.125210,-120.255779,Carl's Jr.,93610,Madera County
32.610028,-117.081506,Carl's Jr.,91910,San Diego County
32.644581,-117.000116,Carl's Jr.,91913,San Diego County
32.628671,-116.966919,Carl's Jr.,91915,San Diego County
32.629812,-117.093580,Carl's Jr.,91910,San Diego County
32.617284,-117.070645,Carl's Jr.,91910,San Diego County
38.707263,-121.315223,Carl's Jr.,95621,Sacramento County
38.678163,-121.292323,Carl's Jr.,95621,Sacramento County
38.703193,-121.271723,Carl's Jr.,95610,Sacramento County
34.007807,-118.156260,Carl's Jr.,90040,Los Angeles County
34.027941,-118.015277,Carl's Jr.,90601,Los Angeles County
33.997277,-117.870933,Carl's Jr.,91789,Los Angeles County
34.020729,-117.957516,Carl's Jr.,91744,Los Angeles County
37.955960,-121.952200,Carl's Jr.,94521,Contra Costa County
38.931885,-122.617819,Carl's Jr.,95422,Lake County
36.837637,-119.697081,Carl's Jr.,93611,Fresno County
36.809252,-119.700527,Carl's Jr.,93612,Fresno County
36.808263,-119.727841,Carl's Jr.,93612,Fresno County
33.718233,-116.169244,Carl's Jr.,92203,Riverside County
33.684083,-116.181764,Carl's Jr.,92203,Riverside County
36.254063,-120.261688,Carl's Jr.,93210,Fresno County
34.049017,-117.308864,Carl's Jr.,92313,San Bernardino County
33.903383,-118.208319,Carl's Jr.,90221,Los Angeles County
33.873979,-118.247560,Carl's Jr.,90220,Los Angeles County
33.864546,-117.544924,Carl's Jr.,92879,Riverside County
33.879512,-117.602493,Carl's Jr.,92882,Riverside County
33.883773,-117.517962,Carl's Jr.,92879,Riverside County
33.844503,-117.573312,Carl's Jr.,92882,Riverside County
33.774676,-117.487894,Carl's Jr.,92883,Riverside County
33.960116,-117.592930,Carl's Jr.,92880,Riverside County
33.630893,-117.925521,Carl's Jr.,92663,Orange County
33.673437,-117.921023,Carl's Jr.,92626,Orange County
34.090946,-117.908065,Carl's Jr.,91722,Los Angeles County
34.012606,-118.416773,Carl's Jr.,90066,Los Angeles County
33.809666,-118.029399,Carl's Jr.,90630,Orange County
33.803137,-118.011879,Carl's Jr.,90680,Orange County
37.692337,-122.471172,Carl's Jr.,94015,San Mateo County
33.464845,-117.686089,Carl's Jr.,92624,Orange County
38.548927,-121.761654,Carl's Jr.,95616,Yolo County
38.561958,-121.732418,Carl's Jr.,95618,Yolo County
38.540417,-121.730949,Carl's Jr.,95618,Yolo County
35.775905,-119.251520,Carl's Jr.,93250,Kern County
33.954003,-116.501134,Carl's Jr.,92240,Riverside County
34.022289,-117.811400,Carl's Jr.,91789,Los Angeles County
36.545863,-119.404345,Carl's Jr.,93618,Tulare County
38.446298,-121.855074,Carl's Jr.,95687,Solano County
33.947536,-118.154373,Carl's Jr.,90241,Los Angeles County
33.935289,-118.123897,Carl's Jr.,90241,Los Angeles County
33.916863,-118.133829,Carl's Jr.,90242,Los Angeles County
34.139563,-117.977322,Carl's Jr.,91016,Los Angeles County
32.800666,-116.935962,Carl's Jr.,92020,San Diego County
32.807937,-116.969436,Carl's Jr.,92020,San Diego County
32.796737,-115.569336,Carl's Jr.,92249,Imperial County
32.774777,-115.551962,Carl's Jr.,92249,Imperial County
34.074768,-118.022250,Carl's Jr.,91732,Los Angeles County
33.924708,-118.396564,Carl's Jr.,90245,Los Angeles County
33.622856,-117.697279,Carl's Jr.,92691,Orange County
38.383600,-121.441600,Carl's Jr.,95757,Sacramento County
38.437867,-121.404455,Carl's Jr.,95758,Sacramento County
38.452428,-121.371524,Carl's Jr.,95829,Sacramento County
38.408863,-121.380159,Carl's Jr.,95758,Sacramento County
38.406565,-121.417673,Carl's Jr.,95758,Sacramento County
33.037590,-117.281432,Carl's Jr.,92007,San Diego County
34.164890,-118.525120,Carl's Jr.,91316,Los Angeles County
33.131319,-117.065524,Carl's Jr.,92025,San Diego County
33.112842,-117.100869,Carl's Jr.,92025,San Diego County
33.108483,-117.078251,Carl's Jr.,92025,San Diego County
33.127898,-117.092606,Carl's Jr.,92025,San Diego County
40.780402,-124.185724,Carl's Jr.,95564,Humboldt County
38.664237,-121.261838,Carl's Jr.,95628,Sacramento County
38.271616,-122.033924,Carl's Jr.,94533,Solano County
38.222461,-122.125872,Carl's Jr.,94534,Solano County
33.371885,-117.253102,Carl's Jr.,92028,San Diego County
34.395900,-118.919051,Carl's Jr.,93015,Ventura County
38.670295,-121.156067,Carl's Jr.,95630,Sacramento County
38.646472,-121.118307,Carl's Jr.,95630,Sacramento County
38.677874,-121.197902,Carl's Jr.,95662,Sacramento County
34.070337,-117.489961,Carl's Jr.,92337,San Bernardino County
34.138240,-117.445140,Carl's Jr.,92336,San Bernardino County
34.091583,-117.435865,Carl's Jr.,92335,San Bernardino County
37.563687,-122.270490,Carl's Jr.,94404,San Mateo County
33.729364,-117.920020,Carl's Jr.,92704,Orange County
33.714695,-117.954579,Carl's Jr.,92708,Orange County
33.687307,-117.953834,Carl's Jr.,92646,Orange County
36.631449,-119.677545,Carl's Jr.,93625,Fresno County
36.935027,-121.773572,Carl's Jr.,95019,Santa Cruz County
37.560643,-122.011560,Carl's Jr.,94536,Alameda County
37.491275,-121.928071,Carl's Jr.,94539,Alameda County
36.808837,-119.770789,Carl's Jr.,93710,Fresno County
36.764733,-119.772228,Carl's Jr.,93703,Fresno County
36.765321,-119.790770,Carl's Jr.,93701,Fresno County
36.745401,-119.789570,Carl's Jr.,93701,Fresno County
36.706314,-119.776231,Carl's Jr.,93721,Fresno County
36.808490,-119.846746,Carl's Jr.,93705,Fresno County
36.787487,-119.754104,Carl's Jr.,93726,Fresno County
36.790114,-119.790841,Carl's Jr.,93704,Fresno County
36.765426,-119.727148,Carl's Jr.,93703,Fresno County
36.807963,-119.884620,Carl's Jr.,93722,Fresno County
36.736105,-119.698455,Carl's Jr.,93727,Fresno County
36.822573,-119.870679,Carl's Jr.,93722,Fresno County
36.836713,-119.772470,Carl's Jr.,93710,Fresno County
36.845954,-119.790328,Carl's Jr.,93650,Fresno County
36.864650,-119.739071,Carl's Jr.,93720,Fresno County
33.899263,-117.909938,Carl's Jr.,92835,Orange County
33.871944,-117.941834,Carl's Jr.,92832,Orange County
33.888517,-117.869156,Carl's Jr.,92870,Orange County
33.870660,-117.924300,Carl's Jr.,92832,Orange County
33.877937,-117.889434,Carl's Jr.,92831,Orange County
38.253237,-121.297963,Carl's Jr.,95632,Sacramento County
33.759363,-117.954554,Carl's Jr.,92844,Orange County
33.800193,-117.941625,Carl's Jr.,92840,Orange County
33.774118,-117.920618,Carl's Jr.,92840,Orange County
33.788345,-118.027876,Carl's Jr.,92845,Orange County
33.788787,-117.960330,Carl's Jr.,92841,Orange County
33.873137,-118.299166,Carl's Jr.,90248,Los Angeles County
36.983497,-121.557563,Carl's Jr.,95020,Santa Clara County
34.164151,-118.280489,Carl's Jr.,91201,Los Angeles County
34.127753,-118.260045,Carl's Jr.,91204,Los Angeles County
34.124800,-117.872433,Carl's Jr.,91740,Los Angeles County
34.441541,-119.825706,Carl's Jr.,93111,Santa Barbara County
34.795806,-118.850161,Carl's Jr.,93243,Kern County
34.257637,-118.498473,Carl's Jr.,91343,Los Angeles County
34.264462,-118.525991,Carl's Jr.,91324,Los Angeles County
38.744233,-121.226039,Carl's Jr.,95661,Placer County
39.202507,-121.062236,Carl's Jr.,95975,Nevada County
36.328237,-119.657110,Carl's Jr.,93202,Kings County
33.809471,-118.289304,Carl's Jr.,90710,Los Angeles County
33.902796,-118.352234,Carl's Jr.,90250,Los Angeles County
33.902037,-118.372780,Carl's Jr.,90250,Los Angeles County
37.685655,-122.100373,Carl's Jr.,94541,Alameda County
37.629465,-122.096130,Carl's Jr.,94545,Alameda County
38.608755,-122.871421,Carl's Jr.,95492,Sonoma County
33.729537,-116.971434,Carl's Jr.,92543,Riverside County
33.747264,-117.007923,Carl's Jr.,92545,Riverside County
33.747937,-116.904167,Carl's Jr.,92583,Riverside County
33.755206,-116.958534,Carl's Jr.,92583,Riverside County
34.470449,-117.342168,Carl's Jr.,92392,San Bernardino County
34.424298,-117.321201,Carl's Jr.,92345,San Bernardino County
34.123251,-117.195233,Carl's Jr.,92346,San Bernardino County
33.729235,-118.041864,Carl's Jr.,92649,Orange County
33.682913,-118.006363,Carl's Jr.,92648,Orange County
33.679118,-117.988422,Carl's Jr.,92648,Orange County
33.649900,-117.953333,Carl's Jr.,92646,Orange County
33.715363,-118.009357,Carl's Jr.,92647,Orange County
33.715798,-117.984215,Carl's Jr.,92647,Orange County
33.672063,-117.970771,Carl's Jr.,92646,Orange County
33.974823,-118.230098,Carl's Jr.,90001,Los Angeles County
32.583663,-117.105862,Carl's Jr.,91932,San Diego County
33.711154,-116.238535,Carl's Jr.,92201,Riverside County
33.945363,-118.329349,Carl's Jr.,90305,Los Angeles County
33.961463,-118.360549,Carl's Jr.,90301,Los Angeles County
33.686091,-117.855384,Carl's Jr.,92614,Orange County
33.665081,-117.826754,Carl's Jr.,92612,Orange County
33.713787,-117.760520,Carl's Jr.,92620,Orange County
33.676073,-117.794465,Carl's Jr.,92604,Orange County
33.657040,-117.739828,Carl's Jr.,92618,Orange County
33.694160,-117.731840,Carl's Jr.,92618,Orange County
33.670007,-117.765480,Carl's Jr.,92618,Orange County
34.106922,-117.937926,Carl's Jr.,91722,Los Angeles County
36.734922,-120.060338,Carl's Jr.,93630,Fresno County
35.989264,-119.960669,Carl's Jr.,93239,Kings County
36.204063,-121.130246,Carl's Jr.,93930,Monterey County
36.518037,-119.557755,Carl's Jr.,93631,Fresno County
33.924363,-117.968064,Carl's Jr.,90631,Orange County
33.939438,-117.956444,Carl's Jr.,90631,Orange County
32.775836,-117.022523,Carl's Jr.,91942,San Diego County
33.898514,-118.006573,Carl's Jr.,90638,Los Angeles County
33.846063,-118.045578,Carl's Jr.,90623,Orange County
33.713583,-116.292565,Carl's Jr.,92210,Riverside County
34.117022,-117.776806,Carl's Jr.,91773,Los Angeles County
33.628501,-117.723564,Carl's Jr.,92637,Orange County
33.610502,-117.724148,Carl's Jr.,92637,Orange County
33.600594,-117.691893,Carl's Jr.,92653,Orange County
33.556119,-117.709554,Carl's Jr.,92656,Orange County
33.510073,-117.708723,Carl's Jr.,92677,Orange County
33.660888,-117.299958,Carl's Jr.,92532,Riverside County
33.663980,-117.297040,Carl's Jr.,92532,Riverside County
33.663661,-117.666324,Carl's Jr.,92630,Orange County
33.846863,-118.159624,Carl's Jr.,90712,Los Angeles County
33.852772,-118.133964,Carl's Jr.,90712,Los Angeles County
33.858448,-118.117264,Carl's Jr.,90713,Los Angeles County
34.675037,-118.155786,Carl's Jr.,93534,Los Angeles County
34.688651,-118.135291,Carl's Jr.,93534,Los Angeles County
34.689537,-118.172032,Carl's Jr.,93534,Los Angeles County
34.660332,-118.146802,Carl's Jr.,93534,Los Angeles County
37.811800,-121.292700,Carl's Jr.,95330,San Joaquin County
32.742736,-117.043664,Carl's Jr.,91945,San Diego County
38.882408,-121.286692,Carl's Jr.,95648,Placer County
37.718323,-121.724287,Carl's Jr.,94551,Alameda County
37.699846,-121.817297,Carl's Jr.,94566,Alameda County
37.678182,-121.785873,Carl's Jr.,94566,Alameda County
37.388313,-120.735911,Carl's Jr.,95315,Merced County
38.114837,-121.391770,Carl's Jr.,95242,San Joaquin County
38.115263,-121.283330,Carl's Jr.,95258,San Joaquin County
34.048637,-117.247094,Carl's Jr.,92354,San Bernardino County
33.789363,-118.309032,Carl's Jr.,90717,Los Angeles County
34.647511,-120.457939,Carl's Jr.,93436,Santa Barbara County
36.607782,-118.064623,Carl's Jr.,93526,Inyo County
33.781617,-118.122234,Carl's Jr.,90804,Los Angeles County
33.789763,-118.214931,Carl's Jr.,90813,Los Angeles County
33.832306,-118.166385,Carl's Jr.,90807,Los Angeles County
33.804570,-118.190159,Carl's Jr.,90755,Los Angeles County
33.809308,-118.125034,Carl's Jr.,90815,Los Angeles County
33.822369,-118.184593,Carl's Jr.,90807,Los Angeles County
33.824337,-118.184834,Carl's Jr.,90807,Los Angeles County
33.788056,-118.139604,Carl's Jr.,90804,Los Angeles County
33.874561,-118.186353,Carl's Jr.,90221,Los Angeles County
33.775437,-118.189134,Carl's Jr.,90831,Los Angeles County
33.827359,-118.089332,Carl's Jr.,90715,Los Angeles County
37.397258,-122.105837,Carl's Jr.,94043,Santa Clara County
33.944108,-118.397517,Carl's Jr.,90045,Los Angeles County
34.011037,-118.291692,Carl's Jr.,90037,Los Angeles County
34.058049,-118.364104,Carl's Jr.,90211,Los Angeles County
34.040264,-118.256677,Carl's Jr.,90014,Los Angeles County
33.932752,-118.308838,Carl's Jr.,90047,Los Angeles County
33.982075,-118.249034,Carl's Jr.,90001,Los Angeles County
34.043342,-118.309165,Carl's Jr.,90018,Los Angeles County
34.018146,-118.220265,Carl's Jr.,90023,Los Angeles County
34.056416,-118.277481,Carl's Jr.,90057,Los Angeles County
34.037977,-118.377079,Carl's Jr.,90035,Los Angeles County
33.998437,-118.232133,Carl's Jr.,90058,Los Angeles County
34.051531,-118.247469,Carl's Jr.,90079,Los Angeles County
34.025556,-118.277481,Carl's Jr.,90007,Los Angeles County
34.063837,-118.287315,Carl's Jr.,90057,Los Angeles County
34.068690,-118.444906,Carl's Jr.,90024,Los Angeles County
34.073937,-118.207502,Carl's Jr.,90031,Los Angeles County
34.061563,-118.300565,Carl's Jr.,90010,Los Angeles County
34.065148,-118.309265,Carl's Jr.,90020,Los Angeles County
34.062396,-118.171747,Carl's Jr.,90032,Los Angeles County
33.945737,-118.379565,Carl's Jr.,90304,Los Angeles County
34.018797,-118.149158,Carl's Jr.,90022,Los Angeles County
34.021574,-118.372571,Carl's Jr.,90016,Los Angeles County
34.044904,-118.253452,Carl's Jr.,90014,Los Angeles County
37.056815,-120.831019,Carl's Jr.,93635,Merced County
37.057008,-120.825060,Carl's Jr.,93635,Merced County
35.615963,-119.659643,Carl's Jr.,93280,Kern County
33.930788,-118.204644,Carl's Jr.,90262,Los Angeles County
36.977501,-120.074027,Carl's Jr.,93638,Madera County
36.952451,-120.055927,Carl's Jr.,93638,Madera County
37.639644,-118.966526,Carl's Jr.,93546,Mono County
37.797537,-121.240066,Carl's Jr.,95336,San Joaquin County
37.797600,-121.189600,Carl's Jr.,95336,San Joaquin County
37.809728,-121.216809,Carl's Jr.,95336,San Joaquin County
37.993000,-122.100300,Carl's Jr.,94553,Contra Costa County
39.144837,-121.590627,Carl's Jr.,95901,Yuba County
37.303550,-120.500189,Carl's Jr.,95348,Merced County
37.318954,-120.474186,Carl's Jr.,95348,Merced County
37.405864,-121.898757,Carl's Jr.,95131,Santa Clara County
33.974656,-117.543737,Carl's Jr.,91752,Riverside County
33.580663,-117.667553,Carl's Jr.,92692,Orange County
33.596433,-117.657465,Carl's Jr.,92692,Orange County
37.594842,-120.993281,Carl's Jr.,95351,Stanislaus County
37.667240,-120.957425,Carl's Jr.,95355,Stanislaus County
37.609437,-120.967805,Carl's Jr.,95351,Stanislaus County
37.680199,-120.994026,Carl's Jr.,95350,Stanislaus County
37.688350,-121.050172,Carl's Jr.,95356,Stanislaus County
37.698302,-121.069172,Carl's Jr.,95368,Stanislaus County
35.052572,-118.173482,Carl's Jr.,93501,Kern County
34.062963,-117.689946,Carl's Jr.,91763,San Bernardino County
34.091042,-117.689865,Carl's Jr.,91763,San Bernardino County
34.033714,-118.091636,Carl's Jr.,91755,Los Angeles County
36.616998,-121.904375,Carl's Jr.,93950,Monterey County
34.038996,-118.147566,Carl's Jr.,90022,Los Angeles County
34.205396,-118.225179,Carl's Jr.,91020,Los Angeles County
34.279037,-118.886262,Carl's Jr.,91360,Ventura County
33.884236,-117.226122,Carl's Jr.,92551,Riverside County
33.910336,-117.268677,Carl's Jr.,92553,Riverside County
33.939692,-117.264288,Carl's Jr.,92553,Riverside County
33.940767,-117.225226,Carl's Jr.,92553,Riverside County
33.937310,-117.178509,Carl's Jr.,92553,Riverside County
37.132579,-121.630519,Carl's Jr.,95046,Santa Clara County
37.397541,-122.061422,Carl's Jr.,94041,Santa Clara County
33.571568,-117.233828,Carl's Jr.,92595,Riverside County
33.641363,-117.167749,Carl's Jr.,92584,Riverside County
33.556580,-117.176784,Carl's Jr.,92563,Riverside County
33.567529,-117.205754,Carl's Jr.,92563,Riverside County
38.281743,-122.292199,Carl's Jr.,94559,Napa County
32.676941,-117.093208,Carl's Jr.,91950,San Diego County
32.660988,-117.083980,Carl's Jr.,91950,San Diego County
34.851921,-114.625935,Carl's Jr.,86440,Mohave County
37.521697,-121.992131,Carl's Jr.,94538,Alameda County
37.541014,-122.027127,Carl's Jr.,94560,Alameda County
34.171323,-118.955037,Carl's Jr.,91320,Ventura County
34.365602,-118.504716,Carl's Jr.,91321,Los Angeles County
34.379562,-118.541168,Carl's Jr.,91381,Los Angeles County
33.660702,-117.873945,Carl's Jr.,92660,Orange County
33.669736,-117.859742,Carl's Jr.,92612,Orange County
35.037379,-120.484009,Carl's Jr.,93444,San Luis Obispo County
33.899139,-117.562967,Carl's Jr.,92860,Riverside County
33.924032,-117.559066,Carl's Jr.,92860,Riverside County
38.652044,-121.383164,Carl's Jr.,95652,Sacramento County
38.702951,-121.383054,Carl's Jr.,95843,Sacramento County
34.201337,-118.408339,Carl's Jr.,91605,Los Angeles County
34.136598,-118.362479,Carl's Jr.,91608,Los Angeles County
34.164308,-118.370133,Carl's Jr.,91601,Los Angeles County
34.183270,-118.396333,Carl's Jr.,91606,Los Angeles County
34.190487,-118.387805,Carl's Jr.,91606,Los Angeles County
34.236524,-118.535933,Carl's Jr.,91324,Los Angeles County
37.772006,-120.832424,Carl's Jr.,95367,Stanislaus County
37.332933,-119.651509,Carl's Jr.,93644,Madera County
37.826081,-122.265101,Carl's Jr.,94609,Alameda County
38.004963,-121.752205,Carl's Jr.,94509,Contra Costa County
33.207335,-117.285737,Carl's Jr.,92056,San Diego County
33.243250,-117.322858,Carl's Jr.,92058,San Diego County
33.240133,-117.290479,Carl's Jr.,92057,San Diego County
34.084622,-117.670365,Carl's Jr.,91786,San Bernardino County
34.077737,-117.619053,Carl's Jr.,91764,San Bernardino County
34.029482,-117.610833,Carl's Jr.,91762,San Bernardino County
34.027254,-117.651165,Carl's Jr.,91762,San Bernardino County
34.038100,-117.600800,Carl's Jr.,91761,San Bernardino County
34.076537,-117.555133,Carl's Jr.,91764,San Bernardino County
34.048337,-117.554133,Carl's Jr.,91761,San Bernardino County
33.788838,-117.835725,Carl's Jr.,92866,Orange County
33.809063,-117.837847,Carl's Jr.,92867,Orange County
33.787663,-117.815962,Carl's Jr.,92866,Orange County
33.782218,-117.867484,Carl's Jr.,92868,Orange County
33.782136,-117.889224,Carl's Jr.,92868,Orange County
34.226598,-119.177702,Carl's Jr.,93036,Ventura County
34.170128,-119.177865,Carl's Jr.,93041,Ventura County
33.779685,-116.355839,Carl's Jr.,92211,Riverside County
33.721063,-116.389059,Carl's Jr.,92260,Riverside County
33.852485,-116.551665,Carl's Jr.,92262,Riverside County
33.817361,-116.528364,Carl's Jr.,92234,Riverside County
34.602037,-118.148460,Carl's Jr.,93551,Los Angeles County
34.579974,-118.093859,Carl's Jr.,93550,Los Angeles County
34.558237,-118.084655,Carl's Jr.,93550,Los Angeles County
34.630846,-118.219257,Carl's Jr.,93551,Los Angeles County
34.221462,-118.446229,Carl's Jr.,91402,Los Angeles County
34.222335,-118.432906,Carl's Jr.,91402,Los Angeles County
33.901249,-118.143064,Carl's Jr.,90706,Los Angeles County
33.886139,-118.160285,Carl's Jr.,90723,Los Angeles County
34.146137,-118.120244,Carl's Jr.,91106,Los Angeles County
34.154415,-118.078307,Carl's Jr.,91024,Los Angeles County
34.159373,-118.132333,Carl's Jr.,91101,Los Angeles County
35.584166,-120.696810,Carl's Jr.,93422,San Luis Obispo County
35.642707,-120.686305,Carl's Jr.,93422,San Luis Obispo County
37.483500,-121.180300,Carl's Jr.,95363,Stanislaus County
33.744318,-117.190670,Carl's Jr.,92585,Riverside County
33.800966,-117.227074,Carl's Jr.,92571,Riverside County
33.968332,-118.097081,Carl's Jr.,90240,Los Angeles County
37.991562,-122.303366,Carl's Jr.,94564,Contra Costa County
38.006336,-121.836535,Carl's Jr.,94509,Contra Costa County
33.903796,-117.840591,Carl's Jr.,92870,Orange County
33.877747,-117.843252,Carl's Jr.,92870,Orange County
38.722803,-120.830497,Carl's Jr.,95619,El Dorado County
34.107329,-117.747763,Carl's Jr.,91767,Los Angeles County
34.076649,-117.719465,Carl's Jr.,91767,Los Angeles County
34.048017,-117.809922,Carl's Jr.,91768,Los Angeles County
34.050462,-117.816636,Carl's Jr.,91768,Los Angeles County
34.176225,-119.218545,Carl's Jr.,93041,Ventura County
36.051963,-119.033334,Carl's Jr.,93267,Tulare County
32.934374,-117.063822,Carl's Jr.,92131,San Diego County
32.936404,-117.029313,Carl's Jr.,92131,San Diego County
32.983050,-117.061862,Carl's Jr.,92128,San Diego County
38.587136,-121.307253,Carl's Jr.,95827,Sacramento County
38.618209,-121.268519,Carl's Jr.,95670,Sacramento County
38.589854,-121.265763,Carl's Jr.,95670,Sacramento County
34.106637,-117.549165,Carl's Jr.,91730,San Bernardino County
34.120066,-117.558333,Carl's Jr.,91730,San Bernardino County
34.121737,-117.615361,Carl's Jr.,91701,San Bernardino County
33.759774,-118.312774,Carl's Jr.,90732,Los Angeles County
33.648968,-117.582341,Carl's Jr.,92688,Orange County
40.586465,-122.351006,Carl's Jr.,96002,Shasta County
40.586597,-122.397321,Carl's Jr.,96001,Shasta County
40.610303,-122.379711,Carl's Jr.,96019,Shasta County
40.522220,-122.382858,Carl's Jr.,96002,Shasta County
40.570929,-122.357148,Carl's Jr.,96002,Shasta County
34.062763,-117.200313,Carl's Jr.,92374,San Bernardino County
33.872663,-118.374734,Carl's Jr.,90278,Los Angeles County
33.852408,-118.389706,Carl's Jr.,90254,Los Angeles County
37.490189,-122.226378,Carl's Jr.,94063,San Mateo County
36.603410,-119.457528,Carl's Jr.,93654,Fresno County
34.200963,-118.541960,Carl's Jr.,91335,Los Angeles County
34.186737,-118.553776,Carl's Jr.,91335,Los Angeles County
34.138240,-117.371213,Carl's Jr.,92377,San Bernardino County
34.106937,-117.381718,Carl's Jr.,92376,San Bernardino County
35.620227,-117.669830,Carl's Jr.,93555,Kern County
37.754023,-121.139360,Carl's Jr.,95366,San Joaquin County
37.732751,-120.946070,Carl's Jr.,95367,Stanislaus County
33.914818,-117.455777,Carl's Jr.,92503,Riverside County
34.018174,-117.504435,Carl's Jr.,91752,Riverside County
33.975463,-117.338911,Carl's Jr.,92507,Riverside County
33.888500,-117.325042,Carl's Jr.,92508,Riverside County
33.896573,-117.470796,Carl's Jr.,92503,Riverside County
33.936951,-117.405574,Carl's Jr.,92504,Riverside County
33.903233,-117.493987,Carl's Jr.,92505,Riverside County
33.977858,-117.378677,Carl's Jr.,92501,Riverside County
33.957930,-117.330942,Carl's Jr.,92507,Riverside County
33.943330,-117.453712,Carl's Jr.,92505,Riverside County
33.959837,-117.392621,Carl's Jr.,92501,Riverside County
33.975681,-117.478105,Carl's Jr.,92509,Riverside County
38.805966,-121.205323,Carl's Jr.,95677,Placer County
38.798249,-121.292627,Carl's Jr.,95678,Placer County
38.781450,-121.265523,Carl's Jr.,95678,Placer County
38.347304,-122.716718,Carl's Jr.,94928,Sonoma County
34.080966,-118.072622,Carl's Jr.,91731,Los Angeles County
38.744244,-121.264708,Carl's Jr.,95661,Placer County
38.751990,-121.309503,Carl's Jr.,95678,Placer County
38.743637,-121.171214,Carl's Jr.,95746,Placer County
38.794606,-121.328914,Carl's Jr.,95747,Placer County
33.988718,-117.906999,Carl's Jr.,91748,Los Angeles County
34.047186,-118.042606,Carl's Jr.,91733,Los Angeles County
38.599768,-121.426922,Carl's Jr.,95825,Sacramento County
38.656249,-121.510906,Carl's Jr.,95834,Sacramento County
38.595963,-121.411279,Carl's Jr.,95825,Sacramento County
38.614333,-121.516307,Carl's Jr.,95834,Sacramento County
38.558124,-121.478647,Carl's Jr.,95818,Sacramento County
38.615735,-121.401675,Carl's Jr.,95821,Sacramento County
38.636218,-121.475746,Carl's Jr.,95838,Sacramento County
38.617737,-121.366108,Carl's Jr.,95821,Sacramento County
38.687845,-121.343557,Carl's Jr.,95842,Sacramento County
38.525215,-121.496878,Carl's Jr.,95822,Sacramento County
38.474437,-121.430135,Carl's Jr.,95823,Sacramento County
38.496809,-121.459501,Carl's Jr.,95824,Sacramento County
38.547463,-121.392690,Carl's Jr.,95826,Sacramento County
38.609200,-121.444200,Carl's Jr.,95815,Sacramento County
38.563837,-121.339413,Carl's Jr.,95827,Sacramento County
36.697342,-121.668793,Carl's Jr.,93906,Monterey County
36.677911,-121.642243,Carl's Jr.,93905,Monterey County
36.716649,-121.656129,Carl's Jr.,93906,Monterey County
36.657433,-121.636386,Carl's Jr.,93901,Monterey County
34.135763,-117.254534,Carl's Jr.,92405,San Bernardino County
34.063237,-117.282233,Carl's Jr.,92408,San Bernardino County
34.168080,-117.332663,Carl's Jr.,92405,San Bernardino County
34.091835,-117.294580,Carl's Jr.,92401,San Bernardino County
37.627772,-122.425699,Carl's Jr.,94066,San Mateo County
37.493696,-122.244606,Carl's Jr.,94070,San Mateo County
33.397868,-117.593854,Carl's Jr.,92673,Orange County
33.453843,-117.605666,Carl's Jr.,92673,Orange County
32.914117,-117.143636,Carl's Jr.,92126,San Diego County
32.977290,-117.082775,Carl's Jr.,92128,San Diego County
32.798653,-117.245001,Carl's Jr.,92109,San Diego County
33.017073,-117.075784,Carl's Jr.,92128,San Diego County
32.555312,-116.937237,Carl's Jr.,91915,San Diego County
32.793607,-117.193523,Carl's Jr.,92037,San Diego County
32.710600,-117.050580,Carl's Jr.,92114,San Diego County
32.755537,-117.129874,Carl's Jr.,92116,San Diego County
32.749152,-117.206197,Carl's Jr.,92110,San Diego County
32.813926,-117.152633,Carl's Jr.,92111,San Diego County
32.854010,-117.200302,Carl's Jr.,92122,San Diego County
32.772069,-117.154587,Carl's Jr.,92108,San Diego County
32.750536,-117.069707,Carl's Jr.,92115,San Diego County
32.582891,-117.032660,Carl's Jr.,91911,San Diego County
32.792568,-117.097874,Carl's Jr.,92120,San Diego County
32.878285,-117.168908,Carl's Jr.,92122,San Diego County
32.832837,-117.158979,Carl's Jr.,92111,San Diego County
32.765159,-117.197898,Carl's Jr.,92110,San Diego County
32.803036,-117.006948,Carl's Jr.,92119,San Diego County
32.831262,-117.127747,Carl's Jr.,92111,San Diego County
32.892279,-117.118561,Carl's Jr.,92126,San Diego County
32.903285,-117.115425,Carl's Jr.,92126,San Diego County
32.959693,-117.115618,Carl's Jr.,92129,San Diego County
34.085502,-117.811590,Carl's Jr.,91768,Los Angeles County
34.105922,-117.819587,Carl's Jr.,91773,Los Angeles County
34.278921,-118.453808,Carl's Jr.,91345,Los Angeles County
37.783759,-122.408537,Carl's Jr.,94103,San Francisco County
37.779719,-122.414688,Carl's Jr.,94103,San Francisco County
34.074663,-118.090533,Carl's Jr.,91770,Los Angeles County
34.102637,-118.106358,Carl's Jr.,91776,Los Angeles County
33.802802,-116.971934,Carl's Jr.,92583,Riverside County
37.364549,-121.891972,Carl's Jr.,95131,Santa Clara County
37.262883,-121.877637,Carl's Jr.,95118,Santa Clara County
37.299964,-121.982329,Carl's Jr.,95130,Santa Clara County
37.335828,-121.890365,Carl's Jr.,95113,Santa Clara County
37.397416,-121.873418,Carl's Jr.,95131,Santa Clara County
37.322055,-121.826121,Carl's Jr.,95122,Santa Clara County
37.227780,-121.775911,Carl's Jr.,95119,Santa Clara County
37.261937,-121.931227,Carl's Jr.,95124,Santa Clara County
37.358722,-121.843496,Carl's Jr.,95116,Santa Clara County
37.324747,-121.796769,Carl's Jr.,95148,Santa Clara County
37.245850,-121.804171,Carl's Jr.,95119,Santa Clara County
37.341549,-121.909883,Carl's Jr.,95110,Santa Clara County
37.250636,-121.862471,Carl's Jr.,95123,Santa Clara County
33.546468,-117.674010,Carl's Jr.,92694,Orange County
33.499381,-117.659830,Carl's Jr.,92624,Orange County
35.249092,-120.643238,Carl's Jr.,93401,San Luis Obispo County
33.139135,-117.174480,Carl's Jr.,92078,San Diego County
37.777504,-121.971430,Carl's Jr.,94583,Contra Costa County
32.558361,-117.059784,Carl's Jr.,92173,San Diego County
36.707170,-119.575030,Carl's Jr.,93616,Fresno County
33.708337,-117.849508,Carl's Jr.,92707,Orange County
33.726937,-117.841163,Carl's Jr.,92780,Orange County
33.761487,-117.885239,Carl's Jr.,92706,Orange County
33.681447,-117.858714,Carl's Jr.,92614,Orange County
33.760137,-117.838718,Carl's Jr.,92866,Orange County
33.713718,-117.885230,Carl's Jr.,92707,Orange County
33.703404,-117.919334,Carl's Jr.,92704,Orange County
34.440262,-119.751835,Carl's Jr.,93110,Santa Barbara County
34.421658,-119.678541,Carl's Jr.,93103,Santa Barbara County
37.408031,-121.963121,Carl's Jr.,95054,Santa Clara County
37.366087,-121.950056,Carl's Jr.,95050,Santa Clara County
37.329602,-121.964717,Carl's Jr.,95117,Santa Clara County
37.374237,-121.977872,Carl's Jr.,95051,Santa Clara County
34.404967,-118.463868,Carl's Jr.,91351,Los Angeles County
34.436772,-118.564438,Carl's Jr.,91354,Los Angeles County
33.917215,-118.056439,Carl's Jr.,90670,Los Angeles County
33.942037,-118.052321,Carl's Jr.,90670,Los Angeles County
33.885586,-118.029146,Carl's Jr.,90638,Los Angeles County
34.936109,-120.419162,Carl's Jr.,93458,Santa Barbara County
34.921084,-120.436166,Carl's Jr.,93458,Santa Barbara County
34.918209,-120.435872,Carl's Jr.,93458,Santa Barbara County
34.034408,-118.473236,Carl's Jr.,90404,Los Angeles County
37.111372,-121.015542,Carl's Jr.,95322,Merced County
34.347027,-119.069243,Carl's Jr.,93066,Ventura County
38.441198,-122.686972,Carl's Jr.,95405,Sonoma County
38.417226,-122.713740,Carl's Jr.,95407,Sonoma County
38.476575,-122.734492,Carl's Jr.,95439,Sonoma County
38.513665,-122.783566,Carl's Jr.,95403,Sonoma County
38.432813,-122.742249,Carl's Jr.,95401,Sonoma County
32.838444,-116.978891,Carl's Jr.,92071,San Diego County
37.062267,-122.006406,Carl's Jr.,95066,Santa Cruz County
33.762114,-118.077865,Carl's Jr.,90740,Orange County
36.601225,-121.849092,Carl's Jr.,93943,Monterey County
36.576440,-119.625977,Carl's Jr.,93662,Fresno County
34.242985,-118.467765,Carl's Jr.,91343,Los Angeles County
34.261066,-118.796013,Carl's Jr.,93065,Ventura County
34.279132,-118.761133,Carl's Jr.,93065,Ventura County
34.284255,-118.717965,Carl's Jr.,93063,Ventura County
34.271663,-118.678823,Carl's Jr.,93063,Ventura County
32.995771,-117.258835,Carl's Jr.,92075,San Diego County
36.419032,-121.322419,Carl's Jr.,93960,Monterey County
37.975706,-120.364304,Carl's Jr.,95370,Tuolumne County
33.957486,-118.230531,Carl's Jr.,90002,Los Angeles County
33.929740,-118.167802,Carl's Jr.,90280,Los Angeles County
37.666469,-122.451696,Carl's Jr.,94014,San Mateo County
32.746467,-116.984811,Carl's Jr.,91941,San Diego County
33.789003,-117.993264,Carl's Jr.,92841,Orange County
34.379525,-118.567271,Carl's Jr.,91381,Los Angeles County
38.021074,-121.293993,Carl's Jr.,95210,San Joaquin County
37.984546,-121.340283,Carl's Jr.,95204,San Joaquin County
38.021537,-121.356344,Carl's Jr.,95209,San Joaquin County
38.016915,-121.322418,Carl's Jr.,95207,San Joaquin County
33.685137,-117.205139,Carl's Jr.,92586,Riverside County
34.222716,-118.396661,Carl's Jr.,91605,Los Angeles County
34.230360,-118.367173,Carl's Jr.,91352,Los Angeles County
37.352437,-122.004726,Carl's Jr.,95051,Santa Clara County
34.172574,-118.555874,Carl's Jr.,91356,Los Angeles County
33.508606,-117.125610,Carl's Jr.,92591,Riverside County
33.508376,-117.125399,Carl's Jr.,92591,Riverside County
33.485026,-117.082760,Carl's Jr.,92591,Riverside County
33.526223,-117.157713,Carl's Jr.,92591,Riverside County
33.479137,-117.137975,Carl's Jr.,92591,Riverside County
34.107462,-118.056426,Carl's Jr.,91780,Los Angeles County
34.195646,-118.871219,Carl's Jr.,91360,Ventura County
33.815416,-116.400707,Carl's Jr.,92276,Riverside County
33.831561,-118.298231,Carl's Jr.,90502,Los Angeles County
33.858190,-118.301524,Carl's Jr.,90248,Los Angeles County
33.838445,-118.362234,Carl's Jr.,90503,Los Angeles County
33.885501,-118.317973,Carl's Jr.,90506,Los Angeles County
33.806150,-118.350934,Carl's Jr.,90505,Los Angeles County
33.873037,-118.343500,Carl's Jr.,90504,Los Angeles County
37.750440,-121.435273,Carl's Jr.,95376,San Joaquin County
37.753963,-121.459250,Carl's Jr.,95376,San Joaquin County
36.224677,-119.331069,Carl's Jr.,93274,Tulare County
36.207666,-119.345597,Carl's Jr.,93274,Tulare County
37.492840,-120.871628,Carl's Jr.,95380,Stanislaus County
37.519709,-120.848626,Carl's Jr.,95382,Stanislaus County
33.736782,-117.823832,Carl's Jr.,92780,Orange County
33.723533,-117.794092,Carl's Jr.,92782,Orange County
34.391900,-116.193100,Carl's Jr.,92278,San Bernardino County
39.167524,-123.211085,Carl's Jr.,95482,Mendocino County
34.106763,-117.681256,Carl's Jr.,91786,San Bernardino County
34.131022,-117.641491,Carl's Jr.,91786,San Bernardino County
34.106863,-117.641769,Carl's Jr.,91786,San Bernardino County
39.163552,-122.921857,Carl's Jr.,95485,Lake County
38.369205,-121.955893,Carl's Jr.,95688,Solano County
38.352880,-121.976274,Carl's Jr.,95688,Solano County
38.140263,-122.230957,Carl's Jr.,94589,Solano County
38.127429,-122.255858,Carl's Jr.,94589,Solano County
34.171593,-118.431465,Carl's Jr.,91401,Los Angeles County
34.187716,-118.466365,Carl's Jr.,91411,Los Angeles County
34.209239,-118.448965,Carl's Jr.,91405,Los Angeles County
34.258195,-119.211113,Carl's Jr.,93003,Ventura County
34.273369,-119.264492,Carl's Jr.,93003,Ventura County
34.246513,-119.194481,Carl's Jr.,93036,Ventura County
34.514546,-117.314813,Carl's Jr.,92395,San Bernardino County
34.521263,-117.330914,Carl's Jr.,92395,San Bernardino County
34.471137,-117.289033,Carl's Jr.,92395,San Bernardino County
36.330337,-119.279203,Carl's Jr.,93223,Tulare County
36.300930,-119.313429,Carl's Jr.,93277,Tulare County
36.326846,-119.336454,Carl's Jr.,93277,Tulare County
36.322945,-119.313729,Carl's Jr.,93277,Tulare County
33.170596,-117.215098,Carl's Jr.,92081,San Diego County
33.193364,-117.256218,Carl's Jr.,92083,San Diego County
34.043296,-117.847677,Carl's Jr.,91789,Los Angeles County
35.601540,-119.340354,Carl's Jr.,93263,Kern County
34.032650,-117.913765,Carl's Jr.,91744,Los Angeles County
34.075178,-117.890436,Carl's Jr.,91723,Los Angeles County
34.067806,-117.924689,Carl's Jr.,91790,Los Angeles County
38.578005,-121.548875,Carl's Jr.,95605,Yolo County
34.154745,-118.827525,Carl's Jr.,91362,Ventura County
37.538371,-121.264409,Carl's Jr.,95385,Stanislaus County
33.765608,-117.990083,Carl's Jr.,92683,Orange County
33.759237,-118.010430,Carl's Jr.,92683,Orange County
33.992577,-118.067687,Carl's Jr.,90660,Los Angeles County
33.967065,-118.049429,Carl's Jr.,90602,Los Angeles County
33.946411,-117.999568,Carl's Jr.,90603,Los Angeles County
39.158119,-122.140489,Carl's Jr.,95987,Colusa County
33.592040,-117.124920,Carl's Jr.,92563,Riverside County
38.677252,-121.749260,Carl's Jr.,95776,Yolo County
38.677731,-121.788373,Carl's Jr.,95776,Yolo County
34.185371,-118.642633,Carl's Jr.,91367,Los Angeles County
33.891137,-117.773372,Carl's Jr.,92886,Orange County
41.700863,-122.646170,Carl's Jr.,96097,Siskiyou County
39.132263,-121.635675,Carl's Jr.,95993,Sutter County
39.141225,-121.648496,Carl's Jr.,95993,Sutter County
34.033763,-117.072771,Carl's Jr.,92373,San Bernardino County
34.120837,-116.433877,Carl's Jr.,92284,San Bernardino County
39.676294,-104.866177,Carl's Jr.,80247,Arapahoe County
39.675982,-104.809621,Carl's Jr.,80017,Arapahoe County
38.848700,-104.722037,Carl's Jr.,80915,El Paso County
39.025376,-104.816315,Carl's Jr.,80840,El Paso County
38.796137,-104.800813,Carl's Jr.,80910,El Paso County
38.874792,-104.825761,Carl's Jr.,80907,El Paso County
38.804971,-104.758097,Carl's Jr.,80910,El Paso County
38.838316,-104.821756,Carl's Jr.,80905,El Paso County
38.896630,-104.827710,Carl's Jr.,80907,El Paso County
38.910588,-104.716356,Carl's Jr.,80923,El Paso County
38.933264,-104.807723,Carl's Jr.,80918,El Paso County
39.805337,-104.930938,Carl's Jr.,80216,Denver County
39.773317,-104.940442,Carl's Jr.,80216,Denver County
39.782245,-104.771820,Carl's Jr.,80019,Adams County
38.972000,-104.555100,Carl's Jr.,80831,El Paso County
40.163164,-104.975058,Carl's Jr.,80504,Boulder County
38.388729,-105.111748,Carl's Jr.,81226,Fremont County
40.573100,-105.086000,Carl's Jr.,80526,Larimer County
40.582019,-105.064647,Carl's Jr.,80521,Larimer County
38.716947,-104.701386,Carl's Jr.,80911,El Paso County
39.086202,-108.594669,Carl's Jr.,81501,Mesa County
39.077537,-108.525874,Carl's Jr.,81501,Mesa County
40.396299,-104.697123,Carl's Jr.,80631,Weld County
40.422463,-104.689551,Carl's Jr.,80631,Weld County
40.036840,-104.621387,Carl's Jr.,80642,Weld County
39.741771,-105.497848,Carl's Jr.,80439,Jefferson County
37.987863,-103.549974,Carl's Jr.,81050,Otero County
39.707258,-105.081677,Carl's Jr.,80226,Jefferson County
39.573737,-104.989629,Carl's Jr.,80122,Arapahoe County
39.610037,-105.080166,Carl's Jr.,80123,Jefferson County
40.189396,-105.130719,Carl's Jr.,80501,Boulder County
40.153508,-105.093870,Carl's Jr.,80501,Boulder County
40.406452,-105.074119,Carl's Jr.,80528,Larimer County
40.434325,-104.988021,Carl's Jr.,80528,Larimer County
39.535262,-104.847490,Carl's Jr.,80124,Douglas County
39.481852,-104.758355,Carl's Jr.,80134,Douglas County
38.267691,-104.606824,Carl's Jr.,81003,Pueblo County
38.236739,-104.662574,Carl's Jr.,81003,Pueblo County
38.308263,-104.620639,Carl's Jr.,81003,Pueblo County
38.336942,-104.742904,Carl's Jr.,81007,Pueblo County
39.643776,-105.008564,Carl's Jr.,80110,Arapahoe County
39.885073,-104.936293,Carl's Jr.,80233,Adams County
37.622635,-104.780168,Carl's Jr.,81089,Huerfano County
39.943594,-104.992820,Carl's Jr.,80241,Adams County
21.328019,-157.885912,Carl's Jr.,96819,Honolulu County
20.795489,-156.511216,Carl's Jr.,96793,Maui County
43.589525,-116.280988,Carl's Jr.,83709,Ada County
43.624466,-116.211266,Carl's Jr.,83706,Ada County
43.609328,-116.193150,Carl's Jr.,83706,Ada County
43.609491,-116.284986,Carl's Jr.,83704,Ada County
43.668949,-116.680138,Carl's Jr.,83605,Canyon County
47.700700,-116.785941,Carl's Jr.,83815,Kootenai County
43.683561,-116.316692,Carl's Jr.,83714,Ada County
43.649635,-116.279989,Carl's Jr.,83704,Ada County
42.559000,-113.897900,Carl's Jr.,83336,Minidoka County
43.506422,-112.023683,Carl's Jr.,83427,Bonneville County
43.482168,-111.988031,Carl's Jr.,83404,Bonneville County
43.494221,-112.048538,Carl's Jr.,83404,Bonneville County
43.617785,-116.354365,Carl's Jr.,83713,Ada County
43.588558,-116.394455,Carl's Jr.,83642,Ada County
43.570277,-116.570787,Carl's Jr.,83651,Canyon County
43.606872,-116.604797,Carl's Jr.,83651,Canyon County
42.894249,-112.451325,Carl's Jr.,83201,Bannock County
47.711559,-117.004509,Carl's Jr.,83854,Kootenai County
32.535353,-93.767034,Carl's Jr.,71101,Caddo Parish
32.399120,-93.808075,Carl's Jr.,71118,Caddo Parish
32.882125,-105.960241,Carl's Jr.,88330,Otero County
35.093570,-106.532431,Carl's Jr.,87112,Bernalillo County
35.137737,-106.615726,Carl's Jr.,87107,Bernalillo County
35.205900,-106.656800,Carl's Jr.,87114,Bernalillo County
35.078209,-106.588014,Carl's Jr.,87108,Bernalillo County
35.109337,-106.586108,Carl's Jr.,87110,Bernalillo County
35.185103,-106.583255,Carl's Jr.,87113,Bernalillo County
35.079533,-106.711119,Carl's Jr.,87104,Bernalillo County
35.090500,-106.643000,Carl's Jr.,87102,Bernalillo County
35.530281,-108.759390,Carl's Jr.,87301,McKinley County
32.308686,-106.764892,Carl's Jr.,88001,Doa Ana County
34.815581,-106.764692,Carl's Jr.,87031,Valencia County
35.244772,-106.696917,Carl's Jr.,87124,Sandoval County
35.659779,-105.975091,Carl's Jr.,87501,Santa Fe County
34.948786,-104.636753,Carl's Jr.,88435,Guadalupe County
39.155573,-119.766881,Carl's Jr.,89703,Carson City
36.036242,-114.993657,Carl's Jr.,89015,Clark County
36.061238,-115.036598,Carl's Jr.,89074,Clark County
36.002668,-115.083310,Carl's Jr.,89052,Clark County
36.028704,-114.969796,Carl's Jr.,89015,Clark County
36.129937,-115.137422,Carl's Jr.,89169,Clark County
36.173064,-115.244669,Carl's Jr.,89107,Clark County
36.159037,-115.161769,Carl's Jr.,89106,Clark County
36.195269,-115.206269,Carl's Jr.,89108,Clark County
36.148209,-115.154049,Carl's Jr.,89102,Clark County
36.159037,-115.120073,Carl's Jr.,89104,Clark County
36.016763,-115.122245,Carl's Jr.,89123,Clark County
36.144863,-115.065229,Carl's Jr.,89121,Clark County
36.114772,-115.119672,Carl's Jr.,89169,Clark County
36.217944,-115.242469,Carl's Jr.,89108,Clark County
36.071464,-115.092290,Carl's Jr.,89120,Clark County
36.144637,-115.192587,Carl's Jr.,89102,Clark County
36.100437,-115.072921,Carl's Jr.,89121,Clark County
36.126163,-115.207302,Carl's Jr.,89103,Clark County
36.100763,-115.207653,Carl's Jr.,89103,Clark County
36.238563,-115.209166,Carl's Jr.,89130,Clark County
36.033540,-115.206009,Carl's Jr.,89139,Clark County
36.174032,-115.062523,Carl's Jr.,89110,Clark County
36.084924,-115.149933,Carl's Jr.,89119,Clark County
36.084342,-115.118800,Carl's Jr.,89120,Clark County
36.286673,-115.287947,Carl's Jr.,89149,Clark County
36.099937,-115.243820,Carl's Jr.,89118,Clark County
36.059236,-115.242759,Carl's Jr.,89113,Clark County
36.188758,-115.259856,Carl's Jr.,89128,Clark County
36.055526,-115.280861,Carl's Jr.,89148,Clark County
36.144449,-115.292734,Carl's Jr.,89117,Clark County
36.099963,-115.301278,Carl's Jr.,89147,Clark County
36.217719,-115.160268,Carl's Jr.,89032,Clark County
36.195937,-115.121552,Carl's Jr.,89030,Clark County
36.239962,-115.114143,Carl's Jr.,89030,Clark County
36.261408,-115.183443,Carl's Jr.,89031,Clark County
36.239355,-115.150356,Carl's Jr.,89032,Clark County
36.219990,-115.125469,Carl's Jr.,89030,Clark County
36.210004,-115.986337,Carl's Jr.,89048,Nye County
35.608988,-115.389429,Carl's Jr.,89019,Clark County
39.538195,-119.863667,Carl's Jr.,89503,Washoe County
39.513131,-119.789377,Carl's Jr.,89501,Washoe County
39.545601,-119.782777,Carl's Jr.,89512,Washoe County
39.472484,-119.786748,Carl's Jr.,89502,Washoe County
39.419673,-119.755386,Carl's Jr.,89521,Washoe County
39.542137,-119.718021,Carl's Jr.,89431,Washoe County
34.773263,-96.669732,Carl's Jr.,74820,Pontotoc County
34.192084,-97.142833,Carl's Jr.,73401,Carter County
36.059612,-95.815469,Carl's Jr.,74012,Tulsa County
36.311770,-95.617003,Carl's Jr.,74019,Rogers County
35.447153,-97.427740,Carl's Jr.,73115,Oklahoma County
34.518328,-97.967011,Carl's Jr.,73533,Stephens County
33.994133,-96.390283,Carl's Jr.,74701,Bryan County
35.623992,-97.486004,Carl's Jr.,73013,Oklahoma County
35.667515,-97.496645,Carl's Jr.,73003,Oklahoma County
35.411563,-99.425681,Carl's Jr.,73644,Beckham County
34.621408,-98.422201,Carl's Jr.,73503,Comanche County
33.940637,-97.130611,Carl's Jr.,73448,Love County
34.913861,-95.745566,Carl's Jr.,74501,Pittsburg County
35.463963,-97.389615,Carl's Jr.,73110,Oklahoma County
35.319829,-97.496968,Carl's Jr.,73160,Cleveland County
35.231749,-97.480231,Carl's Jr.,73069,Cleveland County
35.493063,-97.514072,Carl's Jr.,73103,Oklahoma County
35.605788,-97.620743,Carl's Jr.,73142,Oklahoma County
35.492608,-97.619168,Carl's Jr.,73008,Oklahoma County
35.511643,-97.583568,Carl's Jr.,73112,Oklahoma County
35.392049,-97.547679,Carl's Jr.,73159,Oklahoma County
35.377237,-97.528077,Carl's Jr.,73139,Oklahoma County
36.293030,-95.839269,Carl's Jr.,74055,Tulsa County
36.304206,-95.319656,Carl's Jr.,74361,Mayes County
35.013937,-97.366290,Carl's Jr.,73051,Cleveland County
36.136880,-96.100540,Carl's Jr.,74107,Tulsa County
35.232241,-96.670931,Carl's Jr.,74868,Seminole County
35.353847,-96.912031,Carl's Jr.,74804,Pottawatomie County
36.368737,-96.011922,Carl's Jr.,74073,Tulsa County
34.506437,-96.994722,Carl's Jr.,73086,Murray County
35.890939,-94.977291,Carl's Jr.,74464,Cherokee County
36.104195,-95.920629,Carl's Jr.,74135,Tulsa County
36.013260,-96.047400,Carl's Jr.,74131,Creek County
36.063061,-95.869019,Carl's Jr.,74133,Tulsa County
35.526237,-98.695521,Carl's Jr.,73096,Custer County
36.433480,-99.413708,Carl's Jr.,73801,Woodward County
44.631081,-123.073006,Carl's Jr.,97322,Linn County
44.641265,-123.065614,Carl's Jr.,97322,Linn County
45.534763,-122.865723,Carl's Jr.,97006,Washington County
45.486637,-122.773466,Carl's Jr.,97225,Washington County
44.036713,-121.304390,Carl's Jr.,97701,Deschutes County
44.067947,-121.302690,Carl's Jr.,97701,Deschutes County
45.268437,-122.676645,Carl's Jr.,97013,Clackamas County
44.565529,-123.277992,Carl's Jr.,97331,Benton County
44.572177,-123.264210,Carl's Jr.,97331,Benton County
43.804085,-123.045535,Carl's Jr.,97426,Lane County
42.472142,-122.812785,Carl's Jr.,97502,Jackson County
44.084368,-123.168126,Carl's Jr.,97404,Lane County
44.095737,-123.128605,Carl's Jr.,97404,Lane County
44.065897,-123.074322,Carl's Jr.,97401,Lane County
44.048137,-123.147301,Carl's Jr.,97401,Lane County
42.458137,-123.322785,Carl's Jr.,97526,Josephine County
42.437073,-123.302900,Carl's Jr.,97527,Josephine County
45.502988,-122.415611,Carl's Jr.,97080,Multnomah County
45.424962,-122.512847,Carl's Jr.,97015,Clackamas County
45.516586,-122.974195,Carl's Jr.,97113,Washington County
45.498723,-122.912915,Carl's Jr.,97006,Washington County
45.538350,-122.904339,Carl's Jr.,97006,Washington County
44.998894,-123.026405,Carl's Jr.,97303,Marion County
44.515880,-122.905920,Carl's Jr.,97355,Linn County
45.192401,-123.212624,Carl's Jr.,97128,Yamhill County
42.340342,-122.872412,Carl's Jr.,97501,Jackson County
42.361184,-122.858459,Carl's Jr.,97502,Jackson County
42.312763,-122.862096,Carl's Jr.,97501,Jackson County
44.024738,-116.941744,Carl's Jr.,83619,Payette County
45.320306,-122.577568,Carl's Jr.,97045,Clackamas County
45.478600,-122.561200,Carl's Jr.,97266,Multnomah County
45.436964,-122.578903,Carl's Jr.,97222,Clackamas County
45.532953,-122.558295,Carl's Jr.,97216,Multnomah County
45.504063,-122.510197,Carl's Jr.,97233,Multnomah County
45.536122,-122.477286,Carl's Jr.,97230,Multnomah County
45.408113,-122.793192,Carl's Jr.,97224,Washington County
45.497037,-122.578455,Carl's Jr.,97216,Multnomah County
44.250151,-121.185656,Carl's Jr.,97756,Deschutes County
43.232051,-123.372566,Carl's Jr.,97495,Douglas County
44.914900,-122.980339,Carl's Jr.,97301,Marion County
44.920878,-123.014643,Carl's Jr.,97302,Marion County
44.877425,-123.026105,Carl's Jr.,97302,Marion County
44.948050,-122.983893,Carl's Jr.,97301,Marion County
44.064537,-122.996308,Carl's Jr.,97477,Lane County
44.076831,-123.042380,Carl's Jr.,97401,Lane County
45.442694,-122.745192,Carl's Jr.,97219,Multnomah County
45.443862,-122.801800,Carl's Jr.,97223,Washington County
45.407791,-122.794735,Carl's Jr.,97224,Washington County
45.381337,-122.765317,Carl's Jr.,97062,Washington County
45.332111,-122.772957,Carl's Jr.,97070,Clackamas County
45.527937,-122.429868,Carl's Jr.,97030,Multnomah County
45.151346,-122.833721,Carl's Jr.,97032,Marion County
33.358183,-96.540169,Carl's Jr.,75495,Grayson County
31.997570,-106.580759,Carl's Jr.,79821,El Paso County
32.661111,-97.134385,Carl's Jr.,76015,Tarrant County
30.172861,-97.800118,Carl's Jr.,78748,Travis County
32.735905,-96.611284,Carl's Jr.,75180,Dallas County
30.111462,-97.351495,Carl's Jr.,78602,Bastrop County
29.796327,-94.980679,Carl's Jr.,77521,Harris County
30.115707,-94.143324,Carl's Jr.,77706,Jefferson County
39.478062,-121.254951,Carl's Jr.,95925,Yuba County
33.020774,-96.915265,Carl's Jr.,75010,Denton County
30.525650,-97.815281,Carl's Jr.,78613,Williamson County
32.762039,-96.682636,Carl's Jr.,75227,Dallas County
32.641240,-96.839835,Carl's Jr.,75232,Dallas County
33.192742,-97.096447,Carl's Jr.,76208,Denton County
31.798103,-106.332064,Carl's Jr.,79935,El Paso County
31.737295,-106.292186,Carl's Jr.,79936,El Paso County
31.768763,-106.318738,Carl's Jr.,79936,El Paso County
31.780571,-106.504937,Carl's Jr.,79902,El Paso County
31.830214,-106.529835,Carl's Jr.,79912,El Paso County
31.818147,-106.404337,Carl's Jr.,79906,El Paso County
31.882474,-106.584387,Carl's Jr.,79932,El Paso County
31.691730,-106.327344,Carl's Jr.,79907,El Paso County
31.875631,-106.424068,Carl's Jr.,79924,El Paso County
32.838307,-96.598987,Carl's Jr.,75043,Dallas County
30.632942,-97.696134,Carl's Jr.,78628,Williamson County
29.996817,-95.578208,Carl's Jr.,77070,Harris County
29.736359,-95.589129,Carl's Jr.,77042,Harris County
29.840063,-95.490289,Carl's Jr.,77092,Harris County
29.965280,-95.169487,Carl's Jr.,77346,Harris County
29.807463,-95.168327,Carl's Jr.,77049,Harris County
29.813848,-95.429440,Carl's Jr.,77008,Harris County
30.018933,-95.437069,Carl's Jr.,77090,Harris County
29.901493,-95.634662,Carl's Jr.,77095,Harris County
32.623193,-96.694107,Carl's Jr.,75141,Dallas County
29.784804,-95.735287,Carl's Jr.,77450,Harris County
30.033350,-95.256889,Carl's Jr.,77339,Harris County
29.664082,-95.099873,Carl's Jr.,77505,Harris County
27.600197,-99.479841,Carl's Jr.,78040,Webb County
29.554872,-98.347601,Carl's Jr.,78233,Bexar County
31.323304,-94.727496,Carl's Jr.,75904,Angelina County
26.190559,-98.205508,Carl's Jr.,78577,Hidalgo County
32.793538,-96.612051,Carl's Jr.,75149,Dallas County
29.564815,-95.563692,Carl's Jr.,77459,Fort Bend County
29.684848,-98.129661,Carl's Jr.,78130,Comal County
30.097324,-93.765757,Carl's Jr.,77632,Orange County
29.555825,-95.394621,Carl's Jr.,77584,Brazoria County
29.934153,-93.933629,Carl's Jr.,77619,Jefferson County
29.695433,-95.774471,Carl's Jr.,77407,Fort Bend County
32.919033,-96.419083,Carl's Jr.,75032,Rockwall County
29.539026,-95.763645,Carl's Jr.,77469,Fort Bend County
29.567973,-98.385295,Carl's Jr.,78233,Bexar County
29.356287,-98.525269,Carl's Jr.,78225,Bexar County
29.356642,-98.524959,Carl's Jr.,78225,Bexar County
29.206161,-98.478825,Carl's Jr.,78264,Bexar County
29.516340,-98.412129,Carl's Jr.,78218,Bexar County
29.487832,-98.708822,Carl's Jr.,78250,Bexar County
29.481330,-98.358835,Carl's Jr.,78244,Bexar County
29.438107,-98.655818,Carl's Jr.,78251,Bexar County
29.610640,-98.478218,Carl's Jr.,78232,Bexar County
29.492590,-98.616619,Carl's Jr.,78238,Bexar County
29.854703,-97.955098,Carl's Jr.,78666,Hays County
30.087298,-95.632048,Carl's Jr.,77375,Harris County
32.507949,-95.643136,Carl's Jr.,75790,Van Zandt County
29.310701,-98.616440,Carl's Jr.,78242,Bexar County
31.509869,-97.142586,Carl's Jr.,76711,McLennan County
29.555217,-95.151651,Carl's Jr.,77598,Harris County
26.173098,-98.004982,Carl's Jr.,78596,Hidalgo County
33.902779,-98.495320,Carl's Jr.,76301,Wichita County
33.945411,-98.532534,Carl's Jr.,76306,Wichita County
40.364703,-111.785579,Carl's Jr.,84003,Utah County
40.884163,-111.885323,Carl's Jr.,84025,Davis County
37.724400,-113.129800,Carl's Jr.,84720,Iron County
40.921110,-111.889181,Carl's Jr.,84025,Davis County
41.122232,-112.025817,Carl's Jr.,84015,Davis County
41.139888,-112.061523,Carl's Jr.,84015,Davis County
40.625300,-111.854700,Carl's Jr.,84047,Salt Lake County
40.526043,-111.888780,Carl's Jr.,84020,Salt Lake County
38.993969,-112.324875,Carl's Jr.,84631,Millard County
41.089063,-111.982914,Carl's Jr.,84041,Davis County
40.431572,-111.895294,Carl's Jr.,84043,Utah County
41.711740,-111.838914,Carl's Jr.,84332,Cache County
41.757229,-111.834215,Carl's Jr.,84341,Cache County
40.696363,-112.082726,Carl's Jr.,84044,Salt Lake County
40.656237,-111.886661,Carl's Jr.,84107,Salt Lake County
41.244536,-111.976294,Carl's Jr.,84401,Weber County
41.177410,-111.949446,Carl's Jr.,84405,Weber County
40.321537,-111.705842,Carl's Jr.,84042,Utah County
40.250624,-111.664758,Carl's Jr.,84606,Utah County
41.175299,-112.008149,Carl's Jr.,84401,Weber County
40.522437,-111.941806,Carl's Jr.,84095,Salt Lake County
37.111962,-113.554272,Carl's Jr.,84765,Washington County
37.122773,-113.618627,Carl's Jr.,84765,Washington County
38.934989,-111.854609,Carl's Jr.,84654,Sevier County
40.725537,-111.855870,Carl's Jr.,84105,Salt Lake County
40.771637,-111.940109,Carl's Jr.,84180,Salt Lake County
40.765137,-111.888741,Carl's Jr.,84111,Salt Lake County
40.561225,-111.890618,Carl's Jr.,84070,Salt Lake County
40.594114,-111.831848,Carl's Jr.,84093,Salt Lake County
40.561700,-111.955600,Carl's Jr.,84095,Salt Lake County
40.725263,-111.899370,Carl's Jr.,84115,Salt Lake County
40.119693,-111.654520,Carl's Jr.,84664,Utah County
41.089188,-112.067003,Carl's Jr.,84015,Davis County
40.649590,-111.938980,Carl's Jr.,84123,Salt Lake County
40.556911,-112.297362,Carl's Jr.,84074,Tooele County
40.623009,-111.978818,Carl's Jr.,84084,Salt Lake County
40.587124,-111.938516,Carl's Jr.,84088,Salt Lake County
40.698233,-112.024673,Carl's Jr.,84128,Salt Lake County
40.697240,-111.938718,Carl's Jr.,84119,Salt Lake County
40.696463,-111.975509,Carl's Jr.,84120,Salt Lake County
47.642991,-117.558723,Carl's Jr.,99001,Spokane County
47.505846,-117.564902,Carl's Jr.,99224,Spokane County
47.358063,-122.114248,Carl's Jr.,98042,King County
47.000123,-120.452809,Carl's Jr.,98926,Kittitas County
47.308617,-122.578613,Carl's Jr.,98335,Pierce County
46.219916,-119.223043,Carl's Jr.,99336,Benton County
46.209637,-119.159236,Carl's Jr.,99336,Benton County
47.040027,-122.837416,Carl's Jr.,98503,Thurston County
47.161752,-122.519392,Carl's Jr.,98499,Pierce County
47.666750,-117.104374,Carl's Jr.,99019,Spokane County
48.100045,-122.180782,Carl's Jr.,98271,Snohomish County
46.603197,-122.908273,Carl's Jr.,98531,Lewis County
47.488516,-122.158386,Carl's Jr.,98056,King County
46.985249,-118.343391,Carl's Jr.,99169,Adams County
47.769352,-117.403862,Carl's Jr.,99218,Spokane County
47.653363,-117.422371,Carl's Jr.,99204,Spokane County
47.719088,-117.410995,Carl's Jr.,99207,Spokane County
47.657112,-117.217870,Carl's Jr.,99216,Spokane County
47.255547,-122.516521,Carl's Jr.,98406,Pierce County
45.610714,-122.504295,Carl's Jr.,98683,Clark County
45.640727,-122.619122,Carl's Jr.,98661,Clark County
45.676567,-122.552735,Carl's Jr.,98662,Clark County
45.687977,-122.659614,Carl's Jr.,98665,Clark County
46.569852,-120.487004,Carl's Jr.,98902,Yakima County
41.133829,-104.812889,Carl's Jr.,82001,Laramie County
