latitude,longitude,name,zipcode,county
33.229885,-86.803660,Chick-Fil-A,35007,Shelby County
34.785095,-86.945305,Chick-Fil-A,35613,Limestone County
32.626934,-85.447700,Chick-Fil-A,36801,Lee County
32.605900,-85.486400,Chick-Fil-A,36832,Lee County
32.606716,-85.486430,Chick-Fil-A,36832,Lee County
33.333637,-86.993910,Chick-Fil-A,35022,Jefferson County
33.518000,-86.809400,Chick-Fil-A,35203,Jefferson County
33.499641,-86.795608,Chick-Fil-A,35205,Jefferson County
33.379147,-86.809296,Chick-Fil-A,35244,Jefferson County
33.427826,-86.708170,Chick-Fil-A,35242,Shelby County
33.419296,-86.673211,Chick-Fil-A,35242,Shelby County
33.641670,-86.626270,Chick-Fil-A,35235,Jefferson County
33.560588,-86.748440,Chick-Fil-A,35212,Jefferson County
33.517900,-86.812200,Chick-Fil-A,35203,Jefferson County
33.470264,-86.770940,Chick-Fil-A,35205,Jefferson County
33.463200,-86.790300,Chick-Fil-A,35209,Jefferson County
33.516099,-86.851164,Chick-Fil-A,35204,Jefferson County
33.590733,-86.696240,Chick-Fil-A,35206,Jefferson County
33.145915,-86.747401,Chick-Fil-A,35040,Shelby County
34.153400,-86.840300,Chick-Fil-A,35058,Cullman County
30.601788,-87.897415,Chick-Fil-A,36526,Baldwin County
34.572662,-87.015760,Chick-Fil-A,35601,Morgan County
31.217750,-85.362780,Chick-Fil-A,36321,Houston County
31.244300,-85.428290,Chick-Fil-A,36303,Houston County
31.254185,-85.424350,Chick-Fil-A,36303,Houston County
31.319658,-85.829247,Chick-Fil-A,36330,Coffee County
34.801807,-87.675285,Chick-Fil-A,35630,Lauderdale County
34.837345,-87.635860,Chick-Fil-A,35630,Lauderdale County
34.838460,-87.634410,Chick-Fil-A,35630,Lauderdale County
30.369904,-87.682360,Chick-Fil-A,36535,Baldwin County
34.437881,-85.758558,Chick-Fil-A,35967,DeKalb County
33.607920,-86.807050,Chick-Fil-A,35068,Jefferson County
33.994896,-86.006676,Chick-Fil-A,35901,Etowah County
33.998844,-86.005680,Chick-Fil-A,35901,Etowah County
33.651363,-86.815636,Chick-Fil-A,35068,Jefferson County
34.302273,-86.278114,Chick-Fil-A,35976,Marshall County
33.446860,-86.823440,Chick-Fil-A,35209,Jefferson County
33.399097,-86.805410,Chick-Fil-A,35216,Jefferson County
33.371704,-86.812760,Chick-Fil-A,35244,Jefferson County
33.358332,-86.855471,Chick-Fil-A,35244,Jefferson County
34.613594,-86.567970,Chick-Fil-A,35803,Madison County
34.706720,-86.588210,Chick-Fil-A,35801,Madison County
34.736520,-86.652466,Chick-Fil-A,35816,Madison County
34.694572,-86.567696,Chick-Fil-A,35801,Madison County
34.727545,-86.637945,Chick-Fil-A,35816,Madison County
33.526505,-86.720540,Chick-Fil-A,35213,Jefferson County
33.824100,-85.763400,Chick-Fil-A,36277,Calhoun County
33.845100,-87.252240,Chick-Fil-A,35501,Walker County
33.851800,-87.271900,Chick-Fil-A,35503,Walker County
33.561535,-86.523100,Chick-Fil-A,35094,Jefferson County
34.752690,-86.744500,Chick-Fil-A,35757,Madison County
30.692839,-88.041595,Chick-Fil-A,36603,Mobile County
30.674000,-88.122300,Chick-Fil-A,36606,Mobile County
30.689932,-88.120940,Chick-Fil-A,36607,Mobile County
30.698407,-88.180903,Chick-Fil-A,36609,Mobile County
30.680786,-88.225010,Chick-Fil-A,36609,Mobile County
30.675900,-88.174938,Chick-Fil-A,36609,Mobile County
32.376202,-86.305428,Chick-Fil-A,36107,Montgomery County
32.385300,-86.206400,Chick-Fil-A,36109,Montgomery County
32.378743,-86.306147,Chick-Fil-A,36107,Montgomery County
32.346504,-86.223620,Chick-Fil-A,36106,Montgomery County
32.358242,-86.170460,Chick-Fil-A,36117,Montgomery County
32.368820,-86.270410,Chick-Fil-A,36107,Montgomery County
34.744901,-87.669799,Chick-Fil-A,35660,Colbert County
33.238370,-87.572680,Chick-Fil-A,35473,Tuscaloosa County
32.620370,-85.405210,Chick-Fil-A,36801,Lee County
34.660613,-86.483908,Chick-Fil-A,35763,Madison County
33.601300,-85.833890,Chick-Fil-A,36203,Calhoun County
33.613500,-85.824000,Chick-Fil-A,36203,Calhoun County
33.333340,-86.785675,Chick-Fil-A,35124,Shelby County
33.610884,-86.281128,Chick-Fil-A,35125,St. Clair County
32.497948,-85.045044,Chick-Fil-A,36867,Russell County
32.460290,-86.412580,Chick-Fil-A,36066,Autauga County
30.670927,-87.851524,Chick-Fil-A,36527,Baldwin County
33.097198,-86.201157,Chick-Fil-A,35150,Talladega County
31.783050,-85.956163,Chick-Fil-A,36079,Pike County
31.800100,-85.955700,Chick-Fil-A,36079,Pike County
33.194930,-87.523026,Chick-Fil-A,35404,Tuscaloosa County
33.191242,-87.527534,Chick-Fil-A,35404,Tuscaloosa County
33.071081,-87.562675,Chick-Fil-A,35405,Tuscaloosa County
33.221355,-87.529382,Chick-Fil-A,35404,Tuscaloosa County
33.212020,-87.544749,Chick-Fil-A,35404,Tuscaloosa County
33.450808,-86.788154,Chick-Fil-A,35209,Jefferson County
34.125578,-93.059935,Chick-Fil-A,71923,Clark County
34.124500,-93.051400,Chick-Fil-A,71923,Clark County
36.370740,-94.221210,Chick-Fil-A,72719,Benton County
36.362063,-94.180690,Chick-Fil-A,72719,Benton County
34.617100,-92.497780,Chick-Fil-A,72022,Saline County
35.090800,-92.413900,Chick-Fil-A,72032,Faulkner County
35.078100,-92.387600,Chick-Fil-A,72032,Faulkner County
35.094006,-92.463097,Chick-Fil-A,72032,Faulkner County
36.056046,-94.180060,Chick-Fil-A,72730,Washington County
36.127190,-94.144005,Chick-Fil-A,72703,Washington County
36.067500,-94.168600,Chick-Fil-A,72703,Washington County
36.127033,-94.148550,Chick-Fil-A,72703,Washington County
35.385256,-94.374126,Chick-Fil-A,72904,Sebastian County
35.354908,-94.357070,Chick-Fil-A,72903,Sebastian County
34.460167,-93.061330,Chick-Fil-A,71913,Garland County
35.842900,-90.677200,Chick-Fil-A,72401,Craighead County
35.823040,-90.668270,Chick-Fil-A,72401,Craighead County
34.793750,-92.401215,Chick-Fil-A,72212,Pulaski County
34.754208,-92.412223,Chick-Fil-A,72211,Pulaski County
34.657186,-92.408901,Chick-Fil-A,72209,Pulaski County
34.752000,-92.341700,Chick-Fil-A,72205,Pulaski County
34.752020,-92.343636,Chick-Fil-A,72205,Pulaski County
33.288736,-93.236392,Chick-Fil-A,71753,Columbia County
34.848425,-92.405979,Chick-Fil-A,72113,Pulaski County
33.590408,-91.811004,Chick-Fil-A,71655,Drew County
34.792330,-92.227150,Chick-Fil-A,72116,Pulaski County
34.789284,-92.218984,Chick-Fil-A,72116,Pulaski County
34.241761,-92.023183,Chick-Fil-A,71602,Jefferson County
36.283470,-94.152320,Chick-Fil-A,72758,Benton County
36.335396,-94.175415,Chick-Fil-A,72758,Benton County
36.297350,-94.187278,Chick-Fil-A,72718,Benton County
35.293860,-93.137009,Chick-Fil-A,72801,Pope County
35.277931,-93.094849,Chick-Fil-A,72802,Pope County
35.247000,-91.733700,Chick-Fil-A,72082,White County
35.250314,-91.685995,Chick-Fil-A,72082,White County
33.465420,-112.274635,Chick-Fil-A,85037,Maricopa County
32.879490,-111.683640,Chick-Fil-A,85194,Pinal County
33.306250,-111.888330,Chick-Fil-A,85224,Maricopa County
33.281918,-111.790390,Chick-Fil-A,85297,Maricopa County
33.250363,-111.841119,Chick-Fil-A,85286,Maricopa County
35.190863,-111.660507,Chick-Fil-A,86001,Coconino County
35.192700,-111.654000,Chick-Fil-A,86001,Coconino County
33.304340,-111.743440,Chick-Fil-A,85295,Maricopa County
33.609523,-112.161283,Chick-Fil-A,85304,Maricopa County
33.611221,-112.186417,Chick-Fil-A,85306,Maricopa County
33.462692,-112.341570,Chick-Fil-A,85392,Maricopa County
33.382960,-111.806460,Chick-Fil-A,85204,Maricopa County
33.327130,-111.687660,Chick-Fil-A,85296,Maricopa County
33.390522,-111.690186,Chick-Fil-A,85206,Maricopa County
33.432552,-111.871660,Chick-Fil-A,85201,Maricopa County
33.635815,-112.232960,Chick-Fil-A,85382,Maricopa County
33.453525,-112.072133,Chick-Fil-A,85004,Maricopa County
33.596760,-111.980545,Chick-Fil-A,85028,Maricopa County
33.509180,-112.046194,Chick-Fil-A,85014,Maricopa County
33.667750,-112.124060,Chick-Fil-A,85027,Maricopa County
33.581815,-112.127483,Chick-Fil-A,85029,Maricopa County
33.509524,-112.129738,Chick-Fil-A,85017,Maricopa County
33.495220,-111.986621,Chick-Fil-A,85018,Maricopa County
33.318912,-111.975339,Chick-Fil-A,85044,Maricopa County
33.655630,-111.927895,Chick-Fil-A,85054,Maricopa County
34.577430,-112.363290,Chick-Fil-A,86314,Yavapai County
33.259834,-111.642334,Chick-Fil-A,85212,Maricopa County
33.583103,-111.888756,Chick-Fil-A,85258,Maricopa County
33.621212,-111.892260,Chick-Fil-A,85260,Maricopa County
33.638332,-112.352550,Chick-Fil-A,85375,Maricopa County
33.417200,-111.932000,Chick-Fil-A,85282,Maricopa County
33.421732,-111.940848,Chick-Fil-A,85281,Maricopa County
32.231800,-110.951000,Chick-Fil-A,85719,Pima County
32.222042,-110.915860,Chick-Fil-A,85716,Pima County
32.337445,-111.049798,Chick-Fil-A,85741,Pima County
32.289783,-110.978780,Chick-Fil-A,85705,Pima County
32.248779,-110.849716,Chick-Fil-A,85715,Pima County
32.698465,-114.600469,Chick-Fil-A,85364,Yuma County
33.571950,-117.723598,Chick-Fil-A,92656,Orange County
38.939696,-121.096461,Chick-Fil-A,95603,Placer County
34.128564,-117.889312,Chick-Fil-A,91722,Los Angeles County
35.354419,-119.059986,Chick-Fil-A,93309,Kern County
33.910862,-117.880908,Chick-Fil-A,92821,Orange County
33.846780,-117.991529,Chick-Fil-A,90620,Orange County
33.862222,-118.091156,Chick-Fil-A,90701,Los Angeles County
34.001285,-117.726625,Chick-Fil-A,91710,San Bernardino County
32.628678,-116.966919,Chick-Fil-A,91915,San Diego County
33.994948,-117.931211,Chick-Fil-A,91748,Los Angeles County
34.025451,-117.836955,Chick-Fil-A,91789,Los Angeles County
33.824416,-117.514322,Chick-Fil-A,92881,Riverside County
33.899598,-117.557045,Chick-Fil-A,92879,Riverside County
33.686221,-117.919473,Chick-Fil-A,92626,Orange County
33.937683,-118.126343,Chick-Fil-A,90241,Los Angeles County
38.423445,-121.389519,Chick-Fil-A,95758,Sacramento County
33.048391,-117.259819,Chick-Fil-A,92024,San Diego County
33.114608,-117.099678,Chick-Fil-A,92025,San Diego County
38.258846,-122.059843,Chick-Fil-A,94533,Solano County
38.657301,-121.127079,Chick-Fil-A,95630,Sacramento County
33.679046,-117.663878,Chick-Fil-A,92610,Orange County
37.534770,-122.000396,Chick-Fil-A,94538,Alameda County
37.505398,-121.973686,Chick-Fil-A,94538,Alameda County
36.808435,-119.773139,Chick-Fil-A,93710,Fresno County
36.852744,-119.790815,Chick-Fil-A,93650,Fresno County
33.859794,-117.922440,Chick-Fil-A,92832,Orange County
33.877906,-117.890075,Chick-Fil-A,92831,Orange County
38.743608,-121.225170,Chick-Fil-A,95661,Placer County
33.725368,-117.789461,Chick-Fil-A,92782,Orange County
33.649597,-117.839714,Chick-Fil-A,92617,Orange County
33.699191,-117.739563,Chick-Fil-A,92620,Orange County
33.917542,-117.965620,Chick-Fil-A,90631,Orange County
32.776579,-117.021173,Chick-Fil-A,91942,San Diego County
33.612897,-117.710596,Chick-Fil-A,92637,Orange County
33.553689,-117.685513,Chick-Fil-A,92677,Orange County
33.853692,-118.134380,Chick-Fil-A,90712,Los Angeles County
33.789440,-118.141150,Chick-Fil-A,90804,Los Angeles County
33.831211,-118.086129,Chick-Fil-A,90715,Los Angeles County
34.059605,-118.419435,Chick-Fil-A,90067,Los Angeles County
33.986248,-118.400536,Chick-Fil-A,90230,Los Angeles County
34.017481,-118.282678,Chick-Fil-A,90007,Los Angeles County
34.049760,-118.259500,Chick-Fil-A,90017,Los Angeles County
34.097824,-118.338345,Chick-Fil-A,90028,Los Angeles County
34.063526,-118.445116,Chick-Fil-A,90024,Los Angeles County
33.561520,-117.204760,Chick-Fil-A,92563,Riverside County
32.661085,-117.104778,Chick-Fil-A,91950,San Diego County
33.614172,-117.873021,Chick-Fil-A,92625,Orange County
34.257305,-118.538463,Chick-Fil-A,91324,Los Angeles County
34.231992,-118.554162,Chick-Fil-A,91324,Los Angeles County
38.094082,-122.557419,Chick-Fil-A,94949,Marin County
33.178161,-117.294923,Chick-Fil-A,92010,San Diego County
34.069021,-117.556454,Chick-Fil-A,91764,San Bernardino County
33.831980,-117.836047,Chick-Fil-A,92865,Orange County
34.220479,-119.158194,Chick-Fil-A,93036,Ventura County
34.617802,-118.211487,Chick-Fil-A,93551,Los Angeles County
34.145435,-118.115341,Chick-Fil-A,91106,Los Angeles County
37.699634,-121.907374,Chick-Fil-A,94588,Alameda County
38.616658,-121.268848,Chick-Fil-A,95670,Sacramento County
34.106728,-117.539291,Chick-Fil-A,91739,San Bernardino County
34.070275,-117.204945,Chick-Fil-A,92374,San Bernardino County
33.939230,-117.279993,Chick-Fil-A,92553,Riverside County
33.929371,-117.426834,Chick-Fil-A,92504,Riverside County
38.362680,-122.714100,Chick-Fil-A,94928,Sonoma County
38.783798,-121.286548,Chick-Fil-A,95678,Placer County
38.598344,-121.417303,Chick-Fil-A,95825,Sacramento County
38.660568,-121.355690,Chick-Fil-A,95841,Sacramento County
38.477531,-121.496048,Chick-Fil-A,95822,Sacramento County
32.914279,-117.144142,Chick-Fil-A,92126,San Diego County
32.979579,-117.080445,Chick-Fil-A,92128,San Diego County
32.997920,-117.155650,Chick-Fil-A,92127,San Diego County
32.754096,-117.212855,Chick-Fil-A,92110,San Diego County
32.819870,-117.176890,Chick-Fil-A,92117,San Diego County
32.892030,-117.201950,Chick-Fil-A,92121,San Diego County
37.302341,-121.859736,Chick-Fil-A,95122,Santa Clara County
37.417298,-121.951610,Chick-Fil-A,95134,Santa Clara County
35.302826,-120.658835,Chick-Fil-A,93405,San Luis Obispo County
33.135642,-117.178624,Chick-Fil-A,92078,San Diego County
33.699614,-117.885416,Chick-Fil-A,92707,Orange County
34.440299,-119.743014,Chick-Fil-A,93110,Santa Barbara County
34.419514,-118.562138,Chick-Fil-A,91355,Los Angeles County
34.923790,-120.425429,Chick-Fil-A,93458,Santa Barbara County
34.010140,-118.479880,Chick-Fil-A,90405,Los Angeles County
38.454096,-122.717281,Chick-Fil-A,95405,Sonoma County
32.839097,-116.993081,Chick-Fil-A,92071,San Diego County
33.786860,-118.072499,Chick-Fil-A,90720,Orange County
37.984100,-121.340881,Chick-Fil-A,95204,San Joaquin County
37.369070,-122.038376,Chick-Fil-A,94086,Santa Clara County
33.527360,-117.149307,Chick-Fil-A,92591,Riverside County
34.184322,-118.875854,Chick-Fil-A,91360,Ventura County
33.865119,-118.352050,Chick-Fil-A,90278,Los Angeles County
33.829819,-118.352447,Chick-Fil-A,90503,Los Angeles County
34.118136,-117.829326,Chick-Fil-A,91773,Los Angeles County
33.698087,-117.823482,Chick-Fil-A,92606,Orange County
34.133068,-117.637111,Chick-Fil-A,91786,San Bernardino County
38.361320,-121.965248,Chick-Fil-A,95688,Solano County
38.135601,-122.214844,Chick-Fil-A,94591,Solano County
33.989412,-118.446465,Chick-Fil-A,90292,Los Angeles County
34.261015,-119.230581,Chick-Fil-A,93003,Ventura County
37.924765,-122.063109,Chick-Fil-A,94597,Contra Costa County
34.186597,-118.623336,Chick-Fil-A,91367,Los Angeles County
34.163766,-118.828017,Chick-Fil-A,91362,Ventura County
33.755624,-117.989708,Chick-Fil-A,92683,Orange County
33.944309,-117.994184,Chick-Fil-A,90603,Los Angeles County
33.873141,-117.744976,Chick-Fil-A,92808,Orange County
39.791542,-105.080895,Chick-Fil-A,80002,Jefferson County
39.840168,-105.081889,Chick-Fil-A,80003,Jefferson County
39.695091,-104.865965,Chick-Fil-A,80247,Arapahoe County
39.711041,-104.822928,Chick-Fil-A,80012,Arapahoe County
39.711079,-104.821248,Chick-Fil-A,80012,Arapahoe County
39.595630,-104.703620,Chick-Fil-A,80016,Arapahoe County
39.764655,-104.773881,Chick-Fil-A,80011,Arapahoe County
39.615704,-104.816100,Chick-Fil-A,80015,Arapahoe County
39.956840,-104.776950,Chick-Fil-A,80601,Adams County
39.408375,-104.858940,Chick-Fil-A,80108,Douglas County
39.592067,-104.960268,Chick-Fil-A,80122,Arapahoe County
38.810741,-104.822483,Chick-Fil-A,80905,El Paso County
38.947390,-104.795074,Chick-Fil-A,80920,El Paso County
38.885925,-104.717520,Chick-Fil-A,80922,El Paso County
39.024548,-104.817817,Chick-Fil-A,80840,El Paso County
38.896343,-104.834270,Chick-Fil-A,80907,El Paso County
38.843502,-104.762215,Chick-Fil-A,80909,El Paso County
38.947200,-104.803000,Chick-Fil-A,80920,El Paso County
39.883194,-105.024430,Chick-Fil-A,80031,Adams County
39.767822,-104.904030,Chick-Fil-A,80207,Denver County
39.740421,-104.943542,Chick-Fil-A,80206,Denver County
39.708434,-104.940302,Chick-Fil-A,80246,Denver County
39.653369,-104.900659,Chick-Fil-A,80237,Denver County
39.838848,-104.671815,Chick-Fil-A,80249,Denver County
39.746067,-105.053688,Chick-Fil-A,80214,Jefferson County
39.660790,-104.988260,Chick-Fil-A,80110,Arapahoe County
40.537834,-105.077820,Chick-Fil-A,80526,Larimer County
38.718041,-104.700806,Chick-Fil-A,80911,El Paso County
39.080487,-108.552421,Chick-Fil-A,81501,Mesa County
39.080074,-108.584220,Chick-Fil-A,81501,Mesa County
40.395094,-104.749140,Chick-Fil-A,80620,Weld County
39.595119,-104.880435,Chick-Fil-A,80111,Arapahoe County
39.543827,-104.945300,Chick-Fil-A,80126,Douglas County
39.548340,-105.002190,Chick-Fil-A,80129,Douglas County
39.718398,-105.206419,Chick-Fil-A,80401,Jefferson County
39.706117,-105.079859,Chick-Fil-A,80226,Jefferson County
39.620906,-105.091085,Chick-Fil-A,80123,Jefferson County
39.583870,-105.024960,Chick-Fil-A,80120,Arapahoe County
39.562830,-104.876420,Chick-Fil-A,80112,Arapahoe County
39.568714,-105.109390,Chick-Fil-A,80128,Jefferson County
39.565342,-104.883260,Chick-Fil-A,80112,Arapahoe County
40.152720,-105.095980,Chick-Fil-A,80501,Boulder County
40.407720,-105.006065,Chick-Fil-A,80528,Larimer County
39.548750,-104.773620,Chick-Fil-A,80134,Douglas County
38.309666,-104.627670,Chick-Fil-A,81003,Pueblo County
39.642715,-105.007706,Chick-Fil-A,80110,Arapahoe County
39.928314,-105.139275,Chick-Fil-A,80021,Jefferson County
39.914560,-104.970850,Chick-Fil-A,80241,Adams County
39.997826,-104.974420,Chick-Fil-A,80023,Broomfield County
40.523921,-104.990094,Chick-Fil-A,80525,Larimer County
39.965245,-104.993580,Chick-Fil-A,80023,Broomfield County
41.438518,-73.407536,Chick-Fil-A,06804,Fairfield County
41.380080,-73.481071,Chick-Fil-A,06810,Fairfield County
41.989896,-72.580098,Chick-Fil-A,06082,Hartford County
41.723690,-72.616030,Chick-Fil-A,06118,Hartford County
41.360102,-72.870537,Chick-Fil-A,06473,New Haven County
41.098760,-73.441970,Chick-Fil-A,06854,Fairfield County
41.638658,-72.873568,Chick-Fil-A,06062,Hartford County
41.492932,-72.093632,Chick-Fil-A,06382,New London County
41.466376,-72.818599,Chick-Fil-A,06492,New Haven County
41.739377,-72.719281,Chick-Fil-A,06110,Hartford County
38.857640,-77.044200,Chick-Fil-A,22202,Arlington County
38.899120,-76.985020,Chick-Fil-A,20002,District of Columbia
38.900140,-77.047740,Chick-Fil-A,20006,District of Columbia
38.929501,-77.033577,Chick-Fil-A,20010,District of Columbia
38.908218,-77.063057,Chick-Fil-A,20036,District of Columbia
38.948288,-77.079460,Chick-Fil-A,20016,District of Columbia
38.901394,-77.004937,Chick-Fil-A,20260,District of Columbia
38.933194,-76.996326,Chick-Fil-A,20017,District of Columbia
39.630444,-75.666084,Chick-Fil-A,19701,New Castle County
39.102320,-75.543260,Chick-Fil-A,19962,Kent County
39.186169,-75.536676,Chick-Fil-A,19901,Kent County
39.190831,-75.543059,Chick-Fil-A,19901,Kent County
39.450853,-75.737226,Chick-Fil-A,19709,New Castle County
38.920350,-75.438586,Chick-Fil-A,19963,Sussex County
38.571134,-75.287014,Chick-Fil-A,19966,Sussex County
39.682900,-75.753900,Chick-Fil-A,19716,New Castle County
39.678670,-75.652150,Chick-Fil-A,19713,New Castle County
39.686667,-75.679329,Chick-Fil-A,19713,New Castle County
38.708776,-75.093118,Chick-Fil-A,19971,Sussex County
39.822834,-75.544136,Chick-Fil-A,19803,New Castle County
28.662400,-81.397800,Chick-Fil-A,32714,Seminole County
28.666775,-81.377335,Chick-Fil-A,32701,Seminole County
28.670172,-81.453865,Chick-Fil-A,32714,Seminole County
26.365274,-80.132820,Chick-Fil-A,33486,Palm Beach County
26.373302,-80.109008,Chick-Fil-A,33431,Palm Beach County
26.527096,-80.094444,Chick-Fil-A,33426,Palm Beach County
27.465520,-82.565820,Chick-Fil-A,34205,Manatee County
27.458603,-82.575274,Chick-Fil-A,34207,Manatee County
27.444279,-82.466780,Chick-Fil-A,34201,Manatee County
27.922676,-82.321045,Chick-Fil-A,33511,Hillsborough County
27.938406,-82.262900,Chick-Fil-A,33594,Hillsborough County
27.931906,-82.325676,Chick-Fil-A,33510,Hillsborough County
28.534239,-82.508720,Chick-Fil-A,34613,Hernando County
26.669750,-81.935540,Chick-Fil-A,33903,Lee County
28.095934,-82.501590,Chick-Fil-A,33618,Hillsborough County
27.960999,-82.732895,Chick-Fil-A,33765,Pinellas County
28.009848,-82.730930,Chick-Fil-A,33763,Pinellas County
28.017286,-82.733440,Chick-Fil-A,33763,Pinellas County
27.894390,-82.680600,Chick-Fil-A,33762,Pinellas County
28.546034,-81.708160,Chick-Fil-A,34756,Lake County
28.355701,-81.677107,Chick-Fil-A,34747,Osceola County
26.246988,-80.252426,Chick-Fil-A,33071,Broward County
30.729180,-86.567820,Chick-Fil-A,32536,Okaloosa County
28.228500,-81.648330,Chick-Fil-A,33837,Polk County
26.068324,-80.362049,Chick-Fil-A,33331,Broward County
26.096604,-80.251047,Chick-Fil-A,33324,Broward County
29.181602,-81.080060,Chick-Fil-A,32114,Volusia County
29.191195,-81.046790,Chick-Fil-A,32114,Volusia County
26.316345,-80.153854,Chick-Fil-A,33442,Broward County
28.987676,-81.299577,Chick-Fil-A,32763,Volusia County
26.439176,-80.072273,Chick-Fil-A,33444,Palm Beach County
30.387175,-86.469010,Chick-Fil-A,32541,Okaloosa County
25.810493,-80.368920,Chick-Fil-A,33172,Miami-Dade County
28.972261,-80.896150,Chick-Fil-A,32141,Volusia County
26.422358,-81.812195,Chick-Fil-A,33967,Lee County
28.643350,-81.339869,Chick-Fil-A,32730,Seminole County
30.101753,-81.710940,Chick-Fil-A,32003,Clay County
26.160696,-80.115509,Chick-Fil-A,33306,Broward County
26.464725,-81.773698,Chick-Fil-A,33967,Lee County
26.545052,-81.872290,Chick-Fil-A,33907,Lee County
26.612011,-81.813774,Chick-Fil-A,33966,Lee County
26.493910,-81.788740,Chick-Fil-A,33967,Lee County
27.418438,-80.380989,Chick-Fil-A,34981,St. Lucie County
30.439964,-86.638200,Chick-Fil-A,32544,Okaloosa County
29.644300,-82.348200,Chick-Fil-A,32603,Alachua County
29.644882,-82.354324,Chick-Fil-A,32603,Alachua County
29.656246,-82.347138,Chick-Fil-A,32603,Alachua County
29.622250,-82.377350,Chick-Fil-A,32608,Alachua County
29.647310,-82.341148,Chick-Fil-A,32603,Alachua County
29.656920,-82.409950,Chick-Fil-A,32607,Alachua County
26.589638,-80.144196,Chick-Fil-A,33463,Palm Beach County
30.358591,-87.156982,Chick-Fil-A,32561,Santa Rosa County
30.307201,-81.689773,Chick-Fil-A,32204,Duval County
30.266954,-81.510231,Chick-Fil-A,32246,Duval County
30.184319,-81.553970,Chick-Fil-A,32256,Duval County
30.321020,-81.457920,Chick-Fil-A,32224,Duval County
30.287249,-81.458405,Chick-Fil-A,32224,Duval County
30.479279,-81.635060,Chick-Fil-A,32218,Duval County
30.350841,-81.602520,Chick-Fil-A,32211,Duval County
30.190136,-81.627892,Chick-Fil-A,32257,Duval County
30.263952,-81.556830,Chick-Fil-A,32216,Duval County
30.278030,-81.719580,Chick-Fil-A,32205,Duval County
30.259892,-81.528540,Chick-Fil-A,32246,Duval County
30.243675,-81.599130,Chick-Fil-A,32217,Duval County
30.315327,-81.664094,Chick-Fil-A,32204,Duval County
30.318071,-81.555305,Chick-Fil-A,32211,Duval County
30.196562,-81.828470,Chick-Fil-A,32222,Duval County
30.189041,-81.552600,Chick-Fil-A,32256,Duval County
30.254730,-81.391150,Chick-Fil-A,32250,Duval County
27.241953,-80.274640,Chick-Fil-A,34994,Martin County
28.346823,-81.419819,Chick-Fil-A,34741,Osceola County
28.304311,-81.447744,Chick-Fil-A,34741,Osceola County
28.332214,-81.525120,Chick-Fil-A,34747,Osceola County
28.345549,-81.602240,Chick-Fil-A,34747,Osceola County
30.180231,-82.684936,Chick-Fil-A,32024,Columbia County
28.756655,-81.355310,Chick-Fil-A,32746,Seminole County
26.807833,-80.080574,Chick-Fil-A,33403,Palm Beach County
28.031673,-81.917221,Chick-Fil-A,33801,Polk County
28.091347,-81.978020,Chick-Fil-A,33805,Polk County
28.094709,-81.973950,Chick-Fil-A,33805,Polk County
27.981441,-81.957640,Chick-Fil-A,33803,Polk County
27.895185,-82.778240,Chick-Fil-A,33771,Pinellas County
28.156015,-82.410111,Chick-Fil-A,33559,Hillsborough County
28.081701,-80.649720,Chick-Fil-A,32901,Brevard County
28.230886,-80.716370,Chick-Fil-A,32955,Brevard County
28.035778,-80.648155,Chick-Fil-A,32907,Brevard County
28.354548,-80.686580,Chick-Fil-A,32952,Brevard County
28.357055,-80.684157,Chick-Fil-A,32952,Brevard County
25.691240,-80.313936,Chick-Fil-A,33143,Miami-Dade County
25.761670,-80.372439,Chick-Fil-A,33174,Miami-Dade County
25.769338,-80.346470,Chick-Fil-A,33174,Miami-Dade County
25.920008,-80.293560,Chick-Fil-A,33014,Miami-Dade County
30.075937,-81.863464,Chick-Fil-A,32068,Clay County
25.980047,-80.358470,Chick-Fil-A,33027,Broward County
30.376438,-86.349421,Chick-Fil-A,32550,Walton County
28.820070,-81.669830,Chick-Fil-A,32726,Lake County
26.169520,-81.795680,Chick-Fil-A,34103,Collier County
26.217539,-81.768974,Chick-Fil-A,34109,Collier County
30.515052,-86.461617,Chick-Fil-A,32542,Okaloosa County
29.158740,-82.173300,Chick-Fil-A,34474,Marion County
29.154365,-82.180869,Chick-Fil-A,34474,Marion County
28.551203,-81.532910,Chick-Fil-A,34734,Orange County
28.043344,-82.679060,Chick-Fil-A,34677,Pinellas County
28.911863,-81.280210,Chick-Fil-A,32725,Volusia County
30.184105,-81.734610,Chick-Fil-A,32073,Clay County
30.187376,-81.737530,Chick-Fil-A,32073,Clay County
28.597075,-81.223230,Chick-Fil-A,32817,Orange County
28.375797,-81.403824,Chick-Fil-A,32837,Orange County
28.372103,-81.504170,Chick-Fil-A,32821,Orange County
28.449226,-81.402914,Chick-Fil-A,32809,Orange County
28.552734,-81.350334,Chick-Fil-A,32803,Orange County
28.510118,-81.375910,Chick-Fil-A,32806,Orange County
28.598700,-81.203000,Chick-Fil-A,32826,Orange County
28.485573,-81.431420,Chick-Fil-A,32839,Orange County
28.492613,-81.459650,Chick-Fil-A,32811,Orange County
28.555775,-81.206310,Chick-Fil-A,32826,Orange County
28.472946,-81.310221,Chick-Fil-A,32812,Orange County
28.450535,-81.478836,Chick-Fil-A,32819,Orange County
28.457985,-81.398020,Chick-Fil-A,32809,Orange County
28.636168,-81.403870,Chick-Fil-A,32810,Orange County
28.431200,-81.308500,Chick-Fil-A,32827,Orange County
29.258099,-81.110930,Chick-Fil-A,32117,Volusia County
28.673440,-81.204349,Chick-Fil-A,32765,Seminole County
28.655649,-81.207741,Chick-Fil-A,32765,Seminole County
30.602749,-87.114265,Chick-Fil-A,32514,Escambia County
27.998357,-80.637227,Chick-Fil-A,32907,Brevard County
26.848598,-80.085464,Chick-Fil-A,33410,Palm Beach County
29.554029,-81.227035,Chick-Fil-A,32137,Flagler County
28.070375,-82.739420,Chick-Fil-A,34684,Pinellas County
30.197319,-85.813130,Chick-Fil-A,32407,Bay County
30.187240,-85.647770,Chick-Fil-A,32405,Bay County
30.189090,-85.651090,Chick-Fil-A,32405,Bay County
30.154910,-85.591630,Chick-Fil-A,32401,Bay County
30.182926,-85.650860,Chick-Fil-A,32405,Bay County
30.190289,-85.674385,Chick-Fil-A,32405,Bay County
26.010595,-80.304535,Chick-Fil-A,33026,Broward County
26.007850,-80.309713,Chick-Fil-A,33026,Broward County
30.531693,-87.223650,Chick-Fil-A,32514,Escambia County
30.475658,-87.193565,Chick-Fil-A,32504,Escambia County
30.472404,-87.209140,Chick-Fil-A,32504,Escambia County
30.395916,-87.277775,Chick-Fil-A,32508,Escambia County
30.475332,-87.207660,Chick-Fil-A,32504,Escambia County
27.836401,-82.682320,Chick-Fil-A,33714,Pinellas County
26.117807,-80.255000,Chick-Fil-A,33324,Broward County
26.258217,-80.099365,Chick-Fil-A,33062,Broward County
27.006899,-82.132220,Chick-Fil-A,33954,Charlotte County
29.110320,-81.026750,Chick-Fil-A,32129,Volusia County
28.293442,-82.712210,Chick-Fil-A,34668,Pasco County
29.869550,-81.322680,Chick-Fil-A,32084,St. Johns County
29.892174,-81.315979,Chick-Fil-A,32084,St. Johns County
28.252625,-81.315381,Chick-Fil-A,34769,Osceola County
27.793747,-82.733185,Chick-Fil-A,33710,Pinellas County
27.794079,-82.729675,Chick-Fil-A,33710,Pinellas County
27.810957,-82.638210,Chick-Fil-A,33704,Pinellas County
27.721403,-82.739710,Chick-Fil-A,33706,Pinellas County
28.804430,-81.338950,Chick-Fil-A,32771,Seminole County
28.812280,-81.331661,Chick-Fil-A,32771,Seminole County
27.268654,-82.463240,Chick-Fil-A,34233,Sarasota County
27.337267,-82.460980,Chick-Fil-A,34232,Sarasota County
27.234303,-82.494415,Chick-Fil-A,34238,Sarasota County
27.839190,-82.788250,Chick-Fil-A,33772,Pinellas County
27.168776,-80.229730,Chick-Fil-A,34994,Martin County
26.144400,-80.319500,Chick-Fil-A,33323,Broward County
30.442643,-84.294391,Chick-Fil-A,32301,Leon County
30.436630,-84.253746,Chick-Fil-A,32301,Leon County
30.428530,-84.289722,Chick-Fil-A,32301,Leon County
30.448988,-84.311178,Chick-Fil-A,32304,Leon County
30.469307,-84.288190,Chick-Fil-A,32308,Leon County
30.430311,-84.243020,Chick-Fil-A,32301,Leon County
30.494156,-84.244100,Chick-Fil-A,32308,Leon County
30.562754,-84.219116,Chick-Fil-A,32312,Leon County
26.193310,-80.258560,Chick-Fil-A,33351,Broward County
28.127129,-82.368160,Chick-Fil-A,33647,Hillsborough County
27.964556,-82.520680,Chick-Fil-A,33607,Hillsborough County
27.947033,-82.527590,Chick-Fil-A,33609,Hillsborough County
27.964505,-82.504965,Chick-Fil-A,33609,Hillsborough County
28.080908,-82.425835,Chick-Fil-A,33613,Hillsborough County
27.893144,-82.505096,Chick-Fil-A,33611,Hillsborough County
27.948280,-82.466300,Chick-Fil-A,33602,Hillsborough County
27.976299,-82.532311,Chick-Fil-A,33607,Hillsborough County
27.979867,-82.534710,Chick-Fil-A,33607,Hillsborough County
28.054400,-82.412900,Chick-Fil-A,33617,Hillsborough County
27.938850,-82.506165,Chick-Fil-A,33609,Hillsborough County
28.026217,-82.547380,Chick-Fil-A,33634,Hillsborough County
28.068975,-82.576670,Chick-Fil-A,33625,Hillsborough County
28.054817,-82.395320,Chick-Fil-A,33617,Hillsborough County
28.936106,-81.940810,Chick-Fil-A,32159,Lake County
28.205898,-82.664976,Chick-Fil-A,34655,Pasco County
27.893785,-82.251547,Chick-Fil-A,33596,Hillsborough County
27.684757,-80.709534,Chick-Fil-A,32966,Indian River County
27.642601,-80.459015,Chick-Fil-A,32960,Indian River County
26.646433,-80.208496,Chick-Fil-A,33414,Palm Beach County
26.722577,-80.053267,Chick-Fil-A,33401,Palm Beach County
26.676627,-80.202392,Chick-Fil-A,33411,Palm Beach County
26.714424,-80.092896,Chick-Fil-A,33409,Palm Beach County
26.706980,-80.136765,Chick-Fil-A,33417,Palm Beach County
28.522700,-81.587900,Chick-Fil-A,34787,Orange County
28.003198,-81.727289,Chick-Fil-A,33839,Polk County
28.597937,-81.299730,Chick-Fil-A,32792,Orange County
28.591696,-81.364600,Chick-Fil-A,32789,Orange County
28.646086,-81.266250,Chick-Fil-A,32708,Seminole County
30.622196,-81.535180,Chick-Fil-A,32034,Nassau County
34.000195,-84.705055,Chick-Fil-A,30101,Cobb County
34.034233,-84.678820,Chick-Fil-A,30101,Cobb County
31.617700,-84.216900,Chick-Fil-A,31707,Dougherty County
31.618350,-84.222810,Chick-Fil-A,31707,Dougherty County
31.567821,-84.143242,Chick-Fil-A,31701,Dougherty County
31.567904,-84.143218,Chick-Fil-A,31701,Dougherty County
34.050818,-84.294891,Chick-Fil-A,30009,Fulton County
34.069065,-84.281638,Chick-Fil-A,30009,Fulton County
34.057163,-84.232880,Chick-Fil-A,30005,Fulton County
34.092600,-84.276540,Chick-Fil-A,30009,Fulton County
34.048130,-84.288580,Chick-Fil-A,30009,Fulton County
33.986570,-84.270370,Chick-Fil-A,30092,Gwinnett County
32.057745,-84.219335,Chick-Fil-A,31719,Sumter County
33.952200,-83.374800,Chick-Fil-A,30601,Clarke County
33.924540,-83.340416,Chick-Fil-A,30605,Clarke County
33.917090,-83.442830,Chick-Fil-A,30606,Clarke County
33.944900,-83.409400,Chick-Fil-A,30606,Clarke County
33.938270,-83.456630,Chick-Fil-A,30606,Clarke County
33.950747,-83.375816,Chick-Fil-A,30601,Clarke County
33.757786,-84.394500,Chick-Fil-A,30313,Fulton County
33.749100,-84.386800,Chick-Fil-A,30334,Fulton County
33.656401,-84.423148,Chick-Fil-A,30354,Fulton County
33.784879,-84.407511,Chick-Fil-A,30363,Fulton County
33.786840,-84.384140,Chick-Fil-A,30363,Fulton County
33.880135,-84.468750,Chick-Fil-A,30339,Cobb County
33.753800,-84.385800,Chick-Fil-A,30334,Fulton County
33.758870,-84.391840,Chick-Fil-A,30313,Fulton County
33.806896,-84.393520,Chick-Fil-A,30309,Fulton County
33.807655,-84.413000,Chick-Fil-A,30363,Fulton County
33.759860,-84.387840,Chick-Fil-A,30303,Fulton County
33.827614,-84.328674,Chick-Fil-A,30329,DeKalb County
33.864000,-84.477580,Chick-Fil-A,30080,Cobb County
33.760335,-84.395121,Chick-Fil-A,30313,Fulton County
33.825436,-84.367645,Chick-Fil-A,30324,Fulton County
33.689140,-84.493095,Chick-Fil-A,30344,Fulton County
33.760728,-84.401267,Chick-Fil-A,30313,Fulton County
33.879474,-84.471393,Chick-Fil-A,30339,Cobb County
33.880836,-84.460920,Chick-Fil-A,30339,Cobb County
33.843400,-84.370800,Chick-Fil-A,30305,Fulton County
33.848090,-84.363990,Chick-Fil-A,30326,Fulton County
33.763200,-84.375700,Chick-Fil-A,30308,Fulton County
33.847404,-84.428790,Chick-Fil-A,30327,Fulton County
33.775900,-84.402300,Chick-Fil-A,30313,Fulton County
33.724370,-84.511040,Chick-Fil-A,30311,Fulton County
33.742792,-84.358250,Chick-Fil-A,30316,DeKalb County
33.872600,-84.380750,Chick-Fil-A,30342,Fulton County
33.920971,-84.341653,Chick-Fil-A,30346,DeKalb County
33.924840,-84.341360,Chick-Fil-A,30346,DeKalb County
33.755298,-84.401126,Chick-Fil-A,30313,Fulton County
33.917698,-84.378654,Chick-Fil-A,30328,Fulton County
33.641641,-84.446574,Chick-Fil-A,30337,Fulton County
33.752843,-84.385642,Chick-Fil-A,30334,Fulton County
33.774256,-84.386930,Chick-Fil-A,30308,Fulton County
33.890638,-84.466877,Chick-Fil-A,30339,Cobb County
33.640800,-84.444700,Chick-Fil-A,30337,Fulton County
33.752032,-84.382245,Chick-Fil-A,30334,Fulton County
33.748116,-84.415565,Chick-Fil-A,30314,Fulton County
33.984350,-84.349930,Chick-Fil-A,30350,Fulton County
33.754775,-84.416278,Chick-Fil-A,30314,Fulton County
33.472900,-81.981400,Chick-Fil-A,30912,Richmond County
33.491940,-82.078090,Chick-Fil-A,30909,Richmond County
33.512960,-82.051850,Chick-Fil-A,30907,Columbia County
33.410232,-82.026321,Chick-Fil-A,30901,Richmond County
33.463480,-82.079220,Chick-Fil-A,30909,Richmond County
33.857895,-84.599950,Chick-Fil-A,30008,Cobb County
33.947456,-83.749760,Chick-Fil-A,30620,Barrow County
34.878864,-83.957695,Chick-Fil-A,30512,Union County
32.554120,-83.660835,Chick-Fil-A,31088,Houston County
34.108407,-83.815916,Chick-Fil-A,30548,Jackson County
31.211569,-81.490720,Chick-Fil-A,31520,Glynn County
34.079530,-83.917915,Chick-Fil-A,30519,Gwinnett County
34.064537,-83.989006,Chick-Fil-A,30519,Gwinnett County
34.065290,-83.984566,Chick-Fil-A,30519,Gwinnett County
34.474995,-84.927864,Chick-Fil-A,30701,Gordon County
34.256180,-84.464110,Chick-Fil-A,30114,Cherokee County
34.236460,-84.453735,Chick-Fil-A,30115,Cherokee County
33.596197,-85.038250,Chick-Fil-A,30116,Carroll County
33.554650,-85.072550,Chick-Fil-A,30117,Carroll County
33.573080,-85.097650,Chick-Fil-A,30117,Carroll County
34.171250,-84.786360,Chick-Fil-A,30120,Bartow County
34.122101,-84.749611,Chick-Fil-A,30137,Bartow County
32.620895,-83.687515,Chick-Fil-A,31028,Houston County
33.898434,-84.302620,Chick-Fil-A,30341,DeKalb County
34.880253,-83.397110,Chick-Fil-A,30525,Rabun County
34.595277,-83.763536,Chick-Fil-A,30528,White County
32.531850,-84.968130,Chick-Fil-A,31904,Muscogee County
32.472030,-84.956240,Chick-Fil-A,31906,Muscogee County
32.505904,-84.952242,Chick-Fil-A,31906,Muscogee County
32.508080,-84.943570,Chick-Fil-A,31909,Muscogee County
32.504480,-84.938380,Chick-Fil-A,31906,Muscogee County
32.545340,-84.945559,Chick-Fil-A,31909,Muscogee County
32.481200,-84.983300,Chick-Fil-A,31901,Muscogee County
34.257680,-83.463680,Chick-Fil-A,30529,Jackson County
33.647640,-84.011410,Chick-Fil-A,30013,Rockdale County
31.961049,-83.757808,Chick-Fil-A,31015,Crisp County
34.537928,-83.535168,Chick-Fil-A,30535,Habersham County
33.603226,-83.861400,Chick-Fil-A,30014,Newton County
34.152813,-84.174730,Chick-Fil-A,30040,Forsyth County
34.187650,-84.143160,Chick-Fil-A,30041,Forsyth County
33.999782,-83.908493,Chick-Fil-A,30019,Gwinnett County
34.534325,-83.975784,Chick-Fil-A,30533,Lumpkin County
33.902602,-84.823429,Chick-Fil-A,30157,Paulding County
34.760748,-84.998138,Chick-Fil-A,30720,Whitfield County
34.759094,-84.933370,Chick-Fil-A,30721,Whitfield County
34.358015,-84.042776,Chick-Fil-A,30506,Hall County
33.773040,-84.296070,Chick-Fil-A,30030,DeKalb County
33.716354,-84.216060,Chick-Fil-A,30035,DeKalb County
33.792100,-84.282500,Chick-Fil-A,30079,DeKalb County
33.810135,-84.274250,Chick-Fil-A,30033,DeKalb County
33.718520,-84.284860,Chick-Fil-A,30032,DeKalb County
33.907646,-84.269050,Chick-Fil-A,30341,DeKalb County
33.727725,-84.746083,Chick-Fil-A,30135,Douglas County
33.717770,-84.764530,Chick-Fil-A,30187,Douglas County
33.750797,-84.726570,Chick-Fil-A,30135,Douglas County
32.540420,-82.948440,Chick-Fil-A,31021,Laurens County
33.943718,-84.123250,Chick-Fil-A,30096,Gwinnett County
33.987770,-84.088210,Chick-Fil-A,30096,Gwinnett County
34.001553,-84.169750,Chick-Fil-A,30096,Gwinnett County
33.934055,-84.350030,Chick-Fil-A,30346,DeKalb County
33.958395,-84.302612,Chick-Fil-A,30338,DeKalb County
33.681847,-84.423940,Chick-Fil-A,30344,Fulton County
33.656456,-84.501640,Chick-Fil-A,30337,Fulton County
34.658940,-84.492350,Chick-Fil-A,30540,Gilmer County
33.525200,-82.119400,Chick-Fil-A,30907,Columbia County
33.543490,-84.576260,Chick-Fil-A,30291,Fulton County
33.467487,-84.446530,Chick-Fil-A,30214,Fayette County
33.446053,-84.467148,Chick-Fil-A,30214,Fayette County
33.429882,-84.458694,Chick-Fil-A,30215,Fayette County
34.219994,-83.862680,Chick-Fil-A,30566,Hall County
34.177853,-83.911120,Chick-Fil-A,30542,Hall County
33.619040,-84.351715,Chick-Fil-A,30297,Clayton County
34.953182,-85.245140,Chick-Fil-A,30742,Catoosa County
32.541188,-83.895669,Chick-Fil-A,31030,Peach County
34.310319,-83.797473,Chick-Fil-A,30507,Hall County
34.302460,-83.819630,Chick-Fil-A,30507,Hall County
34.296745,-83.855766,Chick-Fil-A,30506,Hall County
33.246929,-84.278366,Chick-Fil-A,30223,Spalding County
33.247112,-84.278260,Chick-Fil-A,30223,Spalding County
33.478716,-82.198032,Chick-Fil-A,30813,Columbia County
33.449425,-84.325970,Chick-Fil-A,30228,Henry County
33.656340,-84.403970,Chick-Fil-A,30354,Fulton County
31.821511,-81.600414,Chick-Fil-A,31301,Liberty County
33.891370,-84.756250,Chick-Fil-A,30141,Paulding County
33.553894,-84.369640,Chick-Fil-A,30274,Clayton County
34.032100,-84.581200,Chick-Fil-A,30144,Cobb County
34.037484,-84.582420,Chick-Fil-A,30144,Cobb County
34.017620,-84.564230,Chick-Fil-A,30144,Cobb County
34.037075,-84.569060,Chick-Fil-A,30144,Cobb County
34.007065,-84.574000,Chick-Fil-A,30144,Cobb County
30.789452,-81.652790,Chick-Fil-A,31548,Camden County
33.048960,-85.026306,Chick-Fil-A,30241,Troup County
33.042346,-84.977334,Chick-Fil-A,30241,Troup County
30.681864,-83.219680,Chick-Fil-A,32053,Hamilton County
34.448177,-83.129068,Chick-Fil-A,30553,Franklin County
33.979810,-84.002910,Chick-Fil-A,30046,Gwinnett County
33.957424,-84.057700,Chick-Fil-A,30044,Gwinnett County
33.965633,-84.010890,Chick-Fil-A,30046,Gwinnett County
31.658928,-84.172564,Chick-Fil-A,31763,Lee County
33.895090,-84.140990,Chick-Fil-A,30093,Gwinnett County
33.782097,-84.609710,Chick-Fil-A,30168,Cobb County
33.698430,-84.095220,Chick-Fil-A,30058,DeKalb County
33.696000,-84.089455,Chick-Fil-A,30058,DeKalb County
33.841118,-83.908090,Chick-Fil-A,30052,Walton County
32.900227,-83.688550,Chick-Fil-A,31204,Bibb County
32.831500,-83.646900,Chick-Fil-A,31201,Bibb County
32.926585,-83.734998,Chick-Fil-A,31210,Bibb County
32.820004,-83.697020,Chick-Fil-A,31206,Bibb County
32.811680,-83.720640,Chick-Fil-A,31206,Bibb County
32.879444,-83.758270,Chick-Fil-A,31210,Bibb County
32.833941,-83.635947,Chick-Fil-A,31201,Bibb County
33.563740,-83.479034,Chick-Fil-A,30650,Morgan County
33.953083,-84.581230,Chick-Fil-A,30064,Cobb County
33.940606,-84.520382,Chick-Fil-A,30060,Cobb County
33.977880,-84.418290,Chick-Fil-A,30068,Cobb County
33.947533,-84.519450,Chick-Fil-A,30060,Cobb County
33.904700,-84.603546,Chick-Fil-A,30008,Cobb County
33.966590,-84.491936,Chick-Fil-A,30062,Cobb County
34.012627,-84.495330,Chick-Fil-A,30066,Cobb County
33.945835,-84.626360,Chick-Fil-A,30064,Cobb County
33.901947,-84.489101,Chick-Fil-A,30080,Cobb County
34.036461,-84.461256,Chick-Fil-A,30066,Cobb County
33.424305,-84.183410,Chick-Fil-A,30253,Henry County
33.452960,-84.169556,Chick-Fil-A,30253,Henry County
33.438947,-84.121329,Chick-Fil-A,30253,Henry County
32.539056,-84.869143,Chick-Fil-A,31820,Muscogee County
33.100600,-83.248200,Chick-Fil-A,31061,Baldwin County
33.080900,-83.229400,Chick-Fil-A,31061,Baldwin County
33.795822,-83.741360,Chick-Fil-A,30655,Walton County
31.173330,-83.762260,Chick-Fil-A,31768,Colquitt County
33.409150,-84.685960,Chick-Fil-A,30265,Coweta County
33.394962,-84.760574,Chick-Fil-A,30265,Coweta County
33.907856,-84.205605,Chick-Fil-A,30093,Gwinnett County
33.953285,-84.234670,Chick-Fil-A,30092,Gwinnett County
33.440495,-84.590800,Chick-Fil-A,30290,Fayette County
33.342620,-84.534280,Chick-Fil-A,30269,Fayette County
33.396688,-84.599095,Chick-Fil-A,30277,Coweta County
33.409657,-84.567330,Chick-Fil-A,30269,Fayette County
32.467260,-83.740150,Chick-Fil-A,31069,Houston County
32.141342,-81.246140,Chick-Fil-A,31322,Chatham County
33.575603,-84.412880,Chick-Fil-A,30274,Clayton County
34.008830,-85.032488,Chick-Fil-A,30153,Polk County
34.289807,-85.180547,Chick-Fil-A,30161,Floyd County
34.263424,-85.188225,Chick-Fil-A,30161,Floyd County
34.253750,-85.168434,Chick-Fil-A,30161,Floyd County
34.301940,-85.171320,Chick-Fil-A,30161,Floyd County
34.062214,-84.399450,Chick-Fil-A,30075,Fulton County
34.036980,-84.342850,Chick-Fil-A,30076,Fulton County
31.159714,-81.390114,Chick-Fil-A,31522,Glynn County
31.980660,-81.143800,Chick-Fil-A,31419,Chatham County
31.984047,-81.172540,Chick-Fil-A,31419,Chatham County
32.040839,-81.063747,Chick-Fil-A,31404,Chatham County
32.004100,-81.114200,Chick-Fil-A,31406,Chatham County
32.002060,-81.117510,Chick-Fil-A,31406,Chatham County
33.878000,-84.533000,Chick-Fil-A,30082,Cobb County
33.827760,-84.492460,Chick-Fil-A,30080,Cobb County
33.887638,-84.009990,Chick-Fil-A,30078,Gwinnett County
33.852960,-84.035220,Chick-Fil-A,30078,Gwinnett County
32.444879,-81.769591,Chick-Fil-A,30461,Bulloch County
32.428100,-81.784800,Chick-Fil-A,30458,Bulloch County
33.506294,-84.228550,Chick-Fil-A,30253,Henry County
33.553020,-84.271850,Chick-Fil-A,30273,Clayton County
33.824993,-84.105460,Chick-Fil-A,30087,DeKalb County
33.801300,-84.211815,Chick-Fil-A,30083,DeKalb County
34.052030,-84.090034,Chick-Fil-A,30024,Gwinnett County
34.025307,-84.043945,Chick-Fil-A,30043,Gwinnett County
34.070705,-84.166374,Chick-Fil-A,30005,Fulton County
30.854967,-83.946754,Chick-Fil-A,31757,Thomas County
33.505366,-82.502951,Chick-Fil-A,30824,McDuffie County
31.450420,-83.531780,Chick-Fil-A,31793,Tift County
31.450630,-83.531600,Chick-Fil-A,31793,Tift County
33.846462,-84.252250,Chick-Fil-A,30345,DeKalb County
33.852380,-84.209610,Chick-Fil-A,30084,DeKalb County
30.839401,-83.320560,Chick-Fil-A,31602,Lowndes County
30.848534,-83.287461,Chick-Fil-A,31602,Lowndes County
30.867400,-83.290200,Chick-Fil-A,31602,Lowndes County
30.843567,-83.320810,Chick-Fil-A,31602,Lowndes County
30.879820,-83.296490,Chick-Fil-A,31602,Lowndes County
32.207973,-82.381459,Chick-Fil-A,30474,Toombs County
33.728962,-84.940670,Chick-Fil-A,30180,Carroll County
32.617733,-83.638770,Chick-Fil-A,31093,Houston County
31.198480,-82.325850,Chick-Fil-A,31501,Ware County
34.932579,-83.846489,Chick-Fil-A,30582,Towns County
34.111000,-84.555690,Chick-Fil-A,30189,Cherokee County
34.114971,-84.513779,Chick-Fil-A,30189,Cherokee County
34.085648,-84.526900,Chick-Fil-A,30189,Cherokee County
34.933208,-83.845524,Chick-Fil-A,30582,Towns County
42.020447,-93.609673,Chick-Fil-A,50010,Story County
41.705723,-93.581993,Chick-Fil-A,50021,Polk County
42.027709,-91.627798,Chick-Fil-A,52402,Linn County
41.950594,-91.716191,Chick-Fil-A,52405,Linn County
41.691000,-91.602500,Chick-Fil-A,52241,Johnson County
41.574640,-90.530760,Chick-Fil-A,52807,Scott County
41.563076,-90.574160,Chick-Fil-A,52803,Scott County
41.633850,-93.697850,Chick-Fil-A,50310,Polk County
42.490627,-90.722443,Chick-Fil-A,52002,Dubuque County
42.446300,-96.352900,Chick-Fil-A,51111,Woodbury County
42.449661,-96.353798,Chick-Fil-A,51106,Woodbury County
42.460403,-92.329987,Chick-Fil-A,50702,Black Hawk County
41.568610,-93.804470,Chick-Fil-A,50266,Polk County
41.599735,-93.765739,Chick-Fil-A,50325,Polk County
41.561873,-93.797312,Chick-Fil-A,50266,Polk County
43.470846,-111.984396,Chick-Fil-A,83404,Bonneville County
43.605660,-116.205998,Chick-Fil-A,83706,Ada County
43.605389,-116.193451,Chick-Fil-A,83706,Ada County
43.605278,-116.282318,Chick-Fil-A,83704,Ada County
43.622705,-116.354382,Chick-Fil-A,83713,Ada County
43.614710,-116.593880,Chick-Fil-A,83651,Canyon County
43.814820,-111.783756,Chick-Fil-A,83440,Madison County
42.577707,-114.460356,Chick-Fil-A,83328,Twin Falls County
41.758490,-88.206550,Chick-Fil-A,60504,DuPage County
41.854012,-88.340851,Chick-Fil-A,60510,Kane County
38.520054,-89.924736,Chick-Fil-A,62221,St. Clair County
41.938831,-88.111091,Chick-Fil-A,60108,DuPage County
40.478375,-88.954219,Chick-Fil-A,61704,McLean County
40.477300,-88.955200,Chick-Fil-A,61704,McLean County
40.478375,-88.954143,Chick-Fil-A,61704,McLean County
41.702087,-88.125067,Chick-Fil-A,60565,DuPage County
37.712900,-89.217820,Chick-Fil-A,62901,Jackson County
39.495600,-88.168500,Chick-Fil-A,61920,Coles County
41.885497,-87.627620,Chick-Fil-A,60602,Cook County
41.896712,-87.627073,Chick-Fil-A,60610,Cook County
41.872621,-87.647194,Chick-Fil-A,60607,Cook County
41.717654,-87.779991,Chick-Fil-A,60415,Cook County
41.781190,-87.868214,Chick-Fil-A,60525,Cook County
42.226073,-88.291715,Chick-Fil-A,60014,McHenry County
40.668096,-89.582733,Chick-Fil-A,61602,Peoria County
38.796800,-89.966200,Chick-Fil-A,62034,Madison County
41.893895,-87.962656,Chick-Fil-A,60126,DuPage County
38.590161,-89.984917,Chick-Fil-A,62208,St. Clair County
41.844604,-88.068310,Chick-Fil-A,60137,DuPage County
42.160744,-88.048653,Chick-Fil-A,60074,Cook County
41.839735,-87.998752,Chick-Fil-A,60523,DuPage County
41.908039,-87.847382,Chick-Fil-A,60160,Cook County
41.470943,-90.482292,Chick-Fil-A,61265,Rock Island County
41.467747,-90.502510,Chick-Fil-A,61265,Rock Island County
42.082988,-87.937119,Chick-Fil-A,60056,Cook County
40.509712,-88.954025,Chick-Fil-A,61705,McLean County
41.606759,-87.853051,Chick-Fil-A,60462,Cook County
41.700453,-88.314617,Chick-Fil-A,60538,Kendall County
40.696468,-89.616130,Chick-Fil-A,61606,Peoria County
40.743494,-89.631090,Chick-Fil-A,61614,Peoria County
41.849945,-87.844101,Chick-Fil-A,60546,Cook County
42.275171,-88.980035,Chick-Fil-A,61108,Winnebago County
42.025905,-88.144654,Chick-Fil-A,60169,Cook County
42.050124,-88.056794,Chick-Fil-A,60173,Cook County
42.050959,-87.746814,Chick-Fil-A,60077,Cook County
39.764513,-89.702299,Chick-Fil-A,62704,Sangamon County
42.238074,-87.943155,Chick-Fil-A,60061,Lake County
41.831417,-88.095963,Chick-Fil-A,60189,DuPage County
41.760539,-87.944834,Chick-Fil-A,60527,DuPage County
40.111252,-85.666079,Chick-Fil-A,46016,Madison County
39.763220,-86.330690,Chick-Fil-A,46214,Marion County
39.168500,-86.523300,Chick-Fil-A,47405,Monroe County
39.161380,-86.495230,Chick-Fil-A,47405,Monroe County
39.164165,-86.494727,Chick-Fil-A,47405,Monroe County
40.001575,-86.126050,Chick-Fil-A,46033,Hamilton County
38.328545,-85.759130,Chick-Fil-A,47129,Clark County
39.210922,-85.878845,Chick-Fil-A,47203,Bartholomew County
37.970001,-87.532371,Chick-Fil-A,47714,Vanderburgh County
37.977287,-87.467260,Chick-Fil-A,47715,Vanderburgh County
37.984410,-87.495650,Chick-Fil-A,47715,Vanderburgh County
41.070850,-85.199500,Chick-Fil-A,46802,Allen County
41.115444,-85.138900,Chick-Fil-A,46805,Allen County
39.631630,-86.117980,Chick-Fil-A,46143,Johnson County
39.614487,-86.159120,Chick-Fil-A,46142,Johnson County
39.912230,-86.218994,Chick-Fil-A,46268,Marion County
39.909470,-86.101690,Chick-Fil-A,46240,Marion County
39.777607,-86.179500,Chick-Fil-A,46204,Marion County
39.765064,-86.158770,Chick-Fil-A,46204,Marion County
39.666504,-86.078674,Chick-Fil-A,46237,Marion County
39.909740,-86.064190,Chick-Fil-A,46250,Marion County
39.870052,-86.121323,Chick-Fil-A,46220,Marion County
39.716907,-86.261566,Chick-Fil-A,46221,Marion County
40.418270,-86.835510,Chick-Fil-A,47905,Tippecanoe County
40.518998,-85.668477,Chick-Fil-A,46953,Grant County
41.470427,-87.307685,Chick-Fil-A,46410,Lake County
41.710700,-86.180500,Chick-Fil-A,46635,St. Joseph County
41.719200,-86.190400,Chick-Fil-A,46635,St. Joseph County
40.203826,-85.408108,Chick-Fil-A,47305,Delaware County
40.218930,-85.399509,Chick-Fil-A,47305,Delaware County
38.306810,-85.841965,Chick-Fil-A,47150,Floyd County
39.994034,-85.927460,Chick-Fil-A,46037,Hamilton County
40.031475,-85.994390,Chick-Fil-A,46062,Hamilton County
39.718450,-86.354070,Chick-Fil-A,46231,Marion County
41.627285,-86.252070,Chick-Fil-A,46613,St. Joseph County
39.422884,-87.416358,Chick-Fil-A,47802,Vigo County
37.560775,-97.244371,Chick-Fil-A,67037,Sedgwick County
38.072185,-97.893715,Chick-Fil-A,67502,Reno County
39.128625,-94.828886,Chick-Fil-A,66109,Wyandotte County
38.956200,-95.253600,Chick-Fil-A,66046,Douglas County
38.933747,-95.260869,Chick-Fil-A,66046,Douglas County
39.184601,-96.558265,Chick-Fil-A,66506,Riley County
39.196410,-96.585514,Chick-Fil-A,66506,Riley County
39.038717,-94.670384,Chick-Fil-A,66202,Johnson County
38.909554,-94.760140,Chick-Fil-A,66219,Johnson County
38.925400,-94.729600,Chick-Fil-A,66210,Johnson County
38.884495,-94.673110,Chick-Fil-A,66223,Johnson County
38.951508,-94.722840,Chick-Fil-A,66215,Johnson County
38.801994,-97.612622,Chick-Fil-A,67401,Saline County
39.036945,-95.762589,Chick-Fil-A,66604,Shawnee County
39.033176,-95.766350,Chick-Fil-A,66604,Shawnee County
37.722668,-97.464065,Chick-Fil-A,67212,Sedgwick County
37.718800,-97.293300,Chick-Fil-A,67208,Sedgwick County
37.693838,-97.245093,Chick-Fil-A,67206,Sedgwick County
38.485905,-82.661420,Chick-Fil-A,41101,Boyd County
36.985400,-86.454900,Chick-Fil-A,42101,Warren County
36.953370,-86.432900,Chick-Fil-A,42101,Warren County
37.344595,-85.346862,Chick-Fil-A,42718,Taylor County
37.737106,-85.889560,Chick-Fil-A,42701,Hardin County
39.013150,-84.640540,Chick-Fil-A,41042,Boone County
38.166156,-84.898177,Chick-Fil-A,40601,Franklin County
38.200200,-84.855500,Chick-Fil-A,40601,Franklin County
39.034096,-84.533485,Chick-Fil-A,41017,Kenton County
38.222264,-84.539147,Chick-Fil-A,40324,Scott County
39.055100,-84.651800,Chick-Fil-A,45051,Hamilton County
36.824655,-87.473328,Chick-Fil-A,42266,Christian County
38.019900,-84.414200,Chick-Fil-A,40509,Fayette County
38.026035,-84.537000,Chick-Fil-A,40504,Fayette County
38.016740,-84.462430,Chick-Fil-A,40502,Fayette County
38.041000,-84.503900,Chick-Fil-A,40507,Fayette County
37.999340,-84.520220,Chick-Fil-A,40503,Fayette County
37.989532,-84.526990,Chick-Fil-A,40503,Fayette County
38.294544,-85.558014,Chick-Fil-A,40241,Jefferson County
38.242506,-85.508539,Chick-Fil-A,40243,Jefferson County
38.217200,-85.754700,Chick-Fil-A,40208,Jefferson County
38.213702,-85.594018,Chick-Fil-A,40220,Jefferson County
38.204573,-85.666223,Chick-Fil-A,40218,Jefferson County
38.138013,-85.673379,Chick-Fil-A,40219,Jefferson County
38.137837,-85.667925,Chick-Fil-A,40219,Jefferson County
38.246983,-85.622570,Chick-Fil-A,40222,Jefferson County
38.250706,-85.623970,Chick-Fil-A,40222,Jefferson County
38.154616,-85.835336,Chick-Fil-A,40258,Jefferson County
38.252630,-85.615890,Chick-Fil-A,40222,Jefferson County
38.132612,-85.578853,Chick-Fil-A,40291,Jefferson County
38.190052,-83.433608,Chick-Fil-A,40351,Rowan County
39.086466,-84.447575,Chick-Fil-A,41075,Campbell County
37.725440,-87.122810,Chick-Fil-A,42303,Daviess County
37.078600,-88.688220,Chick-Fil-A,42001,McCracken County
37.074320,-88.695610,Chick-Fil-A,42001,McCracken County
37.753300,-84.294200,Chick-Fil-A,40475,Madison County
37.737020,-84.328220,Chick-Fil-A,40475,Madison County
31.285590,-92.475110,Chick-Fil-A,71301,Rapides Parish
31.277120,-92.461100,Chick-Fil-A,71301,Rapides Parish
30.508496,-91.173508,Chick-Fil-A,70805,East Baton Rouge Parish
30.441978,-91.023940,Chick-Fil-A,70816,East Baton Rouge Parish
30.420389,-91.140760,Chick-Fil-A,70808,East Baton Rouge Parish
30.388929,-91.177849,Chick-Fil-A,70820,East Baton Rouge Parish
30.389608,-91.088010,Chick-Fil-A,70836,East Baton Rouge Parish
30.385534,-91.063330,Chick-Fil-A,70809,East Baton Rouge Parish
30.458080,-91.092450,Chick-Fil-A,70815,East Baton Rouge Parish
30.361300,-91.096800,Chick-Fil-A,70810,East Baton Rouge Parish
32.558700,-93.710240,Chick-Fil-A,71111,Bossier Parish
30.442510,-90.143166,Chick-Fil-A,70447,St. Tammany Parish
30.445000,-90.081400,Chick-Fil-A,70433,St. Tammany Parish
30.458502,-90.956542,Chick-Fil-A,70819,East Baton Rouge Parish
30.210260,-90.943740,Chick-Fil-A,70737,Ascension Parish
29.907068,-90.057410,Chick-Fil-A,70053,Jefferson Parish
30.483939,-90.456756,Chick-Fil-A,70401,Tangipahoa Parish
30.515570,-90.468483,Chick-Fil-A,70401,Tangipahoa Parish
29.897332,-90.062247,Chick-Fil-A,70053,Jefferson Parish
29.613705,-90.757000,Chick-Fil-A,70360,Terrebonne Parish
29.961020,-90.183912,Chick-Fil-A,70121,Jefferson Parish
30.016432,-90.249370,Chick-Fil-A,70065,Jefferson Parish
30.006527,-90.237303,Chick-Fil-A,70062,Jefferson Parish
30.264690,-91.992870,Chick-Fil-A,70501,Lafayette Parish
30.170008,-92.065600,Chick-Fil-A,70503,Lafayette Parish
30.171194,-92.075806,Chick-Fil-A,70503,Lafayette Parish
30.213200,-92.016100,Chick-Fil-A,70501,Lafayette Parish
30.195490,-93.249436,Chick-Fil-A,70601,Calcasieu Parish
30.200403,-93.226480,Chick-Fil-A,70601,Calcasieu Parish
30.005985,-90.157555,Chick-Fil-A,70002,Jefferson Parish
30.003960,-90.171580,Chick-Fil-A,70002,Jefferson Parish
32.499170,-92.059740,Chick-Fil-A,71201,Ouachita Parish
32.528160,-92.075550,Chick-Fil-A,71201,Ouachita Parish
30.031400,-90.043500,Chick-Fil-A,70122,Orleans Parish
32.509000,-92.608800,Chick-Fil-A,71270,Lincoln Parish
32.442436,-93.718720,Chick-Fil-A,71105,Caddo Parish
30.307264,-89.823430,Chick-Fil-A,70460,St. Tammany Parish
30.284753,-89.752656,Chick-Fil-A,70458,St. Tammany Parish
32.511411,-92.157428,Chick-Fil-A,71201,Ouachita Parish
32.510500,-92.156600,Chick-Fil-A,71201,Ouachita Parish
42.505211,-71.200603,Chick-Fil-A,01803,Middlesex County
42.171221,-72.576723,Chick-Fil-A,01020,Hampden County
42.259782,-71.168628,Chick-Fil-A,02026,Norfolk County
42.298991,-71.393737,Chick-Fil-A,01701,Middlesex County
41.670424,-70.301081,Chick-Fil-A,02601,Barnstable County
40.900967,-73.022209,Chick-Fil-A,11776,Suffolk County
42.543304,-70.942169,Chick-Fil-A,01960,Essex County
41.794807,-71.329032,Chick-Fil-A,02915,Providence County
41.922891,-71.357167,Chick-Fil-A,02863,Providence County
42.283007,-71.644093,Chick-Fil-A,01581,Worcester County
42.289246,-71.804179,Chick-Fil-A,01605,Worcester County
39.522457,-76.185036,Chick-Fil-A,21001,Harford County
39.461560,-76.318020,Chick-Fil-A,21009,Harford County
38.989720,-76.545660,Chick-Fil-A,21401,Anne Arundel County
38.980909,-76.536445,Chick-Fil-A,21401,Anne Arundel County
39.252820,-76.709250,Chick-Fil-A,21229,Baltimore city
39.249980,-76.669520,Chick-Fil-A,21227,Baltimore County
39.277164,-76.561616,Chick-Fil-A,21205,Baltimore city
39.287036,-76.609321,Chick-Fil-A,21201,Baltimore city
39.370780,-76.454445,Chick-Fil-A,21236,Baltimore County
39.295460,-76.508890,Chick-Fil-A,21224,Baltimore city
39.374940,-76.467720,Chick-Fil-A,21236,Baltimore County
39.397205,-76.481370,Chick-Fil-A,21236,Baltimore County
39.272400,-76.670800,Chick-Fil-A,21229,Baltimore city
39.024178,-77.145900,Chick-Fil-A,20817,Montgomery County
38.955353,-76.823395,Chick-Fil-A,20769,Prince George's County
38.979312,-76.735059,Chick-Fil-A,20715,Prince George's County
38.944447,-76.716970,Chick-Fil-A,20716,Prince George's County
38.680412,-76.875660,Chick-Fil-A,20613,Prince George's County
38.298874,-76.512340,Chick-Fil-A,20619,St. Mary's County
38.869720,-76.850720,Chick-Fil-A,20747,Prince George's County
39.288757,-76.730850,Chick-Fil-A,21228,Baltimore County
38.973610,-76.272780,Chick-Fil-A,21619,Queen Anne's County
39.206710,-76.943100,Chick-Fil-A,21029,Howard County
39.465930,-76.637740,Chick-Fil-A,21093,Baltimore County
38.989200,-76.943200,Chick-Fil-A,20740,Prince George's County
39.213800,-76.861630,Chick-Fil-A,21044,Howard County
39.235126,-76.814790,Chick-Fil-A,21043,Howard County
39.197613,-76.818540,Chick-Fil-A,21045,Howard County
39.627180,-78.835150,Chick-Fil-A,21502,Allegany County
39.647766,-78.756790,Chick-Fil-A,26767,Mineral County
38.852268,-76.914702,Chick-Fil-A,20746,Prince George's County
38.779030,-76.085810,Chick-Fil-A,21601,Talbot County
38.932343,-76.568190,Chick-Fil-A,21140,Anne Arundel County
39.404121,-76.950588,Chick-Fil-A,21784,Carroll County
39.605100,-75.789880,Chick-Fil-A,19701,New Castle County
39.570406,-76.380132,Chick-Fil-A,21050,Harford County
39.448824,-77.386570,Chick-Fil-A,21701,Frederick County
39.382866,-77.400160,Chick-Fil-A,21704,Frederick County
39.656902,-78.927609,Chick-Fil-A,21545,Allegany County
39.124567,-77.237396,Chick-Fil-A,20878,Montgomery County
39.037533,-76.678720,Chick-Fil-A,21054,Anne Arundel County
39.022460,-76.692780,Chick-Fil-A,21114,Anne Arundel County
39.182490,-77.261060,Chick-Fil-A,20876,Montgomery County
39.191220,-76.612990,Chick-Fil-A,21060,Anne Arundel County
39.138756,-76.605980,Chick-Fil-A,21061,Anne Arundel County
39.630898,-77.762924,Chick-Fil-A,21740,Washington County
39.153194,-76.727120,Chick-Fil-A,21076,Anne Arundel County
39.495966,-76.650992,Chick-Fil-A,21030,Baltimore County
38.546530,-76.984250,Chick-Fil-A,20675,Charles County
38.904514,-76.848160,Chick-Fil-A,20785,Prince George's County
39.159080,-76.891910,Chick-Fil-A,20759,Howard County
39.077347,-76.867830,Chick-Fil-A,20707,Prince George's County
39.097664,-76.807724,Chick-Fil-A,20724,Anne Arundel County
39.202110,-76.682600,Chick-Fil-A,21090,Anne Arundel County
39.333960,-76.450380,Chick-Fil-A,21237,Baltimore County
38.346944,-75.177805,Chick-Fil-A,21811,Worcester County
39.153660,-77.066280,Chick-Fil-A,20832,Montgomery County
39.419680,-76.778885,Chick-Fil-A,21117,Baltimore County
39.399310,-76.543620,Chick-Fil-A,21234,Baltimore County
39.125513,-76.589747,Chick-Fil-A,21060,Anne Arundel County
38.226360,-75.652611,Chick-Fil-A,21853,Somerset County
39.448925,-76.816414,Chick-Fil-A,21117,Baltimore County
39.084340,-77.147648,Chick-Fil-A,20851,Montgomery County
39.090420,-77.177480,Chick-Fil-A,20850,Montgomery County
38.346165,-75.605056,Chick-Fil-A,21826,Wicomico County
38.396770,-75.566240,Chick-Fil-A,21875,Wicomico County
38.419890,-75.565895,Chick-Fil-A,21875,Wicomico County
39.143982,-76.648160,Chick-Fil-A,21061,Anne Arundel County
39.087242,-76.554790,Chick-Fil-A,21146,Anne Arundel County
39.057300,-76.967800,Chick-Fil-A,20904,Montgomery County
38.997050,-77.024500,Chick-Fil-A,20910,Montgomery County
39.393100,-76.605700,Chick-Fil-A,21204,Baltimore County
39.403778,-76.599270,Chick-Fil-A,21286,Baltimore County
38.617523,-76.925870,Chick-Fil-A,20601,Charles County
38.619816,-76.918365,Chick-Fil-A,20601,Charles County
39.582676,-76.989780,Chick-Fil-A,21157,Carroll County
39.578760,-76.983320,Chick-Fil-A,21157,Carroll County
44.830568,-68.753233,Chick-Fil-A,04412,Penobscot County
42.350420,-83.056100,Chick-Fil-A,48201,Wayne County
42.845540,-85.626330,Chick-Fil-A,49508,Kent County
42.913157,-85.583412,Chick-Fil-A,49546,Kent County
42.810736,-86.088990,Chick-Fil-A,49424,Ottawa County
42.740318,-84.630371,Chick-Fil-A,48917,Eaton County
42.227360,-85.589680,Chick-Fil-A,49002,Kalamazoo County
42.675000,-83.217000,Chick-Fil-A,48309,Oakland County
42.561490,-83.183978,Chick-Fil-A,48084,Oakland County
42.865957,-85.681578,Chick-Fil-A,49548,Kent County
44.727877,-93.217176,Chick-Fil-A,55124,Dakota County
45.126160,-93.256430,Chick-Fil-A,55432,Anoka County
44.861384,-93.312620,Chick-Fil-A,55435,Hennepin County
44.987310,-93.254359,Chick-Fil-A,55401,Hennepin County
44.747829,-93.295631,Chick-Fil-A,55306,Dakota County
45.199200,-93.357338,Chick-Fil-A,55316,Hennepin County
44.833520,-93.152970,Chick-Fil-A,55121,Dakota County
44.146300,-94.000300,Chick-Fil-A,56001,Blue Earth County
45.092845,-93.431074,Chick-Fil-A,55369,Hennepin County
45.033046,-93.017965,Chick-Fil-A,55109,Ramsey County
44.975700,-93.229600,Chick-Fil-A,55414,Hennepin County
44.004872,-92.464522,Chick-Fil-A,55904,Olmsted County
45.553508,-94.210516,Chick-Fil-A,56303,Stearns County
44.936852,-93.381798,Chick-Fil-A,55426,Hennepin County
44.882620,-93.206159,Chick-Fil-A,55111,Hennepin County
44.891990,-93.080529,Chick-Fil-A,55118,Dakota County
38.444332,-90.373260,Chick-Fil-A,63010,Jefferson County
39.025802,-94.250855,Chick-Fil-A,64014,Jackson County
36.644355,-93.223744,Chick-Fil-A,65616,Taney County
38.628841,-90.340759,Chick-Fil-A,63117,St. Louis County
37.326500,-89.565300,Chick-Fil-A,63703,Cape Girardeau County
37.302414,-89.572916,Chick-Fil-A,63703,Cape Girardeau County
38.667820,-90.604660,Chick-Fil-A,63304,St. Charles County
38.959610,-92.373726,Chick-Fil-A,65203,Boone County
38.601597,-90.434309,Chick-Fil-A,63131,St. Louis County
38.600834,-90.447140,Chick-Fil-A,63131,St. Louis County
38.602900,-90.586150,Chick-Fil-A,63011,St. Louis County
39.047554,-94.357490,Chick-Fil-A,64057,Jackson County
38.581416,-92.242954,Chick-Fil-A,65109,Cole County
37.090805,-94.475240,Chick-Fil-A,64801,Jasper County
37.067192,-94.477280,Chick-Fil-A,64801,Jasper County
39.034305,-94.575708,Chick-Fil-A,64110,Jackson County
39.246304,-94.653946,Chick-Fil-A,64154,Platte County
38.973360,-94.607760,Chick-Fil-A,64114,Jackson County
38.925228,-94.400959,Chick-Fil-A,64081,Jackson County
39.245030,-94.449370,Chick-Fil-A,64158,Clay County
40.352957,-94.882884,Chick-Fil-A,64468,Nodaway County
38.779864,-90.699870,Chick-Fil-A,63368,St. Charles County
39.814320,-94.814520,Chick-Fil-A,64505,Buchanan County
38.554843,-90.410293,Chick-Fil-A,63127,St. Louis County
38.634613,-90.233706,Chick-Fil-A,63103,St. Louis city
38.504677,-90.327642,Chick-Fil-A,63125,St. Louis County
38.637390,-90.262320,Chick-Fil-A,63110,St. Louis city
38.637390,-90.262320,Chick-Fil-A,63110,St. Louis city
38.741595,-90.634216,Chick-Fil-A,63304,St. Charles County
37.163000,-93.267200,Chick-Fil-A,65804,Greene County
37.146294,-93.255974,Chick-Fil-A,65804,Greene County
37.198267,-93.276179,Chick-Fil-A,65802,Greene County
38.758450,-93.740640,Chick-Fil-A,64093,Johnson County
38.814459,-90.875795,Chick-Fil-A,63348,St. Charles County
30.392450,-88.991180,Chick-Fil-A,39531,Harrison County
32.281260,-90.036944,Chick-Fil-A,39208,Rankin County
33.743200,-90.737600,Chick-Fil-A,38732,Bolivar County
32.326653,-90.302250,Chick-Fil-A,39056,Hinds County
33.514989,-88.430512,Chick-Fil-A,39705,Lowndes County
30.456520,-88.901770,Chick-Fil-A,39540,Harrison County
32.339115,-90.063416,Chick-Fil-A,39232,Rankin County
30.442366,-89.098850,Chick-Fil-A,39503,Harrison County
31.326761,-89.376240,Chick-Fil-A,39402,Lamar County
31.329440,-89.337710,Chick-Fil-A,39401,Forrest County
31.322186,-89.380900,Chick-Fil-A,39402,Lamar County
32.398933,-90.136920,Chick-Fil-A,39157,Madison County
32.316430,-90.179230,Chick-Fil-A,39202,Hinds County
32.297564,-90.211649,Chick-Fil-A,39203,Hinds County
32.300200,-90.185600,Chick-Fil-A,39201,Hinds County
32.328838,-90.175527,Chick-Fil-A,39216,Hinds County
31.703960,-89.148550,Chick-Fil-A,39440,Jones County
31.691300,-89.136400,Chick-Fil-A,39440,Jones County
32.467876,-90.130700,Chick-Fil-A,39110,Madison County
32.365380,-88.672760,Chick-Fil-A,39342,Lauderdale County
33.453796,-88.794403,Chick-Fil-A,39759,Oktibbeha County
34.964584,-89.847100,Chick-Fil-A,38141,Shelby County
34.362210,-89.565620,Chick-Fil-A,38673,Lafayette County
32.404010,-90.129300,Chick-Fil-A,39157,Madison County
34.962124,-89.994090,Chick-Fil-A,38671,DeSoto County
33.454474,-88.805723,Chick-Fil-A,39759,Oktibbeha County
34.308290,-88.701600,Chick-Fil-A,38804,Lee County
34.241697,-88.717742,Chick-Fil-A,38801,Lee County
34.315100,-88.705300,Chick-Fil-A,38804,Lee County
34.364400,-89.571500,Chick-Fil-A,38673,Lafayette County
32.314188,-90.876145,Chick-Fil-A,39180,Warren County
48.238206,-114.331377,Chick-Fil-A,59932,Flathead County
35.746080,-78.874084,Chick-Fil-A,27502,Wake County
35.695970,-79.789825,Chick-Fil-A,27203,Randolph County
35.702267,-79.787000,Chick-Fil-A,27203,Randolph County
35.605060,-82.553178,Chick-Fil-A,28801,Buncombe County
35.505196,-82.524190,Chick-Fil-A,28803,Buncombe County
35.580147,-82.526100,Chick-Fil-A,28801,Buncombe County
35.581100,-82.523000,Chick-Fil-A,28801,Buncombe County
35.255640,-81.027480,Chick-Fil-A,28012,Gaston County
35.250356,-81.666656,Chick-Fil-A,28114,Rutherford County
36.196000,-81.654600,Chick-Fil-A,28607,Watauga County
36.208005,-81.682874,Chick-Fil-A,28607,Watauga County
35.413000,-78.735800,Chick-Fil-A,27521,Harnett County
36.066914,-79.519310,Chick-Fil-A,27215,Alamance County
36.069298,-79.496895,Chick-Fil-A,27215,Alamance County
35.790460,-78.850160,Chick-Fil-A,27519,Wake County
35.773857,-78.760090,Chick-Fil-A,27511,Wake County
35.829277,-78.769780,Chick-Fil-A,27513,Wake County
35.760010,-78.742340,Chick-Fil-A,27606,Wake County
35.740500,-78.776924,Chick-Fil-A,27518,Wake County
35.845598,-78.891145,Chick-Fil-A,27519,Wake County
35.907050,-79.052270,Chick-Fil-A,27510,Orange County
35.927900,-79.027020,Chick-Fil-A,27514,Orange County
35.906990,-79.047980,Chick-Fil-A,27510,Orange County
35.034014,-80.805111,Chick-Fil-A,28277,Mecklenburg County
35.203400,-80.837440,Chick-Fil-A,28207,Mecklenburg County
35.227530,-80.842910,Chick-Fil-A,28202,Mecklenburg County
35.054955,-80.811111,Chick-Fil-A,28277,Mecklenburg County
35.103893,-80.984740,Chick-Fil-A,28278,Mecklenburg County
35.312717,-80.772575,Chick-Fil-A,28269,Mecklenburg County
35.171722,-80.849910,Chick-Fil-A,28209,Mecklenburg County
35.198025,-80.868290,Chick-Fil-A,28203,Mecklenburg County
35.098869,-80.781410,Chick-Fil-A,28270,Mecklenburg County
35.151875,-80.832080,Chick-Fil-A,28210,Mecklenburg County
35.177180,-80.799030,Chick-Fil-A,28211,Mecklenburg County
35.352238,-80.850970,Chick-Fil-A,28269,Mecklenburg County
35.059730,-80.813420,Chick-Fil-A,28277,Mecklenburg County
35.233730,-80.851875,Chick-Fil-A,28202,Mecklenburg County
35.144190,-80.929405,Chick-Fil-A,28273,Mecklenburg County
35.349730,-80.856500,Chick-Fil-A,28216,Mecklenburg County
35.333590,-80.813194,Chick-Fil-A,28269,Mecklenburg County
35.310364,-80.752290,Chick-Fil-A,28262,Mecklenburg County
35.211080,-80.690920,Chick-Fil-A,28215,Mecklenburg County
35.302300,-80.729300,Chick-Fil-A,28213,Mecklenburg County
35.326904,-80.944790,Chick-Fil-A,28216,Mecklenburg County
35.104805,-80.879745,Chick-Fil-A,28134,Mecklenburg County
35.438846,-80.605958,Chick-Fil-A,28083,Cabarrus County
35.440605,-80.603516,Chick-Fil-A,28083,Cabarrus County
35.419810,-80.675320,Chick-Fil-A,28027,Cabarrus County
35.371742,-80.717550,Chick-Fil-A,28027,Cabarrus County
35.391155,-80.624916,Chick-Fil-A,28027,Cabarrus County
35.322400,-83.176200,Chick-Fil-A,28779,Jackson County
35.448070,-81.000129,Chick-Fil-A,28037,Lincoln County
35.903095,-78.897736,Chick-Fil-A,27713,Durham County
36.019157,-78.947014,Chick-Fil-A,27705,Durham County
36.042404,-78.899410,Chick-Fil-A,27712,Durham County
35.964920,-78.959020,Chick-Fil-A,27707,Durham County
35.904507,-78.941930,Chick-Fil-A,27713,Durham County
35.901560,-78.957800,Chick-Fil-A,27713,Durham County
36.005210,-78.938440,Chick-Fil-A,27701,Durham County
36.291766,-76.247510,Chick-Fil-A,27921,Camden County
36.150900,-79.505200,Chick-Fil-A,27244,Alamance County
35.067200,-78.966400,Chick-Fil-A,28303,Cumberland County
35.067150,-78.966301,Chick-Fil-A,28303,Cumberland County
35.045668,-78.922694,Chick-Fil-A,28305,Cumberland County
35.072000,-78.960900,Chick-Fil-A,28303,Cumberland County
35.124120,-78.879550,Chick-Fil-A,28311,Cumberland County
35.129667,-78.878573,Chick-Fil-A,28311,Cumberland County
35.593803,-78.767746,Chick-Fil-A,27540,Wake County
35.692074,-78.582640,Chick-Fil-A,27529,Wake County
35.717102,-78.637596,Chick-Fil-A,27529,Wake County
35.258850,-81.120180,Chick-Fil-A,28098,Gaston County
35.381330,-77.932220,Chick-Fil-A,27534,Wayne County
36.055428,-79.894424,Chick-Fil-A,27407,Guilford County
36.021600,-79.902700,Chick-Fil-A,27407,Guilford County
36.132410,-79.792370,Chick-Fil-A,27408,Guilford County
36.041855,-79.838310,Chick-Fil-A,27403,Guilford County
36.038720,-79.837590,Chick-Fil-A,27403,Guilford County
36.130590,-79.855675,Chick-Fil-A,27410,Guilford County
36.066600,-79.805600,Chick-Fil-A,27403,Guilford County
36.089560,-79.890370,Chick-Fil-A,27410,Guilford County
36.084415,-79.833626,Chick-Fil-A,27408,Guilford County
35.665800,-77.336700,Chick-Fil-A,27834,Pitt County
35.579807,-77.381650,Chick-Fil-A,28590,Pitt County
35.611060,-77.372499,Chick-Fil-A,27834,Pitt County
35.586000,-77.367600,Chick-Fil-A,28590,Pitt County
36.335960,-78.438660,Chick-Fil-A,27536,Vance County
35.347150,-82.433815,Chick-Fil-A,28791,Henderson County
35.749802,-81.335602,Chick-Fil-A,28601,Catawba County
35.708160,-81.308020,Chick-Fil-A,28602,Catawba County
35.706041,-81.303833,Chick-Fil-A,28602,Catawba County
35.993416,-80.029820,Chick-Fil-A,27265,Guilford County
36.034737,-79.963180,Chick-Fil-A,27282,Guilford County
35.973290,-79.994880,Chick-Fil-A,27260,Guilford County
35.639168,-78.834270,Chick-Fil-A,27540,Wake County
35.444960,-80.866690,Chick-Fil-A,28031,Mecklenburg County
35.082733,-80.659147,Chick-Fil-A,28104,Union County
34.787000,-77.402800,Chick-Fil-A,28546,Onslow County
34.760300,-77.381500,Chick-Fil-A,28543,Onslow County
34.765200,-77.381000,Chick-Fil-A,28543,Onslow County
36.107555,-80.100210,Chick-Fil-A,27284,Forsyth County
35.260537,-77.650711,Chick-Fil-A,28504,Lenoir County
35.797672,-78.504480,Chick-Fil-A,27545,Wake County
35.913120,-81.523880,Chick-Fil-A,28638,Caldwell County
35.782838,-80.253965,Chick-Fil-A,27292,Davidson County
35.477730,-81.226270,Chick-Fil-A,28092,Lincoln County
34.666404,-79.005667,Chick-Fil-A,28358,Robeson County
35.000430,-80.695290,Chick-Fil-A,29707,Lancaster County
35.132860,-80.712170,Chick-Fil-A,28105,Mecklenburg County
35.004368,-80.559746,Chick-Fil-A,28079,Union County
35.016193,-80.571300,Chick-Fil-A,28079,Union County
35.593674,-80.862274,Chick-Fil-A,28117,Iredell County
34.739100,-76.809170,Chick-Fil-A,28512,Carteret County
35.722066,-81.694037,Chick-Fil-A,28655,Burke County
36.481452,-80.614881,Chick-Fil-A,27030,Surry County
35.103500,-77.087400,Chick-Fil-A,28562,Craven County
34.686234,-79.204887,Chick-Fil-A,28372,Robeson County
35.082348,-80.876470,Chick-Fil-A,28134,Mecklenburg County
35.790934,-78.659505,Chick-Fil-A,27605,Wake County
35.809400,-78.720000,Chick-Fil-A,27607,Wake County
35.815776,-78.693122,Chick-Fil-A,27607,Wake County
35.775300,-78.639600,Chick-Fil-A,27601,Wake County
35.837450,-78.642110,Chick-Fil-A,27609,Wake County
35.840690,-78.679146,Chick-Fil-A,27612,Wake County
35.847473,-78.581100,Chick-Fil-A,27604,Wake County
35.866590,-78.575890,Chick-Fil-A,27616,Wake County
35.861140,-78.708700,Chick-Fil-A,27612,Wake County
35.875385,-78.623920,Chick-Fil-A,27615,Wake County
35.898240,-78.651340,Chick-Fil-A,27615,Wake County
35.901020,-78.790610,Chick-Fil-A,27617,Wake County
36.425300,-77.632200,Chick-Fil-A,27890,Halifax County
35.976800,-77.809800,Chick-Fil-A,27809,Nash County
35.660150,-80.461010,Chick-Fil-A,28159,Rowan County
35.447142,-79.130193,Chick-Fil-A,27332,Lee County
35.269500,-81.482900,Chick-Fil-A,28073,Cleveland County
35.274600,-81.528100,Chick-Fil-A,28073,Cleveland County
35.519690,-78.310180,Chick-Fil-A,27577,Johnston County
35.165900,-79.422035,Chick-Fil-A,28387,Moore County
35.814660,-80.876180,Chick-Fil-A,28625,Iredell County
35.967133,-78.542760,Chick-Fil-A,27596,Franklin County
35.503540,-82.989091,Chick-Fil-A,28745,Haywood County
36.149544,-81.203780,Chick-Fil-A,28697,Wilkes County
34.301180,-77.789530,Chick-Fil-A,28411,New Hanover County
34.217247,-77.905850,Chick-Fil-A,28403,New Hanover County
34.213990,-77.906080,Chick-Fil-A,28403,New Hanover County
34.146440,-77.893110,Chick-Fil-A,28412,New Hanover County
34.245075,-77.879166,Chick-Fil-A,28403,New Hanover County
34.227100,-77.879400,Chick-Fil-A,28403,New Hanover County
34.237453,-77.829090,Chick-Fil-A,28480,New Hanover County
35.732800,-77.952700,Chick-Fil-A,27893,Wilson County
36.113500,-80.242200,Chick-Fil-A,27101,Forsyth County
36.117867,-80.313190,Chick-Fil-A,27104,Forsyth County
36.190240,-80.273890,Chick-Fil-A,27105,Forsyth County
36.073226,-80.298068,Chick-Fil-A,27103,Forsyth County
36.032240,-80.261300,Chick-Fil-A,27127,Forsyth County
36.091404,-80.286030,Chick-Fil-A,27104,Forsyth County
36.088604,-80.226746,Chick-Fil-A,27101,Forsyth County
36.065086,-80.312430,Chick-Fil-A,27103,Forsyth County
35.546359,-77.404901,Chick-Fil-A,28590,Pitt County
46.861240,-96.850100,Chick-Fil-A,58103,Cass County
47.889507,-97.074015,Chick-Fil-A,58202,Grand Forks County
41.161827,-95.965978,Chick-Fil-A,68147,Sarpy County
40.702716,-99.094558,Chick-Fil-A,68845,Buffalo County
40.741368,-96.682389,Chick-Fil-A,68512,Lancaster County
41.263767,-96.105660,Chick-Fil-A,68154,Douglas County
41.234046,-96.188723,Chick-Fil-A,68130,Douglas County
41.257702,-95.962111,Chick-Fil-A,68131,Douglas County
41.259300,-95.962300,Chick-Fil-A,68131,Douglas County
41.316635,-96.024529,Chick-Fil-A,68104,Douglas County
41.258987,-96.031174,Chick-Fil-A,68114,Douglas County
41.171654,-96.022926,Chick-Fil-A,68157,Sarpy County
42.702919,-71.440956,Chick-Fil-A,03060,Hillsborough County
42.784399,-71.507552,Chick-Fil-A,03063,Hillsborough County
39.898167,-75.092995,Chick-Fil-A,08059,Camden County
40.057043,-74.151725,Chick-Fil-A,08723,Ocean County
40.050982,-74.840594,Chick-Fil-A,08016,Burlington County
39.905820,-74.976740,Chick-Fil-A,08003,Camden County
39.920177,-75.035690,Chick-Fil-A,08002,Camden County
39.940388,-75.029602,Chick-Fil-A,08002,Camden County
40.934550,-75.101620,Chick-Fil-A,18343,Northampton County
40.020023,-74.944542,Chick-Fil-A,08075,Burlington County
39.829990,-75.108925,Chick-Fil-A,08096,Gloucester County
39.828209,-75.099098,Chick-Fil-A,08096,Gloucester County
40.287601,-74.051315,Chick-Fil-A,07724,Monmouth County
40.548794,-74.333862,Chick-Fil-A,08840,Middlesex County
39.436111,-74.612541,Chick-Fil-A,08234,Atlantic County
39.396460,-74.552820,Chick-Fil-A,08225,Atlantic County
40.894990,-73.976200,Chick-Fil-A,07631,Bergen County
40.500595,-74.855384,Chick-Fil-A,08822,Hunterdon County
40.252968,-74.299100,Chick-Fil-A,07726,Monmouth County
39.491937,-74.530930,Chick-Fil-A,08205,Atlantic County
40.195626,-74.639723,Chick-Fil-A,08620,Mercer County
40.133183,-74.223831,Chick-Fil-A,07731,Monmouth County
40.726144,-74.038834,Chick-Fil-A,07310,Hudson County
39.898708,-74.931549,Chick-Fil-A,08003,Camden County
39.942429,-74.958138,Chick-Fil-A,08052,Burlington County
39.970169,-74.915329,Chick-Fil-A,08054,Burlington County
40.914873,-74.078920,Chick-Fil-A,07662,Bergen County
40.959610,-74.069847,Chick-Fil-A,07652,Bergen County
40.687361,-75.152976,Chick-Fil-A,08865,Warren County
39.761780,-75.132248,Chick-Fil-A,08080,Gloucester County
39.745235,-74.993721,Chick-Fil-A,08081,Camden County
40.860935,-74.059547,Chick-Fil-A,07606,Bergen County
39.773100,-75.059364,Chick-Fil-A,08012,Camden County
40.690647,-74.292890,Chick-Fil-A,07033,Union County
39.431419,-75.040321,Chick-Fil-A,08332,Cumberland County
39.851645,-74.984926,Chick-Fil-A,08043,Camden County
39.849312,-74.978783,Chick-Fil-A,08043,Camden County
40.581753,-74.282715,Chick-Fil-A,07001,Middlesex County
40.555172,-74.302216,Chick-Fil-A,08830,Middlesex County
35.058402,-106.630619,Chick-Fil-A,87102,Bernalillo County
35.087600,-106.621000,Chick-Fil-A,87102,Bernalillo County
35.070573,-106.532448,Chick-Fil-A,87116,Bernalillo County
35.105888,-106.550446,Chick-Fil-A,87110,Bernalillo County
35.206276,-106.656770,Chick-Fil-A,87114,Bernalillo County
35.131058,-106.588733,Chick-Fil-A,87110,Bernalillo County
35.174720,-106.575660,Chick-Fil-A,87113,Bernalillo County
36.769005,-108.146744,Chick-Fil-A,87402,San Juan County
32.284760,-106.754400,Chick-Fil-A,88001,Doa Ana County
32.310593,-106.743570,Chick-Fil-A,88001,Doa Ana County
32.283000,-106.748000,Chick-Fil-A,88001,Doa Ana County
32.312083,-106.755378,Chick-Fil-A,88001,Doa Ana County
35.240671,-106.696709,Chick-Fil-A,87114,Bernalillo County
35.659160,-105.981320,Chick-Fil-A,87501,Santa Fe County
36.057626,-115.045868,Chick-Fil-A,89074,Clark County
36.009063,-115.117138,Chick-Fil-A,89052,Clark County
39.531369,-119.715710,Chick-Fil-A,89431,Washoe County
43.153196,-76.123884,Chick-Fil-A,13212,Onondaga County
40.807195,-73.294431,Chick-Fil-A,11725,Suffolk County
40.734569,-73.870651,Chick-Fil-A,11373,Queens County
43.208400,-77.684700,Chick-Fil-A,14615,Monroe County
40.774227,-73.529448,Chick-Fil-A,11801,Nassau County
40.751720,-73.986022,Chick-Fil-A,10001,New York County
40.757369,-73.981620,Chick-Fil-A,10020,New York County
40.710380,-74.008580,Chick-Fil-A,10271,New York County
40.729230,-73.994040,Chick-Fil-A,10003,New York County
40.752450,-73.979160,Chick-Fil-A,10110,New York County
44.697895,-73.455193,Chick-Fil-A,12901,Clinton County
40.923054,-73.051002,Chick-Fil-A,11776,Suffolk County
40.581250,-74.166080,Chick-Fil-A,10314,Richmond County
41.498363,-81.494010,Chick-Fil-A,44124,Cuyahoga County
39.758400,-84.052800,Chick-Fil-A,45431,Montgomery County
39.766415,-84.056400,Chick-Fil-A,45431,Montgomery County
41.021347,-80.659100,Chick-Fil-A,44512,Mahoning County
40.857250,-81.427925,Chick-Fil-A,44718,Stark County
39.613579,-84.160667,Chick-Fil-A,45458,Montgomery County
39.135600,-84.525960,Chick-Fil-A,45219,Hamilton County
39.160586,-84.424871,Chick-Fil-A,45209,Hamilton County
39.152410,-84.628780,Chick-Fil-A,45248,Hamilton County
39.202200,-84.377200,Chick-Fil-A,45236,Hamilton County
39.072400,-84.316960,Chick-Fil-A,45255,Hamilton County
39.096590,-84.266070,Chick-Fil-A,45245,Clermont County
39.243798,-84.594944,Chick-Fil-A,45251,Hamilton County
40.145640,-82.981735,Chick-Fil-A,43240,Delaware County
40.001590,-83.008220,Chick-Fil-A,43210,Franklin County
40.057824,-82.912325,Chick-Fil-A,43231,Franklin County
39.980860,-82.833250,Chick-Fil-A,43213,Franklin County
39.984170,-83.026510,Chick-Fil-A,43212,Franklin County
40.142635,-82.990430,Chick-Fil-A,43240,Delaware County
41.118640,-81.479510,Chick-Fil-A,44310,Summit County
39.629400,-84.194800,Chick-Fil-A,45459,Montgomery County
39.633400,-84.220100,Chick-Fil-A,45449,Montgomery County
39.841940,-84.193860,Chick-Fil-A,45414,Montgomery County
40.073032,-83.130990,Chick-Fil-A,43016,Franklin County
40.090109,-83.091921,Chick-Fil-A,43235,Franklin County
41.135050,-81.643370,Chick-Fil-A,44333,Summit County
41.053510,-83.610102,Chick-Fil-A,44804,Hancock County
39.879246,-83.042175,Chick-Fil-A,43123,Franklin County
39.390631,-84.502586,Chick-Fil-A,45011,Butler County
39.991360,-83.151190,Chick-Fil-A,43228,Franklin County
41.612667,-83.702232,Chick-Fil-A,43614,Lucas County
39.689356,-84.163775,Chick-Fil-A,45429,Montgomery County
41.313000,-81.523200,Chick-Fil-A,44067,Summit County
39.299130,-84.315730,Chick-Fil-A,45249,Hamilton County
39.342511,-84.265188,Chick-Fil-A,45034,Warren County
41.657337,-81.361336,Chick-Fil-A,44094,Lake County
41.683710,-81.295300,Chick-Fil-A,44060,Lake County
39.188288,-84.258517,Chick-Fil-A,45111,Hamilton County
40.859330,-81.433174,Chick-Fil-A,44718,Stark County
41.419700,-81.901100,Chick-Fil-A,44070,Cuyahoga County
41.540929,-83.580784,Chick-Fil-A,43551,Wood County
41.023876,-80.632760,Chick-Fil-A,44514,Mahoning County
41.024658,-80.633369,Chick-Fil-A,44514,Mahoning County
41.461754,-81.851326,Chick-Fil-A,44116,Cuyahoga County
39.286713,-84.460495,Chick-Fil-A,45246,Hamilton County
39.925030,-83.806732,Chick-Fil-A,45502,Clark County
41.313065,-81.815853,Chick-Fil-A,44136,Cuyahoga County
41.681458,-83.622775,Chick-Fil-A,43606,Lucas County
41.691455,-83.644012,Chick-Fil-A,43623,Lucas County
41.694910,-83.640720,Chick-Fil-A,43623,Lucas County
41.675646,-83.702243,Chick-Fil-A,43617,Lucas County
41.679710,-83.607498,Chick-Fil-A,43606,Lucas County
40.055929,-84.241718,Chick-Fil-A,45373,Miami County
39.896293,-84.225355,Chick-Fil-A,45377,Montgomery County
41.217838,-80.739800,Chick-Fil-A,44484,Trumbull County
41.449090,-81.497220,Chick-Fil-A,44122,Cuyahoga County
39.368477,-84.371333,Chick-Fil-A,45069,Butler County
39.353200,-84.361800,Chick-Fil-A,45069,Butler County
41.626280,-81.435394,Chick-Fil-A,44095,Lake County
41.105969,-80.644968,Chick-Fil-A,44503,Mahoning County
34.790680,-96.656661,Chick-Fil-A,74820,Pontotoc County
34.186653,-97.161255,Chick-Fil-A,73401,Carter County
36.747646,-95.935299,Chick-Fil-A,74006,Washington County
36.061020,-95.781231,Chick-Fil-A,74012,Tulsa County
34.520150,-97.974850,Chick-Fil-A,73533,Stephens County
35.656000,-97.474900,Chick-Fil-A,73003,Oklahoma County
35.652700,-97.464010,Chick-Fil-A,73003,Oklahoma County
35.623080,-97.482796,Chick-Fil-A,73013,Oklahoma County
36.390346,-97.932307,Chick-Fil-A,73705,Garfield County
34.603300,-98.391900,Chick-Fil-A,73503,Comanche County
34.623960,-98.425750,Chick-Fil-A,73503,Comanche County
35.435387,-97.394585,Chick-Fil-A,73110,Oklahoma County
35.318530,-97.494990,Chick-Fil-A,73160,Cleveland County
35.782532,-95.376091,Chick-Fil-A,74403,Muskogee County
35.202000,-97.444400,Chick-Fil-A,73071,Cleveland County
35.218740,-97.479060,Chick-Fil-A,73072,Cleveland County
35.200600,-97.442400,Chick-Fil-A,73071,Cleveland County
35.220100,-97.491000,Chick-Fil-A,73072,Cleveland County
35.479600,-97.501000,Chick-Fil-A,73104,Oklahoma County
35.613089,-97.549407,Chick-Fil-A,73134,Oklahoma County
35.525100,-97.544464,Chick-Fil-A,73118,Oklahoma County
35.494407,-97.538815,Chick-Fil-A,73106,Oklahoma County
35.612820,-97.558200,Chick-Fil-A,73134,Oklahoma County
35.535083,-97.565681,Chick-Fil-A,73116,Oklahoma County
35.461862,-97.625864,Chick-Fil-A,73128,Canadian County
35.557400,-97.635500,Chick-Fil-A,73162,Oklahoma County
35.390533,-97.531334,Chick-Fil-A,73139,Oklahoma County
36.293490,-95.840190,Chick-Fil-A,74055,Tulsa County
35.378735,-96.929746,Chick-Fil-A,74804,Pottawatomie County
35.359067,-96.934036,Chick-Fil-A,74804,Pottawatomie County
36.127540,-97.058250,Chick-Fil-A,74074,Payne County
36.102400,-97.051349,Chick-Fil-A,74074,Payne County
35.906900,-94.982700,Chick-Fil-A,74464,Cherokee County
36.011196,-95.885895,Chick-Fil-A,74133,Tulsa County
36.061230,-95.852120,Chick-Fil-A,74133,Tulsa County
36.102825,-95.919850,Chick-Fil-A,74135,Tulsa County
36.151530,-95.944680,Chick-Fil-A,74104,Tulsa County
36.104422,-95.921791,Chick-Fil-A,74135,Tulsa County
36.063263,-95.881700,Chick-Fil-A,74133,Tulsa County
36.060703,-96.003993,Chick-Fil-A,74132,Tulsa County
36.050700,-95.953200,Chick-Fil-A,74136,Tulsa County
35.480877,-97.760895,Chick-Fil-A,73099,Canadian County
45.432797,-122.569328,Chick-Fil-A,97086,Clackamas County
45.540194,-122.866424,Chick-Fil-A,97006,Washington County
40.556430,-75.579470,Chick-Fil-A,18087,Lehigh County
40.459241,-78.408742,Chick-Fil-A,16602,Blair County
40.139294,-74.954490,Chick-Fil-A,19053,Bucks County
41.007814,-76.447856,Chick-Fil-A,17815,Columbia County
39.940247,-77.628843,Chick-Fil-A,17201,Franklin County
40.684883,-80.082490,Chick-Fil-A,15086,Allegheny County
40.016600,-75.685100,Chick-Fil-A,19335,Chester County
40.137962,-75.315650,Chick-Fil-A,19401,Montgomery County
40.713650,-75.285900,Chick-Fil-A,18045,Northampton County
42.053967,-80.087450,Chick-Fil-A,16508,Erie County
40.054344,-75.663470,Chick-Fil-A,19341,Chester County
40.029399,-75.625395,Chick-Fil-A,19341,Chester County
39.889183,-75.326940,Chick-Fil-A,19033,Delaware County
39.882330,-75.542140,Chick-Fil-A,19373,Delaware County
40.301826,-79.498720,Chick-Fil-A,15601,Westmoreland County
40.300755,-79.508060,Chick-Fil-A,15601,Westmoreland County
40.309837,-79.583048,Chick-Fil-A,15634,Westmoreland County
39.823885,-76.996596,Chick-Fil-A,17344,Adams County
40.241196,-76.802292,Chick-Fil-A,17111,Dauphin County
40.286790,-76.659500,Chick-Fil-A,17036,Dauphin County
40.412678,-79.907910,Chick-Fil-A,15120,Allegheny County
40.616500,-79.161100,Chick-Fil-A,15701,Indiana County
40.094067,-75.364590,Chick-Fil-A,19405,Montgomery County
40.087260,-75.393320,Chick-Fil-A,19406,Montgomery County
40.508367,-75.785481,Chick-Fil-A,19530,Berks County
40.065019,-76.314716,Chick-Fil-A,17603,Lancaster County
40.023166,-76.196274,Chick-Fil-A,17576,Lancaster County
40.182560,-74.871155,Chick-Fil-A,19047,Bucks County
40.262100,-75.322418,Chick-Fil-A,19440,Montgomery County
40.247013,-77.007980,Chick-Fil-A,17050,Cumberland County
39.915882,-75.432520,Chick-Fil-A,19063,Delaware County
39.912438,-75.439184,Chick-Fil-A,19063,Delaware County
40.674675,-80.314490,Chick-Fil-A,15061,Beaver County
40.438133,-79.771880,Chick-Fil-A,15146,Allegheny County
40.240719,-75.242828,Chick-Fil-A,19454,Montgomery County
40.235413,-74.947220,Chick-Fil-A,18940,Bucks County
40.128117,-75.403500,Chick-Fil-A,19403,Montgomery County
40.235130,-75.244770,Chick-Fil-A,19454,Montgomery County
39.951600,-75.168000,Chick-Fil-A,19103,Philadelphia County
39.954940,-75.190790,Chick-Fil-A,19104,Philadelphia County
39.918340,-75.140440,Chick-Fil-A,19148,Philadelphia County
39.996760,-75.092420,Chick-Fil-A,19137,Philadelphia County
40.073453,-75.157155,Chick-Fil-A,19150,Philadelphia County
40.029118,-75.099731,Chick-Fil-A,19124,Philadelphia County
39.872200,-75.240400,Chick-Fil-A,19113,Delaware County
39.951916,-75.156300,Chick-Fil-A,19107,Philadelphia County
40.081730,-75.026794,Chick-Fil-A,19115,Philadelphia County
40.454670,-80.157470,Chick-Fil-A,15205,Allegheny County
40.543694,-80.008410,Chick-Fil-A,15237,Allegheny County
40.451220,-80.175340,Chick-Fil-A,15071,Allegheny County
40.457787,-80.167930,Chick-Fil-A,15108,Allegheny County
40.352000,-80.051600,Chick-Fil-A,15228,Allegheny County
40.443100,-79.956300,Chick-Fil-A,15260,Allegheny County
40.334680,-79.947280,Chick-Fil-A,15236,Allegheny County
40.116190,-75.282050,Chick-Fil-A,19462,Montgomery County
40.239563,-75.577408,Chick-Fil-A,19464,Montgomery County
40.460610,-75.369390,Chick-Fil-A,18955,Bucks County
40.354800,-75.981700,Chick-Fil-A,19610,Berks County
40.304210,-75.856090,Chick-Fil-A,19606,Berks County
40.198250,-75.526000,Chick-Fil-A,19468,Montgomery County
41.406720,-75.658740,Chick-Fil-A,18503,Lackawanna County
39.771550,-76.671220,Chick-Fil-A,17361,York County
39.916138,-75.334100,Chick-Fil-A,19070,Delaware County
40.809223,-77.905876,Chick-Fil-A,16801,Centre County
40.138330,-74.962370,Chick-Fil-A,19053,Bucks County
40.802700,-77.859000,Chick-Fil-A,16802,Centre County
40.216618,-75.140430,Chick-Fil-A,19044,Montgomery County
40.186879,-80.221430,Chick-Fil-A,15301,Washington County
39.954275,-75.590959,Chick-Fil-A,19380,Chester County
40.633409,-80.059729,Chick-Fil-A,15090,Allegheny County
40.644844,-75.493370,Chick-Fil-A,18052,Lehigh County
40.629803,-75.481070,Chick-Fil-A,18102,Lehigh County
40.140247,-75.123460,Chick-Fil-A,19090,Montgomery County
40.340996,-75.970280,Chick-Fil-A,19610,Berks County
39.975903,-76.671482,Chick-Fil-A,17402,York County
39.979603,-76.753123,Chick-Fil-A,17404,York County
41.699276,-71.496374,Chick-Fil-A,02893,Kent County
33.511646,-81.713936,Chick-Fil-A,29801,Aiken County
34.530620,-82.634520,Chick-Fil-A,29621,Anderson County
34.538900,-82.671700,Chick-Fil-A,29670,Anderson County
34.553640,-82.681786,Chick-Fil-A,29670,Anderson County
32.441147,-80.704500,Chick-Fil-A,29902,Beaufort County
32.242867,-80.825935,Chick-Fil-A,29926,Beaufort County
35.049145,-81.984900,Chick-Fil-A,29316,Spartanburg County
34.247351,-80.627919,Chick-Fil-A,29020,Kershaw County
32.785334,-79.937881,Chick-Fil-A,29401,Charleston County
32.787550,-80.014755,Chick-Fil-A,29407,Charleston County
32.785700,-79.946700,Chick-Fil-A,29401,Charleston County
32.812458,-80.042330,Chick-Fil-A,29407,Charleston County
32.798400,-80.031600,Chick-Fil-A,29407,Charleston County
32.795395,-79.963661,Chick-Fil-A,29403,Charleston County
32.783800,-79.936200,Chick-Fil-A,29401,Charleston County
32.737200,-79.967500,Chick-Fil-A,29412,Charleston County
34.691868,-82.837524,Chick-Fil-A,29631,Pickens County
34.681530,-82.836339,Chick-Fil-A,29631,Pickens County
34.078773,-81.157370,Chick-Fil-A,29212,Lexington County
34.116405,-80.883720,Chick-Fil-A,29229,Richland County
33.999700,-81.023300,Chick-Fil-A,29201,Richland County
34.031033,-81.088930,Chick-Fil-A,29210,Richland County
34.060265,-80.950874,Chick-Fil-A,29206,Richland County
34.073288,-81.156410,Chick-Fil-A,29212,Lexington County
34.136890,-80.958157,Chick-Fil-A,29223,Richland County
34.022990,-80.950810,Chick-Fil-A,29206,Richland County
33.966415,-80.943580,Chick-Fil-A,29205,Richland County
34.001717,-81.017212,Chick-Fil-A,29205,Richland County
33.795357,-79.009614,Chick-Fil-A,29579,Horry County
33.845690,-79.064630,Chick-Fil-A,29526,Horry County
34.910733,-82.103922,Chick-Fil-A,29334,Spartanburg County
34.826103,-82.570550,Chick-Fil-A,29642,Pickens County
34.156190,-79.767410,Chick-Fil-A,29501,Florence County
34.191390,-79.834430,Chick-Fil-A,29501,Florence County
34.190514,-79.835450,Chick-Fil-A,29501,Florence County
35.029980,-80.966270,Chick-Fil-A,29708,York County
35.094970,-81.666020,Chick-Fil-A,29341,Cherokee County
33.030920,-80.058640,Chick-Fil-A,29456,Dorchester County
34.822514,-82.286350,Chick-Fil-A,29615,Greenville County
34.889515,-82.405140,Chick-Fil-A,29609,Greenville County
34.841236,-82.359720,Chick-Fil-A,29607,Greenville County
34.875687,-82.364792,Chick-Fil-A,29607,Greenville County
34.926100,-82.433300,Chick-Fil-A,29617,Greenville County
34.859257,-82.266410,Chick-Fil-A,29615,Greenville County
34.847360,-82.339200,Chick-Fil-A,29607,Greenville County
34.849934,-82.333565,Chick-Fil-A,29615,Greenville County
34.821300,-82.413900,Chick-Fil-A,29601,Greenville County
34.213203,-82.174519,Chick-Fil-A,29649,Greenwood County
34.213100,-82.174100,Chick-Fil-A,29649,Greenwood County
34.209741,-82.181843,Chick-Fil-A,29649,Greenwood County
34.939060,-82.266210,Chick-Fil-A,29650,Greenville County
35.010420,-80.852311,Chick-Fil-A,29707,Lancaster County
34.125813,-81.219710,Chick-Fil-A,29063,Richland County
34.492954,-81.979698,Chick-Fil-A,29360,Laurens County
34.013801,-81.159257,Chick-Fil-A,29210,Richland County
33.995890,-81.224610,Chick-Fil-A,29072,Lexington County
34.778116,-82.310967,Chick-Fil-A,29662,Greenville County
33.210139,-79.981300,Chick-Fil-A,29461,Berkeley County
32.812054,-79.865960,Chick-Fil-A,29464,Charleston County
32.865810,-79.784584,Chick-Fil-A,29466,Charleston County
32.841608,-79.856014,Chick-Fil-A,29464,Charleston County
33.554750,-79.045640,Chick-Fil-A,29576,Horry County
33.681760,-78.928500,Chick-Fil-A,29577,Horry County
33.697240,-78.878750,Chick-Fil-A,29577,Horry County
33.711216,-78.898350,Chick-Fil-A,29577,Horry County
33.702477,-78.923190,Chick-Fil-A,29577,Horry County
33.648730,-78.976510,Chick-Fil-A,29575,Horry County
33.749012,-78.960670,Chick-Fil-A,29577,Horry County
33.504770,-81.958530,Chick-Fil-A,29841,Aiken County
32.944350,-80.043290,Chick-Fil-A,29406,Charleston County
32.875410,-80.019356,Chick-Fil-A,29405,Charleston County
32.941060,-80.039680,Chick-Fil-A,29406,Charleston County
32.914474,-80.109390,Chick-Fil-A,29420,Dorchester County
32.983978,-80.068871,Chick-Fil-A,29456,Dorchester County
33.833538,-78.672710,Chick-Fil-A,29582,Horry County
33.551731,-80.827764,Chick-Fil-A,29118,Orangeburg County
34.787076,-82.478987,Chick-Fil-A,29611,Greenville County
34.931484,-81.027481,Chick-Fil-A,29730,York County
34.940770,-80.966720,Chick-Fil-A,29730,York County
34.969307,-80.993730,Chick-Fil-A,29715,York County
34.690020,-82.994670,Chick-Fil-A,29672,Oconee County
34.711117,-82.255974,Chick-Fil-A,29680,Greenville County
34.936300,-81.988500,Chick-Fil-A,29301,Spartanburg County
34.962424,-81.943658,Chick-Fil-A,29301,Spartanburg County
34.970097,-81.887610,Chick-Fil-A,29307,Spartanburg County
34.939970,-81.994300,Chick-Fil-A,29301,Spartanburg County
34.956900,-81.937500,Chick-Fil-A,29301,Spartanburg County
33.036823,-80.156456,Chick-Fil-A,29456,Dorchester County
33.950130,-80.373700,Chick-Fil-A,29150,Sumter County
33.954800,-80.380700,Chick-Fil-A,29150,Sumter County
34.902103,-82.336090,Chick-Fil-A,29609,Greenville County
35.070950,-82.369118,Chick-Fil-A,29690,Greenville County
34.960750,-82.433600,Chick-Fil-A,29617,Greenville County
33.983246,-81.096000,Chick-Fil-A,29169,Lexington County
34.734700,-80.787500,Chick-Fil-A,29720,Lancaster County
44.317791,-96.780060,Chick-Fil-A,57006,Brookings County
42.782622,-96.925638,Chick-Fil-A,57069,Clay County
35.771397,-83.988980,Chick-Fil-A,37701,Blount County
35.206256,-89.840544,Chick-Fil-A,38134,Shelby County
36.027225,-86.790910,Chick-Fil-A,37027,Williamson County
36.591500,-82.262120,Chick-Fil-A,24201,Bristol city
35.023712,-85.158540,Chick-Fil-A,37421,Hamilton County
35.129880,-85.239960,Chick-Fil-A,37415,Hamilton County
35.034700,-85.158800,Chick-Fil-A,37421,Hamilton County
35.037000,-85.248074,Chick-Fil-A,37411,Hamilton County
35.046200,-85.297400,Chick-Fil-A,37403,Hamilton County
34.992687,-85.200875,Chick-Fil-A,37412,Hamilton County
35.048000,-85.291000,Chick-Fil-A,37403,Hamilton County
36.513992,-87.317474,Chick-Fil-A,37040,Montgomery County
36.595641,-87.287119,Chick-Fil-A,37042,Montgomery County
36.529700,-87.359400,Chick-Fil-A,37040,Montgomery County
35.165200,-84.872700,Chick-Fil-A,37312,Bradley County
35.195187,-84.854730,Chick-Fil-A,37312,Bradley County
35.046760,-89.697020,Chick-Fil-A,38139,Shelby County
35.592910,-87.051901,Chick-Fil-A,38451,Maury County
36.175495,-85.503540,Chick-Fil-A,38501,Putnam County
36.137530,-85.509880,Chick-Fil-A,38501,Putnam County
36.060418,-89.395251,Chick-Fil-A,38024,Dyer County
36.349782,-82.237807,Chick-Fil-A,37694,Carter County
35.957306,-86.813644,Chick-Fil-A,37027,Williamson County
35.894977,-86.876572,Chick-Fil-A,37067,Williamson County
35.944138,-86.820750,Chick-Fil-A,37067,Williamson County
36.374763,-86.476710,Chick-Fil-A,37066,Sumner County
35.115513,-89.800680,Chick-Fil-A,38018,Shelby County
36.171020,-82.790111,Chick-Fil-A,37743,Greene County
36.332077,-86.620300,Chick-Fil-A,37075,Sumner County
36.191284,-86.614620,Chick-Fil-A,37214,Davidson County
35.154476,-85.248190,Chick-Fil-A,37415,Hamilton County
35.656470,-88.831000,Chick-Fil-A,38305,Madison County
35.670070,-88.854030,Chick-Fil-A,38305,Madison County
35.635750,-88.831720,Chick-Fil-A,38301,Madison County
36.120831,-83.490082,Chick-Fil-A,37760,Jefferson County
36.338394,-82.377630,Chick-Fil-A,37604,Washington County
36.311264,-82.388700,Chick-Fil-A,37604,Washington County
36.350044,-82.399660,Chick-Fil-A,37604,Washington County
36.301640,-82.366013,Chick-Fil-A,37604,Washington County
36.550896,-82.528550,Chick-Fil-A,37665,Sullivan County
35.953100,-83.926900,Chick-Fil-A,37916,Knox County
35.902355,-84.147560,Chick-Fil-A,37932,Knox County
35.902227,-84.151464,Chick-Fil-A,37932,Knox County
35.960326,-83.921938,Chick-Fil-A,37902,Knox County
36.033490,-83.876590,Chick-Fil-A,37918,Knox County
35.940685,-83.985877,Chick-Fil-A,37909,Knox County
36.032009,-83.929321,Chick-Fil-A,37918,Knox County
36.007410,-84.017330,Chick-Fil-A,37912,Knox County
35.931602,-84.025505,Chick-Fil-A,37909,Knox County
35.906392,-83.839465,Chick-Fil-A,37865,Sevier County
35.925070,-84.037994,Chick-Fil-A,37909,Knox County
35.907196,-84.106570,Chick-Fil-A,37923,Knox County
36.188709,-86.296113,Chick-Fil-A,37090,Wilson County
35.825901,-84.274017,Chick-Fil-A,37771,Loudon County
36.301544,-86.694500,Chick-Fil-A,37115,Davidson County
36.342430,-88.865730,Chick-Fil-A,38257,Obion County
35.746899,-83.995067,Chick-Fil-A,37803,Blount County
36.136843,-88.517124,Chick-Fil-A,38201,Carroll County
35.135010,-89.995514,Chick-Fil-A,38104,Shelby County
35.201042,-89.787690,Chick-Fil-A,38133,Shelby County
35.202717,-89.792694,Chick-Fil-A,38133,Shelby County
35.117004,-89.912820,Chick-Fil-A,38117,Shelby County
35.113990,-89.897446,Chick-Fil-A,38117,Shelby County
35.160191,-89.986794,Chick-Fil-A,38112,Shelby County
35.101303,-89.853260,Chick-Fil-A,38119,Shelby County
35.049503,-89.827330,Chick-Fil-A,38115,Shelby County
35.117700,-89.936800,Chick-Fil-A,38111,Shelby County
35.358384,-89.893585,Chick-Fil-A,38053,Shelby County
36.205800,-83.323210,Chick-Fil-A,37813,Hamblen County
36.165590,-86.513940,Chick-Fil-A,37122,Wilson County
35.847500,-86.364200,Chick-Fil-A,37130,Rutherford County
35.845867,-86.427414,Chick-Fil-A,37128,Rutherford County
36.105630,-86.798300,Chick-Fil-A,37204,Davidson County
36.132869,-86.795742,Chick-Fil-A,37212,Davidson County
36.192840,-86.800190,Chick-Fil-A,37228,Davidson County
36.163437,-86.785036,Chick-Fil-A,37219,Davidson County
36.162663,-86.777050,Chick-Fil-A,37219,Davidson County
36.166832,-86.828724,Chick-Fil-A,37208,Davidson County
36.044470,-86.713830,Chick-Fil-A,37211,Davidson County
36.140478,-86.878862,Chick-Fil-A,37209,Davidson County
36.007046,-84.255090,Chick-Fil-A,37830,Anderson County
35.084797,-85.069298,Chick-Fil-A,37353,Bradley County
36.050814,-83.993948,Chick-Fil-A,37912,Knox County
35.837940,-83.571770,Chick-Fil-A,37862,Sevier County
35.984455,-86.553635,Chick-Fil-A,37086,Rutherford County
35.381348,-86.228842,Chick-Fil-A,37360,Coffee County
32.479523,-99.695234,Chick-Fil-A,79605,Taylor County
32.469800,-99.708400,Chick-Fil-A,79605,Taylor County
32.412500,-99.775700,Chick-Fil-A,79605,Taylor County
32.400265,-99.762100,Chick-Fil-A,79605,Taylor County
32.953630,-96.852470,Chick-Fil-A,75001,Dallas County
33.129080,-96.652170,Chick-Fil-A,75013,Collin County
33.101913,-96.682980,Chick-Fil-A,75013,Collin County
35.187153,-101.866231,Chick-Fil-A,79102,Potter County
35.160595,-101.920630,Chick-Fil-A,79121,Randall County
35.215327,-101.901261,Chick-Fil-A,79106,Potter County
35.184093,-101.928246,Chick-Fil-A,79121,Randall County
32.757690,-97.096740,Chick-Fil-A,76011,Tarrant County
32.729300,-97.115600,Chick-Fil-A,76010,Tarrant County
32.680305,-97.129585,Chick-Fil-A,76015,Tarrant County
32.674857,-97.198927,Chick-Fil-A,76016,Tarrant County
32.670060,-97.134940,Chick-Fil-A,76015,Tarrant County
30.401529,-97.745292,Chick-Fil-A,78759,Travis County
30.401127,-97.744960,Chick-Fil-A,78759,Travis County
30.419060,-97.703320,Chick-Fil-A,78727,Travis County
30.414202,-97.672090,Chick-Fil-A,78753,Travis County
30.469336,-97.791200,Chick-Fil-A,78717,Williamson County
30.166893,-97.792640,Chick-Fil-A,78748,Travis County
30.284766,-97.737267,Chick-Fil-A,78712,Travis County
30.287700,-97.741600,Chick-Fil-A,78705,Travis County
30.257603,-97.806790,Chick-Fil-A,78746,Travis County
30.220375,-97.757110,Chick-Fil-A,78704,Travis County
30.281924,-97.742904,Chick-Fil-A,78705,Travis County
30.233019,-97.824790,Chick-Fil-A,78745,Travis County
29.488840,-98.551140,Chick-Fil-A,78201,Bexar County
30.111904,-97.352173,Chick-Fil-A,78602,Bastrop County
29.780296,-94.977610,Chick-Fil-A,77520,Harris County
29.818906,-94.899815,Chick-Fil-A,77523,Chambers County
30.068220,-94.132547,Chick-Fil-A,77702,Jefferson County
30.118826,-94.167310,Chick-Fil-A,77706,Jefferson County
30.125605,-94.162050,Chick-Fil-A,77708,Jefferson County
30.040600,-94.086754,Chick-Fil-A,77701,Jefferson County
30.319027,-97.952580,Chick-Fil-A,78738,Travis County
31.065324,-97.463268,Chick-Fil-A,76502,Bell County
32.677817,-97.465311,Chick-Fil-A,76132,Tarrant County
25.950803,-97.484548,Chick-Fil-A,78526,Cameron County
25.953905,-97.503075,Chick-Fil-A,78520,Cameron County
25.920787,-97.467086,Chick-Fil-A,78526,Cameron County
25.967918,-97.514110,Chick-Fil-A,78520,Cameron County
30.659700,-96.331000,Chick-Fil-A,77802,Brazos County
32.567060,-97.319900,Chick-Fil-A,76140,Tarrant County
32.521047,-97.348717,Chick-Fil-A,76028,Johnson County
34.982600,-101.917000,Chick-Fil-A,79015,Randall County
32.986176,-96.909320,Chick-Fil-A,75007,Denton County
32.593105,-96.937294,Chick-Fil-A,75104,Dallas County
30.476358,-97.796960,Chick-Fil-A,78717,Williamson County
30.526325,-97.814430,Chick-Fil-A,78613,Williamson County
29.540320,-95.023865,Chick-Fil-A,77565,Galveston County
30.616108,-96.319626,Chick-Fil-A,77840,Brazos County
30.557895,-96.254940,Chick-Fil-A,77845,Brazos County
30.618063,-96.354756,Chick-Fil-A,77801,Brazos County
30.618063,-96.354756,Chick-Fil-A,77801,Brazos County
30.609500,-96.352100,Chick-Fil-A,77840,Brazos County
30.315556,-95.474250,Chick-Fil-A,77301,Montgomery County
30.206495,-95.472223,Chick-Fil-A,77384,Montgomery County
31.264032,-98.085106,Chick-Fil-A,76522,Coryell County
33.130460,-97.042140,Chick-Fil-A,75065,Denton County
27.714483,-97.385550,Chick-Fil-A,78411,Nueces County
27.709830,-97.369374,Chick-Fil-A,78412,Nueces County
27.711136,-97.372640,Chick-Fil-A,78412,Nueces County
27.687180,-97.369827,Chick-Fil-A,78413,Nueces County
27.716700,-97.326900,Chick-Fil-A,78412,Nueces County
33.230301,-97.001846,Chick-Fil-A,76208,Denton County
29.969341,-95.692830,Chick-Fil-A,77429,Harris County
29.991258,-95.747809,Chick-Fil-A,77433,Harris County
29.920542,-95.686392,Chick-Fil-A,77095,Harris County
32.780457,-96.801860,Chick-Fil-A,75270,Dallas County
32.913548,-96.817920,Chick-Fil-A,75244,Dallas County
32.922725,-96.838304,Chick-Fil-A,75244,Dallas County
32.951103,-96.804085,Chick-Fil-A,75254,Dallas County
32.956256,-96.818619,Chick-Fil-A,75254,Dallas County
32.754902,-96.892937,Chick-Fil-A,75211,Dallas County
32.647690,-96.857100,Chick-Fil-A,75237,Dallas County
32.705967,-96.953627,Chick-Fil-A,75236,Dallas County
32.840700,-96.782800,Chick-Fil-A,75205,Dallas County
32.790100,-96.780100,Chick-Fil-A,75246,Dallas County
32.862024,-96.851116,Chick-Fil-A,75220,Dallas County
32.998010,-96.831570,Chick-Fil-A,75287,Denton County
32.876903,-96.753212,Chick-Fil-A,75231,Dallas County
32.844894,-96.787445,Chick-Fil-A,75205,Dallas County
32.858166,-96.769500,Chick-Fil-A,75225,Dallas County
32.842086,-96.847280,Chick-Fil-A,75235,Dallas County
32.841108,-96.848535,Chick-Fil-A,75235,Dallas County
32.868610,-96.773680,Chick-Fil-A,75225,Dallas County
32.911360,-96.737114,Chick-Fil-A,75243,Dallas County
29.388471,-100.905209,Chick-Fil-A,78843,Val Verde County
33.191906,-97.097280,Chick-Fil-A,76205,Denton County
33.229842,-97.163653,Chick-Fil-A,76201,Denton County
33.219500,-97.144400,Chick-Fil-A,76201,Denton County
33.211522,-97.145461,Chick-Fil-A,76201,Denton County
29.468330,-95.086220,Chick-Fil-A,77573,Galveston County
28.699292,-100.484210,Chick-Fil-A,78852,Maverick County
31.737995,-98.961520,Chick-Fil-A,76801,Brown County
26.303238,-98.174409,Chick-Fil-A,78539,Hidalgo County
26.303365,-98.175935,Chick-Fil-A,78539,Hidalgo County
31.898809,-106.441940,Chick-Fil-A,79924,El Paso County
31.808448,-106.251730,Chick-Fil-A,79936,El Paso County
31.784688,-106.395329,Chick-Fil-A,79925,El Paso County
31.757980,-106.271350,Chick-Fil-A,79936,El Paso County
31.777700,-106.504000,Chick-Fil-A,79902,El Paso County
31.815000,-106.544210,Chick-Fil-A,79922,El Paso County
31.838556,-106.566817,Chick-Fil-A,88063,Doa Ana County
31.775497,-106.379500,Chick-Fil-A,79925,El Paso County
32.880417,-97.100426,Chick-Fil-A,76039,Tarrant County
33.071120,-97.058220,Chick-Fil-A,75077,Denton County
33.012768,-97.071526,Chick-Fil-A,75028,Denton County
32.742520,-96.445280,Chick-Fil-A,75126,Kaufman County
32.898392,-97.325363,Chick-Fil-A,76131,Tarrant County
32.740795,-97.437070,Chick-Fil-A,76116,Tarrant County
32.914472,-97.315555,Chick-Fil-A,76244,Tarrant County
32.709660,-97.364763,Chick-Fil-A,76110,Tarrant County
32.728767,-97.388440,Chick-Fil-A,76107,Tarrant County
32.650130,-97.369532,Chick-Fil-A,76133,Tarrant County
32.825899,-97.060696,Chick-Fil-A,76155,Tarrant County
32.880909,-97.391273,Chick-Fil-A,76179,Tarrant County
32.678314,-97.397950,Chick-Fil-A,76109,Tarrant County
32.677433,-97.415630,Chick-Fil-A,76132,Tarrant County
32.753351,-97.354666,Chick-Fil-A,76102,Tarrant County
32.736386,-97.341982,Chick-Fil-A,76104,Tarrant County
29.541958,-95.148320,Chick-Fil-A,77598,Harris County
33.099148,-96.811040,Chick-Fil-A,75024,Collin County
33.175000,-96.842905,Chick-Fil-A,75035,Collin County
33.145413,-96.891176,Chick-Fil-A,75034,Denton County
33.176211,-96.803114,Chick-Fil-A,75035,Collin County
29.311023,-94.778000,Chick-Fil-A,77550,Galveston County
32.965744,-96.643990,Chick-Fil-A,75044,Dallas County
30.632523,-97.697150,Chick-Fil-A,78628,Williamson County
32.434525,-97.775000,Chick-Fil-A,76048,Hood County
32.647470,-97.057870,Chick-Fil-A,76018,Tarrant County
32.677464,-97.007545,Chick-Fil-A,75052,Dallas County
32.927950,-97.085556,Chick-Fil-A,76051,Tarrant County
32.962173,-97.041245,Chick-Fil-A,76051,Tarrant County
33.094673,-96.114940,Chick-Fil-A,75402,Hunt County
31.071857,-97.669180,Chick-Fil-A,76548,Bell County
26.182067,-97.720433,Chick-Fil-A,78550,Cameron County
26.256949,-97.672516,Chick-Fil-A,78550,Cameron County
29.766100,-95.358800,Chick-Fil-A,77201,Harris County
29.628650,-95.232670,Chick-Fil-A,77075,Harris County
29.960260,-95.539120,Chick-Fil-A,77064,Harris County
29.754978,-95.362620,Chick-Fil-A,77010,Harris County
29.922472,-95.602300,Chick-Fil-A,77065,Harris County
29.914852,-95.485927,Chick-Fil-A,77086,Harris County
29.847690,-95.501880,Chick-Fil-A,77092,Harris County
29.754999,-95.625736,Chick-Fil-A,77077,Harris County
29.770111,-95.180565,Chick-Fil-A,77015,Harris County
29.706200,-95.397000,Chick-Fil-A,77030,Harris County
29.914470,-95.410720,Chick-Fil-A,77060,Harris County
29.551260,-95.090070,Chick-Fil-A,77058,Harris County
29.784635,-95.706952,Chick-Fil-A,77094,Harris County
30.002174,-95.582540,Chick-Fil-A,77070,Harris County
29.774408,-95.380674,Chick-Fil-A,77201,Harris County
29.811822,-95.564109,Chick-Fil-A,77043,Harris County
29.735407,-95.589096,Chick-Fil-A,77042,Harris County
29.729750,-95.420880,Chick-Fil-A,77098,Harris County
29.781020,-95.539440,Chick-Fil-A,77080,Harris County
29.705606,-95.425310,Chick-Fil-A,77030,Harris County
29.995631,-95.484226,Chick-Fil-A,77068,Harris County
29.722700,-95.343400,Chick-Fil-A,77021,Harris County
29.869996,-95.328352,Chick-Fil-A,77093,Harris County
30.032222,-95.435319,Chick-Fil-A,77090,Harris County
29.829398,-95.381015,Chick-Fil-A,77022,Harris County
29.720821,-95.338379,Chick-Fil-A,77023,Harris County
29.757892,-95.370349,Chick-Fil-A,77002,Harris County
29.688831,-95.465110,Chick-Fil-A,77401,Harris County
29.731522,-95.461390,Chick-Fil-A,77027,Harris County
29.738905,-95.464100,Chick-Fil-A,77056,Harris County
29.724139,-95.467885,Chick-Fil-A,77401,Harris County
29.810430,-95.162800,Chick-Fil-A,77049,Harris County
29.714090,-95.314415,Chick-Fil-A,77023,Harris County
29.870307,-95.645738,Chick-Fil-A,77095,Harris County
29.698378,-95.398964,Chick-Fil-A,77030,Harris County
29.706900,-95.402600,Chick-Fil-A,77030,Harris County
29.703648,-95.557865,Chick-Fil-A,77036,Harris County
29.703010,-95.643430,Chick-Fil-A,77083,Harris County
29.698378,-95.398964,Chick-Fil-A,77030,Harris County
29.967888,-95.533844,Chick-Fil-A,77069,Harris County
29.675966,-95.508749,Chick-Fil-A,77036,Harris County
29.773389,-95.606880,Chick-Fil-A,77079,Harris County
29.786327,-95.467694,Chick-Fil-A,77055,Harris County
29.901705,-95.633860,Chick-Fil-A,77095,Harris County
29.736948,-95.517660,Chick-Fil-A,77063,Harris County
29.812960,-95.411392,Chick-Fil-A,77008,Harris County
29.915744,-95.555704,Chick-Fil-A,77064,Harris County
32.758438,-97.710678,Chick-Fil-A,76085,Parker County
29.999996,-95.162125,Chick-Fil-A,77346,Harris County
30.001842,-95.269918,Chick-Fil-A,77338,Harris County
30.009336,-95.270380,Chick-Fil-A,77338,Harris County
29.935400,-95.248200,Chick-Fil-A,77396,Harris County
30.715400,-95.547800,Chick-Fil-A,77320,Walker County
32.830080,-97.199920,Chick-Fil-A,76180,Tarrant County
32.823215,-97.203370,Chick-Fil-A,76180,Tarrant County
32.865166,-97.175400,Chick-Fil-A,76054,Tarrant County
32.857404,-97.184067,Chick-Fil-A,76054,Tarrant County
32.844616,-96.992910,Chick-Fil-A,75061,Dallas County
32.882480,-96.963570,Chick-Fil-A,75039,Dallas County
32.913620,-96.958020,Chick-Fil-A,75063,Dallas County
29.890307,-95.583599,Chick-Fil-A,77041,Harris County
29.735561,-95.777970,Chick-Fil-A,77450,Harris County
29.733252,-95.800131,Chick-Fil-A,77494,Fort Bend County
29.801360,-95.775050,Chick-Fil-A,77449,Harris County
29.780607,-95.751250,Chick-Fil-A,77450,Harris County
32.934280,-97.233108,Chick-Fil-A,76248,Tarrant County
30.058764,-99.163822,Chick-Fil-A,78028,Kerr County
31.093239,-97.729006,Chick-Fil-A,76541,Bell County
27.522592,-97.855472,Chick-Fil-A,78363,Kleberg County
30.069240,-95.244890,Chick-Fil-A,77339,Harris County
30.050844,-95.180695,Chick-Fil-A,77345,Harris County
30.012950,-97.861710,Chick-Fil-A,78640,Hays County
29.664148,-95.096884,Chick-Fil-A,77505,Harris County
29.046750,-95.457370,Chick-Fil-A,77566,Brazoria County
32.812050,-97.430504,Chick-Fil-A,76127,Tarrant County
27.516026,-99.449620,Chick-Fil-A,78040,Webb County
27.609621,-99.476800,Chick-Fil-A,78040,Webb County
27.544100,-99.483500,Chick-Fil-A,78040,Webb County
27.575443,-99.435018,Chick-Fil-A,78040,Webb County
27.551790,-99.500380,Chick-Fil-A,78040,Webb County
29.507640,-95.038190,Chick-Fil-A,77565,Galveston County
33.005240,-96.977750,Chick-Fil-A,75067,Denton County
33.046818,-97.010740,Chick-Fil-A,75057,Denton County
32.524800,-94.781000,Chick-Fil-A,75604,Gregg County
32.539160,-94.751180,Chick-Fil-A,75601,Gregg County
32.540836,-94.730225,Chick-Fil-A,75601,Gregg County
33.582000,-101.882000,Chick-Fil-A,79410,Lubbock County
33.593547,-101.870542,Chick-Fil-A,79401,Lubbock County
33.566217,-101.944526,Chick-Fil-A,79414,Lubbock County
33.581921,-101.888580,Chick-Fil-A,79410,Lubbock County
33.578000,-101.893000,Chick-Fil-A,79410,Lubbock County
33.539227,-101.925056,Chick-Fil-A,79414,Lubbock County
33.519783,-101.954747,Chick-Fil-A,79414,Lubbock County
33.531605,-101.923004,Chick-Fil-A,79414,Lubbock County
33.518800,-101.861683,Chick-Fil-A,79412,Lubbock County
31.311570,-94.725430,Chick-Fil-A,75901,Angelina County
31.310417,-94.724365,Chick-Fil-A,75901,Angelina County
30.221462,-95.565870,Chick-Fil-A,77382,Montgomery County
32.577458,-97.080100,Chick-Fil-A,75054,Tarrant County
32.574620,-97.084990,Chick-Fil-A,76063,Tarrant County
32.576035,-97.132410,Chick-Fil-A,76063,Tarrant County
30.591739,-98.272513,Chick-Fil-A,78654,Burnet County
26.190477,-98.207570,Chick-Fil-A,78577,Hidalgo County
26.187940,-98.233320,Chick-Fil-A,78577,Hidalgo County
26.269382,-98.218216,Chick-Fil-A,78504,Hidalgo County
33.216180,-96.638306,Chick-Fil-A,75069,Collin County
33.174209,-96.697394,Chick-Fil-A,75070,Collin County
33.127632,-96.728590,Chick-Fil-A,75025,Collin County
32.810364,-96.619890,Chick-Fil-A,75150,Dallas County
32.807667,-96.623940,Chick-Fil-A,75150,Dallas County
31.994297,-102.099295,Chick-Fil-A,79701,Midland County
32.027900,-102.147230,Chick-Fil-A,79707,Midland County
32.030655,-102.131030,Chick-Fil-A,79703,Midland County
26.196184,-98.283066,Chick-Fil-A,78501,Hidalgo County
29.564600,-95.564400,Chick-Fil-A,77459,Fort Bend County
29.537566,-95.529604,Chick-Fil-A,77459,Fort Bend County
33.012817,-96.606510,Chick-Fil-A,75094,Collin County
31.622816,-94.652410,Chick-Fil-A,75965,Nacogdoches County
31.618900,-94.649700,Chick-Fil-A,75965,Nacogdoches County
29.684542,-98.124990,Chick-Fil-A,78130,Comal County
29.715770,-98.159398,Chick-Fil-A,78130,Comal County
32.842400,-97.239270,Chick-Fil-A,76180,Tarrant County
32.903691,-97.187644,Chick-Fil-A,76182,Tarrant County
31.868310,-102.379220,Chick-Fil-A,79761,Ector County
31.890608,-102.349434,Chick-Fil-A,79762,Ector County
26.258113,-98.317060,Chick-Fil-A,78573,Hidalgo County
29.664450,-95.187260,Chick-Fil-A,77504,Harris County
29.649147,-95.164764,Chick-Fil-A,77505,Harris County
29.556498,-95.377150,Chick-Fil-A,77584,Brazoria County
29.579162,-95.399767,Chick-Fil-A,77047,Harris County
29.546203,-95.229453,Chick-Fil-A,77546,Galveston County
29.558506,-95.260705,Chick-Fil-A,77581,Brazoria County
29.542594,-95.389586,Chick-Fil-A,77584,Brazoria County
30.466246,-97.596370,Chick-Fil-A,78660,Travis County
26.199280,-98.343399,Chick-Fil-A,78572,Hidalgo County
33.025890,-96.796135,Chick-Fil-A,75093,Collin County
33.008667,-96.709590,Chick-Fil-A,75075,Collin County
33.030846,-96.832410,Chick-Fil-A,75093,Collin County
33.057854,-96.769770,Chick-Fil-A,75023,Collin County
33.029007,-96.835910,Chick-Fil-A,75093,Collin County
33.076624,-96.851067,Chick-Fil-A,75024,Collin County
33.013320,-96.713930,Chick-Fil-A,75075,Collin County
33.096073,-96.804450,Chick-Fil-A,75024,Collin County
29.945950,-93.995250,Chick-Fil-A,77627,Jefferson County
30.090240,-95.990970,Chick-Fil-A,77484,Waller County
33.247745,-96.785168,Chick-Fil-A,75078,Collin County
32.531345,-96.819905,Chick-Fil-A,75154,Ellis County
32.997104,-96.699287,Chick-Fil-A,75082,Collin County
32.958200,-96.731400,Chick-Fil-A,75081,Dallas County
32.940270,-96.699300,Chick-Fil-A,75081,Dallas County
29.691918,-95.771382,Chick-Fil-A,77407,Fort Bend County
33.014209,-97.219754,Chick-Fil-A,76262,Denton County
32.894356,-96.470450,Chick-Fil-A,75087,Rockwall County
29.543938,-95.756400,Chick-Fil-A,77469,Fort Bend County
30.481500,-97.671860,Chick-Fil-A,78664,Williamson County
30.559656,-97.685040,Chick-Fil-A,78665,Williamson County
32.908180,-96.575134,Chick-Fil-A,75088,Dallas County
31.430760,-100.455350,Chick-Fil-A,76908,Tom Green County
31.458900,-100.477000,Chick-Fil-A,76903,Tom Green County
31.448620,-100.519447,Chick-Fil-A,76903,Tom Green County
31.427774,-100.499210,Chick-Fil-A,76903,Tom Green County
31.427418,-100.511720,Chick-Fil-A,76903,Tom Green County
29.451689,-98.562897,Chick-Fil-A,78228,Bexar County
29.582660,-98.619910,Chick-Fil-A,78249,Bexar County
29.554984,-98.533986,Chick-Fil-A,78231,Bexar County
29.435692,-98.700070,Chick-Fil-A,78245,Bexar County
29.550495,-98.662980,Chick-Fil-A,78249,Bexar County
29.490820,-98.439270,Chick-Fil-A,78209,Bexar County
29.610420,-98.469955,Chick-Fil-A,78232,Bexar County
29.592203,-98.615770,Chick-Fil-A,78249,Bexar County
29.613780,-98.603836,Chick-Fil-A,78256,Bexar County
29.610611,-98.507890,Chick-Fil-A,78248,Bexar County
29.638565,-98.456482,Chick-Fil-A,78259,Bexar County
29.355974,-98.531082,Chick-Fil-A,78225,Bexar County
29.356622,-98.538618,Chick-Fil-A,78225,Bexar County
29.521215,-98.493070,Chick-Fil-A,78216,Bexar County
29.351177,-98.434050,Chick-Fil-A,78235,Bexar County
29.379162,-98.461045,Chick-Fil-A,78210,Bexar County
29.467000,-98.467100,Chick-Fil-A,78212,Bexar County
29.510303,-98.577960,Chick-Fil-A,78229,Bexar County
29.565664,-98.585550,Chick-Fil-A,78249,Bexar County
29.492900,-98.707130,Chick-Fil-A,78250,Bexar County
29.525539,-98.599403,Chick-Fil-A,78240,Bexar County
29.470180,-98.621550,Chick-Fil-A,78238,Bexar County
29.466372,-98.621506,Chick-Fil-A,78238,Bexar County
29.597061,-98.350330,Chick-Fil-A,78233,Bexar County
29.485683,-98.347240,Chick-Fil-A,78244,Bexar County
29.518473,-98.495790,Chick-Fil-A,78216,Bexar County
29.418169,-98.651737,Chick-Fil-A,78227,Bexar County
29.531500,-98.576900,Chick-Fil-A,78230,Bexar County
29.890100,-97.944400,Chick-Fil-A,78666,Hays County
29.855371,-97.953790,Chick-Fil-A,78666,Hays County
29.599688,-98.276659,Chick-Fil-A,78154,Guadalupe County
29.576004,-98.322180,Chick-Fil-A,78148,Bexar County
33.676500,-96.610330,Chick-Fil-A,75020,Grayson County
32.940100,-97.115700,Chick-Fil-A,76092,Tarrant County
30.064981,-95.433270,Chick-Fil-A,77388,Harris County
30.082950,-95.452040,Chick-Fil-A,77388,Harris County
30.102150,-95.446030,Chick-Fil-A,77380,Montgomery County
30.115420,-95.381540,Chick-Fil-A,77386,Montgomery County
30.073574,-95.509920,Chick-Fil-A,77379,Harris County
30.035661,-95.553070,Chick-Fil-A,77379,Harris County
35.778288,-86.914874,Chick-Fil-A,37179,Williamson County
29.644436,-95.575000,Chick-Fil-A,77477,Fort Bend County
32.213000,-98.221000,Chick-Fil-A,76446,Erath County
29.591595,-95.625340,Chick-Fil-A,77478,Fort Bend County
29.563063,-95.686905,Chick-Fil-A,77479,Fort Bend County
29.596224,-95.618340,Chick-Fil-A,77478,Fort Bend County
31.102300,-97.356600,Chick-Fil-A,76504,Bell County
31.068558,-97.370520,Chick-Fil-A,76502,Bell County
33.455820,-94.080414,Chick-Fil-A,75569,Bowie County
33.458775,-94.089510,Chick-Fil-A,75569,Bowie County
33.066998,-96.890410,Chick-Fil-A,75056,Denton County
30.164320,-95.455450,Chick-Fil-A,77380,Montgomery County
30.167190,-95.460050,Chick-Fil-A,77380,Montgomery County
30.209438,-95.528950,Chick-Fil-A,77382,Montgomery County
30.157520,-95.455776,Chick-Fil-A,77380,Montgomery County
30.089937,-95.639760,Chick-Fil-A,77375,Harris County
32.308000,-95.271650,Chick-Fil-A,75701,Smith County
32.313220,-95.250370,Chick-Fil-A,75701,Smith County
32.299430,-95.302960,Chick-Fil-A,75701,Smith County
32.286224,-95.303540,Chick-Fil-A,75701,Smith County
28.852257,-96.996780,Chick-Fil-A,77901,Victoria County
28.867592,-96.994545,Chick-Fil-A,77904,Victoria County
31.546900,-97.120400,Chick-Fil-A,76701,McLennan County
31.523100,-97.167300,Chick-Fil-A,76711,McLennan County
31.516400,-97.189000,Chick-Fil-A,76710,McLennan County
31.548128,-97.125977,Chick-Fil-A,76701,McLennan County
32.891308,-97.258670,Chick-Fil-A,76148,Tarrant County
32.420647,-96.838890,Chick-Fil-A,75165,Ellis County
32.728035,-97.787950,Chick-Fil-A,76087,Parker County
29.524794,-95.127037,Chick-Fil-A,77598,Harris County
30.291864,-97.827390,Chick-Fil-A,78746,Travis County
26.171177,-98.006927,Chick-Fil-A,78596,Hidalgo County
32.755875,-97.428570,Chick-Fil-A,76127,Tarrant County
33.871270,-98.539415,Chick-Fil-A,76308,Wichita County
30.419377,-95.492954,Chick-Fil-A,77318,Montgomery County
33.010300,-96.543270,Chick-Fil-A,75098,Collin County
40.381016,-111.814260,Chick-Fil-A,84003,Utah County
40.924799,-111.890430,Chick-Fil-A,84025,Davis County
40.526784,-111.880169,Chick-Fil-A,84020,Salt Lake County
40.986641,-111.909050,Chick-Fil-A,84037,Davis County
41.077510,-111.973520,Chick-Fil-A,84041,Davis County
41.089172,-111.977845,Chick-Fil-A,84056,Davis County
40.431060,-111.886651,Chick-Fil-A,84043,Utah County
41.755692,-111.834423,Chick-Fil-A,84341,Cache County
40.624205,-111.860797,Chick-Fil-A,84047,Salt Lake County
40.658982,-111.888017,Chick-Fil-A,84107,Salt Lake County
40.636198,-111.889191,Chick-Fil-A,84107,Salt Lake County
41.245502,-111.969855,Chick-Fil-A,84401,Weber County
40.299391,-111.696065,Chick-Fil-A,84058,Utah County
40.275368,-111.680260,Chick-Fil-A,84097,Utah County
40.283806,-111.693726,Chick-Fil-A,84058,Utah County
40.250672,-111.666481,Chick-Fil-A,84606,Utah County
40.256730,-111.646731,Chick-Fil-A,84606,Utah County
41.190502,-111.982040,Chick-Fil-A,84401,Weber County
37.106713,-113.555226,Chick-Fil-A,84765,Washington County
40.725392,-111.856606,Chick-Fil-A,84105,Salt Lake County
40.768673,-111.888244,Chick-Fil-A,84180,Salt Lake County
40.701040,-112.025536,Chick-Fil-A,84128,Salt Lake County
40.567856,-111.891396,Chick-Fil-A,84070,Salt Lake County
40.542427,-111.983610,Chick-Fil-A,84095,Salt Lake County
40.086941,-111.593086,Chick-Fil-A,84664,Utah County
40.649619,-111.938929,Chick-Fil-A,84123,Salt Lake County
40.611702,-111.980740,Chick-Fil-A,84084,Salt Lake County
38.816273,-77.131676,Chick-Fil-A,22304,Alexandria city
38.854385,-77.049438,Chick-Fil-A,22202,Arlington County
38.878480,-77.110030,Chick-Fil-A,22203,Arlington County
39.041584,-77.485154,Chick-Fil-A,20147,Loudoun County
37.758214,-77.464345,Chick-Fil-A,23005,Hanover County
37.229400,-80.414100,Chick-Fil-A,24060,Montgomery County
36.636543,-82.116863,Chick-Fil-A,24201,Bristol city
36.598780,-82.219310,Chick-Fil-A,24201,Bristol city
38.914921,-77.424858,Chick-Fil-A,20151,Fairfax County
38.885970,-77.443760,Chick-Fil-A,20151,Fairfax County
38.922466,-77.504593,Chick-Fil-A,20152,Loudoun County
38.886547,-77.444880,Chick-Fil-A,20151,Fairfax County
38.077040,-78.475030,Chick-Fil-A,22904,Albemarle County
38.029167,-78.440346,Chick-Fil-A,22902,Charlottesville city
38.088562,-78.471020,Chick-Fil-A,22911,Albemarle County
38.033900,-78.518200,Chick-Fil-A,22904,Albemarle County
36.779774,-76.227200,Chick-Fil-A,23320,Chesapeake city
36.769615,-76.251510,Chick-Fil-A,23324,Chesapeake city
36.658703,-76.232086,Chick-Fil-A,23322,Chesapeake city
36.827377,-76.413830,Chick-Fil-A,23321,Chesapeake city
36.823500,-76.415490,Chick-Fil-A,23321,Chesapeake city
36.723490,-76.308232,Chick-Fil-A,23323,Chesapeake city
37.356450,-77.418260,Chick-Fil-A,23831,Chesterfield County
37.403866,-77.671121,Chick-Fil-A,23112,Chesterfield County
37.507957,-77.608734,Chick-Fil-A,23236,Chesterfield County
37.159023,-80.421844,Chick-Fil-A,24073,Montgomery County
37.253670,-77.393200,Chick-Fil-A,23834,Colonial Heights city
37.246036,-77.389646,Chick-Fil-A,23801,Prince George County
38.484850,-77.968640,Chick-Fil-A,22714,Culpeper County
36.593800,-79.421600,Chick-Fil-A,24540,Danville city
36.581867,-79.428940,Chick-Fil-A,24540,Danville city
39.031180,-77.423930,Chick-Fil-A,20164,Loudoun County
38.582183,-77.329223,Chick-Fil-A,22025,Prince William County
38.861954,-77.359960,Chick-Fil-A,22035,Fairfax County
38.829200,-77.307300,Chick-Fil-A,22032,Fairfax County
38.862794,-77.387481,Chick-Fil-A,22033,Fairfax County
38.864470,-77.273710,Chick-Fil-A,22031,Fairfax County
38.867853,-77.144209,Chick-Fil-A,22044,Fairfax County
37.300299,-78.392287,Chick-Fil-A,23901,Prince Edward County
38.359497,-77.517690,Chick-Fil-A,22406,Stafford County
38.304665,-77.509630,Chick-Fil-A,22401,Fredericksburg city
38.288647,-77.533010,Chick-Fil-A,22401,Fredericksburg city
38.292332,-77.517609,Chick-Fil-A,22401,Fredericksburg city
38.234130,-77.503570,Chick-Fil-A,22401,Fredericksburg city
38.791496,-77.608090,Chick-Fil-A,20155,Prince William County
37.675694,-77.461640,Chick-Fil-A,23059,Henrico County
37.400363,-76.526189,Chick-Fil-A,23128,Mathews County
37.037773,-76.403145,Chick-Fil-A,23666,Hampton city
37.048534,-76.390680,Chick-Fil-A,23666,Hampton city
37.022100,-76.337700,Chick-Fil-A,23663,Hampton city
38.433117,-78.845850,Chick-Fil-A,22801,Harrisonburg city
38.434000,-78.870700,Chick-Fil-A,22801,Harrisonburg city
38.815517,-77.641350,Chick-Fil-A,20155,Prince William County
37.656307,-77.620100,Chick-Fil-A,23233,Henrico County
37.647254,-77.614894,Chick-Fil-A,23233,Henrico County
39.114050,-77.535148,Chick-Fil-A,20175,Loudoun County
37.357570,-79.172660,Chick-Fil-A,24502,Lynchburg city
37.368800,-79.180100,Chick-Fil-A,24502,Lynchburg city
37.364800,-79.178500,Chick-Fil-A,24502,Lynchburg city
37.348600,-79.185400,Chick-Fil-A,24502,Lynchburg city
38.786590,-77.515930,Chick-Fil-A,20109,Prince William County
38.751570,-77.450030,Chick-Fil-A,20111,Prince William County
38.738007,-77.533810,Chick-Fil-A,20136,Prince William County
36.696335,-79.874099,Chick-Fil-A,24112,Henry County
37.607796,-77.354950,Chick-Fil-A,23111,Hanover County
37.429577,-77.623215,Chick-Fil-A,23832,Chesterfield County
37.509112,-77.669910,Chick-Fil-A,23114,Chesterfield County
37.065700,-76.493500,Chick-Fil-A,23606,Newport News city
37.107853,-76.495240,Chick-Fil-A,23602,Newport News city
37.112385,-76.495370,Chick-Fil-A,23602,Newport News city
37.069690,-76.493576,Chick-Fil-A,23606,Newport News city
36.886500,-76.307700,Chick-Fil-A,23508,Norfolk city
36.863613,-76.211136,Chick-Fil-A,23502,Norfolk city
36.863580,-76.285370,Chick-Fil-A,23517,Norfolk city
36.847900,-76.265900,Chick-Fil-A,23504,Norfolk city
36.831049,-76.340401,Chick-Fil-A,23707,Portsmouth city
39.137283,-77.693471,Chick-Fil-A,20158,Loudoun County
37.136485,-80.556949,Chick-Fil-A,24141,Radford city
38.954617,-77.366540,Chick-Fil-A,20190,Fairfax County
38.978640,-77.348820,Chick-Fil-A,20194,Fairfax County
37.601097,-77.567460,Chick-Fil-A,23229,Henrico County
37.604767,-77.564026,Chick-Fil-A,23229,Henrico County
37.512287,-77.610780,Chick-Fil-A,23235,Chesterfield County
37.582837,-77.498756,Chick-Fil-A,23230,Henrico County
37.540900,-77.429700,Chick-Fil-A,23219,Richmond city
37.527280,-77.355650,Chick-Fil-A,23250,Henrico County
37.537060,-77.526870,Chick-Fil-A,23225,Richmond city
37.551500,-77.451700,Chick-Fil-A,23220,Richmond city
37.637050,-77.550125,Chick-Fil-A,23294,Henrico County
37.311352,-79.886093,Chick-Fil-A,24012,Roanoke city
37.226820,-79.968550,Chick-Fil-A,24015,Roanoke city
37.230700,-79.978200,Chick-Fil-A,24015,Roanoke city
37.303900,-79.963800,Chick-Fil-A,24017,Roanoke city
37.302975,-79.959580,Chick-Fil-A,24017,Roanoke city
37.289742,-80.079022,Chick-Fil-A,24153,Salem city
38.773333,-77.183831,Chick-Fil-A,22150,Fairfax County
38.475870,-77.422295,Chick-Fil-A,22556,Stafford County
38.162720,-79.101160,Chick-Fil-A,24401,Staunton city
39.008259,-77.439819,Chick-Fil-A,20166,Loudoun County
39.024890,-77.425780,Chick-Fil-A,20164,Loudoun County
39.016050,-77.376170,Chick-Fil-A,20164,Loudoun County
36.743652,-76.582886,Chick-Fil-A,23434,Suffolk city
36.879156,-76.423978,Chick-Fil-A,23703,Portsmouth city
37.512821,-78.697945,Chick-Fil-A,23921,Buckingham County
38.925393,-77.238464,Chick-Fil-A,22102,Fairfax County
36.875530,-76.135420,Chick-Fil-A,23455,Virginia Beach city
36.788036,-75.997580,Chick-Fil-A,23454,Virginia Beach city
36.792168,-76.120900,Chick-Fil-A,23453,Virginia Beach city
36.842907,-76.126270,Chick-Fil-A,23462,Virginia Beach city
36.844250,-76.141330,Chick-Fil-A,23462,Virginia Beach city
36.798820,-76.178955,Chick-Fil-A,23464,Virginia Beach city
36.814860,-76.072620,Chick-Fil-A,23460,Virginia Beach city
36.852196,-76.023150,Chick-Fil-A,23451,Virginia Beach city
36.811720,-76.071590,Chick-Fil-A,23453,Virginia Beach city
38.728054,-77.799220,Chick-Fil-A,20186,Fauquier County
38.058365,-78.944356,Chick-Fil-A,22939,Augusta County
37.270657,-76.759210,Chick-Fil-A,23188,James City County
37.341084,-76.738440,Chick-Fil-A,23188,James City County
39.222880,-78.131520,Chick-Fil-A,22656,Frederick County
39.160088,-78.163830,Chick-Fil-A,22601,Winchester city
39.159367,-78.170074,Chick-Fil-A,22601,Winchester city
36.970154,-82.560517,Chick-Fil-A,24273,Norton city
38.653080,-77.286750,Chick-Fil-A,22191,Prince William County
38.672069,-77.334580,Chick-Fil-A,22192,Prince William County
37.115700,-76.465980,Chick-Fil-A,23693,York County
47.617059,-122.185732,Chick-Fil-A,98005,King County
47.791225,-122.217904,Chick-Fil-A,98021,Snohomish County
47.314890,-122.313436,Chick-Fil-A,98003,King County
47.166930,-122.509850,Chick-Fil-A,98499,Pierce County
47.824188,-122.315796,Chick-Fil-A,98026,Snohomish County
47.154540,-122.293730,Chick-Fil-A,98373,Pierce County
47.221733,-122.468577,Chick-Fil-A,98409,Pierce County
45.615503,-122.504109,Chick-Fil-A,98683,Clark County
43.088926,-88.069717,Chick-Fil-A,53007,Waukesha County
42.947655,-88.008697,Chick-Fil-A,53129,Milwaukee County
43.125753,-89.312103,Chick-Fil-A,53714,Dane County
43.058063,-89.503392,Chick-Fil-A,53717,Dane County
42.717800,-87.886398,Chick-Fil-A,53406,Racine County
42.880375,-87.900749,Chick-Fil-A,53154,Milwaukee County
42.697443,-87.850456,Chick-Fil-A,53403,Racine County
42.996387,-88.047456,Chick-Fil-A,53227,Milwaukee County
38.421500,-82.259900,Chick-Fil-A,25504,Cabell County
38.387250,-82.289401,Chick-Fil-A,25504,Cabell County
37.802060,-81.180470,Chick-Fil-A,25801,Raleigh County
37.293454,-81.165657,Chick-Fil-A,24701,Mercer County
39.311848,-80.272930,Chick-Fil-A,26404,Harrison County
38.322523,-81.714404,Chick-Fil-A,25309,Kanawha County
38.354000,-81.638000,Chick-Fil-A,25301,Kanawha County
39.272980,-80.285180,Chick-Fil-A,26408,Harrison County
39.481950,-80.159280,Chick-Fil-A,26554,Marion County
38.422500,-82.431700,Chick-Fil-A,25703,Cabell County
39.443930,-77.987656,Chick-Fil-A,25401,Berkeley County
39.633955,-79.954968,Chick-Fil-A,26505,Monongalia County
39.650700,-79.971800,Chick-Fil-A,26505,Monongalia County
39.627220,-79.996670,Chick-Fil-A,26501,Monongalia County
37.846500,-81.197900,Chick-Fil-A,25801,Raleigh County
37.362604,-81.058534,Chick-Fil-A,24740,Mercer County
39.320225,-77.850770,Chick-Fil-A,25438,Jefferson County
39.300137,-81.552826,Chick-Fil-A,26105,Wood County
39.299090,-81.547590,Chick-Fil-A,26105,Wood County
41.161470,-104.805310,Chick-Fil-A,82001,Laramie County
41.636169,-104.653229,Chick-Fil-A,82210,Platte County
33.272990,-84.292930,Chick-Fil-A,30223,Spalding County
33.463043,-84.214615,Chick-Fil-A,30253,Henry County
33.562572,-84.323140,Chick-Fil-A,30260,Clayton County
33.446053,-84.467148,Chick-Fil-A,30214,Fayette County
33.466141,-84.450439,Chick-Fil-A,30214,Fayette County
