latitude,longitude,name,zipcode,county
32.606508,-85.487204,Chipotle,36832,Lee County
33.509490,-86.802879,Chipotle,35233,Jefferson County
33.520279,-86.811508,Chipotle,35203,Jefferson County
33.482700,-86.823400,Chipotle,35205,Jefferson County
34.740977,-86.665709,Chipotle,35806,Madison County
30.675318,-88.143700,Chipotle,36609,Mobile County
30.681403,-88.223811,Chipotle,36609,Mobile County
32.360360,-86.162914,Chipotle,36117,Montgomery County
32.615679,-85.407409,Chipotle,36801,Lee County
32.460110,-86.391980,Chipotle,36066,Autauga County
33.595530,-86.647300,Chipotle,35235,Jefferson County
33.210856,-87.553479,Chipotle,35476,Tuscaloosa County
33.194370,-87.526314,Chipotle,35404,Tuscaloosa County
33.438984,-86.788742,Chipotle,35216,Jefferson County
36.334733,-94.185127,Chipotle,72718,Benton County
35.090446,-92.417587,Chipotle,72032,Faulkner County
36.112718,-94.145113,Chipotle,72703,Washington County
36.067408,-94.165980,Chipotle,72703,Washington County
34.751961,-92.341797,Chipotle,72205,Pulaski County
34.794188,-92.400367,Chipotle,72212,Pulaski County
33.464700,-112.273000,Chipotle,85037,Maricopa County
33.438104,-112.556597,Chipotle,85395,Maricopa County
32.879177,-111.711030,Chipotle,85122,Pinal County
33.305597,-111.900063,Chipotle,85224,Maricopa County
33.263520,-111.858430,Chipotle,85286,Maricopa County
33.317710,-111.968490,Chipotle,85284,Maricopa County
35.189813,-111.661762,Chipotle,86001,Coconino County
33.306802,-111.745921,Chipotle,85295,Maricopa County
33.328440,-111.789970,Chipotle,85225,Maricopa County
33.377660,-111.807300,Chipotle,85204,Maricopa County
33.279710,-111.789630,Chipotle,85297,Maricopa County
33.325320,-111.687090,Chipotle,85296,Maricopa County
33.665664,-112.203097,Chipotle,85308,Maricopa County
33.534942,-112.261331,Chipotle,85305,Maricopa County
33.553006,-112.185030,Chipotle,85302,Maricopa County
33.610780,-112.185390,Chipotle,85306,Maricopa County
33.463880,-112.358250,Chipotle,85392,Maricopa County
35.223355,-114.036116,Chipotle,86413,Mohave County
34.472787,-114.342782,Chipotle,86403,Mohave County
33.377650,-112.169526,Chipotle,85041,Maricopa County
32.355091,-111.091918,Chipotle,85741,Pima County
33.074572,-112.042935,Chipotle,85121,Pinal County
33.390296,-111.857132,Chipotle,85210,Maricopa County
33.380287,-111.601490,Chipotle,85208,Maricopa County
33.467572,-111.683873,Chipotle,85215,Maricopa County
33.379176,-111.757200,Chipotle,85234,Maricopa County
33.384600,-111.691120,Chipotle,85206,Maricopa County
32.398747,-110.955734,Chipotle,85737,Pima County
33.636950,-112.233550,Chipotle,85382,Maricopa County
33.710856,-112.270264,Chipotle,85373,Maricopa County
33.638233,-111.977112,Chipotle,85032,Maricopa County
33.668934,-111.973991,Chipotle,85054,Maricopa County
33.666702,-112.123306,Chipotle,85027,Maricopa County
33.599094,-111.981389,Chipotle,85028,Maricopa County
33.480199,-112.219901,Chipotle,85033,Maricopa County
33.510739,-112.072473,Chipotle,85012,Maricopa County
33.448252,-112.074010,Chipotle,85004,Maricopa County
33.465339,-112.082630,Chipotle,85003,Maricopa County
33.509270,-112.046240,Chipotle,85014,Maricopa County
33.377564,-112.029816,Chipotle,85042,Maricopa County
33.713052,-112.111734,Chipotle,85027,Maricopa County
33.581770,-112.124400,Chipotle,85029,Maricopa County
33.495202,-112.014368,Chipotle,85016,Maricopa County
33.304794,-111.993612,Chipotle,85048,Maricopa County
33.640062,-112.068900,Chipotle,85023,Maricopa County
33.480190,-111.987200,Chipotle,85008,Maricopa County
34.578669,-112.362454,Chipotle,86314,Yavapai County
34.546431,-112.469957,Chipotle,86303,Yavapai County
33.254677,-111.634762,Chipotle,85142,Maricopa County
33.586105,-111.925140,Chipotle,85260,Maricopa County
33.680608,-111.925411,Chipotle,85054,Maricopa County
33.479282,-111.926097,Chipotle,85251,Maricopa County
33.502365,-111.928825,Chipotle,85251,Maricopa County
33.538423,-111.886290,Chipotle,85250,Maricopa County
33.622480,-111.874240,Chipotle,85260,Maricopa County
33.626150,-111.925450,Chipotle,85254,Maricopa County
33.502220,-111.926096,Chipotle,85251,Maricopa County
33.557270,-111.898670,Chipotle,85258,Maricopa County
33.582420,-111.880470,Chipotle,85258,Maricopa County
34.868359,-111.762016,Chipotle,86351,Yavapai County
31.558371,-110.257211,Chipotle,85635,Cochise County
33.638550,-112.358650,Chipotle,85375,Maricopa County
33.349339,-111.901683,Chipotle,85284,Maricopa County
33.418402,-111.939799,Chipotle,85282,Maricopa County
33.429380,-111.900430,Chipotle,85281,Maricopa County
33.378146,-111.929631,Chipotle,85283,Maricopa County
32.288954,-110.978135,Chipotle,85705,Pima County
32.250415,-110.851959,Chipotle,85715,Pima County
32.286460,-110.976140,Chipotle,85705,Pima County
32.262170,-110.943850,Chipotle,85719,Pima County
32.250540,-110.891060,Chipotle,85712,Pima County
32.221377,-110.867358,Chipotle,85711,Pima County
32.337098,-110.979315,Chipotle,85704,Pima County
32.344780,-111.012810,Chipotle,85704,Pima County
32.231700,-110.957870,Chipotle,85701,Pima County
32.205810,-110.790337,Chipotle,85710,Pima County
32.699873,-114.603101,Chipotle,85364,Yuma County
49.228287,-122.999413,Chipotle,98281,Whatcom County
49.113136,-122.671565,Chipotle,98240,Whatcom County
49.190600,-122.801145,Chipotle,98281,Whatcom County
49.262906,-123.116145,Chipotle,98281,Whatcom County
49.281650,-123.121071,Chipotle,98281,Whatcom County
49.327480,-123.137670,Chipotle,98281,Whatcom County
37.786967,-122.281447,Chipotle,94501,Alameda County
37.771995,-122.263564,Chipotle,94501,Alameda County
34.091729,-118.145509,Chipotle,91803,Los Angeles County
33.839432,-117.888679,Chipotle,92806,Orange County
33.859923,-117.792908,Chipotle,92807,Orange County
33.819653,-117.941437,Chipotle,92802,Orange County
33.867470,-117.746830,Chipotle,92808,Orange County
34.470943,-117.244583,Chipotle,92395,San Bernardino County
34.135364,-118.054197,Chipotle,91007,Los Angeles County
35.120600,-120.602630,Chipotle,93433,San Luis Obispo County
38.941223,-121.096115,Chipotle,95603,Placer County
34.128888,-117.891539,Chipotle,91722,Los Angeles County
35.392602,-118.967645,Chipotle,93305,Kern County
35.339335,-119.033574,Chipotle,93304,Kern County
35.351535,-119.119363,Chipotle,93309,Kern County
35.401150,-119.091637,Chipotle,93312,Kern County
35.354300,-119.056520,Chipotle,93309,Kern County
35.306500,-119.092314,Chipotle,93309,Kern County
34.013459,-118.335114,Chipotle,90008,Los Angeles County
33.923530,-116.946400,Chipotle,92223,Riverside County
34.853341,-117.083131,Chipotle,92311,San Bernardino County
33.970753,-118.164711,Chipotle,90201,Los Angeles County
37.868850,-122.267490,Chipotle,94703,Alameda County
37.880277,-122.297090,Chipotle,94706,Alameda County
37.868637,-122.259718,Chipotle,94704,Alameda County
34.071340,-118.403347,Chipotle,90212,Los Angeles County
34.063750,-118.399060,Chipotle,90212,Los Angeles County
33.913286,-117.886094,Chipotle,92821,Orange County
33.911841,-117.880250,Chipotle,92821,Orange County
37.961626,-121.750419,Chipotle,94531,Contra Costa County
34.611474,-120.188337,Chipotle,93427,Santa Barbara County
33.858732,-118.029214,Chipotle,90623,Orange County
34.181570,-118.311610,Chipotle,91502,Los Angeles County
34.151858,-118.343370,Chipotle,91608,Los Angeles County
34.139489,-118.708316,Chipotle,91302,Los Angeles County
34.221779,-119.120018,Chipotle,93010,Ventura County
37.290837,-121.932560,Chipotle,95008,Santa Clara County
34.190391,-118.605891,Chipotle,91303,Los Angeles County
36.977848,-121.966938,Chipotle,95010,Santa Cruz County
33.119770,-117.287529,Chipotle,92011,San Diego County
32.932869,-117.248322,Chipotle,92014,San Diego County
33.846556,-118.264476,Chipotle,90746,Los Angeles County
37.695570,-122.077030,Chipotle,94546,Alameda County
33.860328,-118.092221,Chipotle,90701,Los Angeles County
33.873040,-118.064760,Chipotle,90703,Los Angeles County
34.237671,-118.588615,Chipotle,91306,Los Angeles County
39.727288,-121.804163,Chipotle,95928,Butte County
39.734710,-121.835599,Chipotle,95926,Butte County
33.982479,-117.717628,Chipotle,91710,San Bernardino County
34.032457,-117.689598,Chipotle,91710,San Bernardino County
32.647180,-116.965520,Chipotle,91914,San Diego County
32.631349,-117.088254,Chipotle,91910,San Diego County
32.646500,-117.002308,Chipotle,91913,San Diego County
38.672277,-121.271692,Chipotle,95628,Sacramento County
33.990718,-117.924563,Chipotle,91748,Los Angeles County
34.080267,-117.719401,Chipotle,91767,Los Angeles County
36.837353,-119.682454,Chipotle,93611,Fresno County
36.808477,-119.694623,Chipotle,93611,Fresno County
37.671385,-122.464071,Chipotle,94015,San Mateo County
34.004976,-118.152831,Chipotle,90040,Los Angeles County
33.879142,-118.217953,Chipotle,90221,Los Angeles County
37.938042,-122.024625,Chipotle,94518,Contra Costa County
33.848117,-117.542800,Chipotle,92881,Riverside County
33.824537,-117.517462,Chipotle,92881,Riverside County
33.657560,-117.919010,Chipotle,92627,Orange County
34.006738,-118.412691,Chipotle,90230,Los Angeles County
33.985365,-118.395663,Chipotle,90230,Los Angeles County
33.988060,-118.392930,Chipotle,90230,Los Angeles County
34.023166,-118.394805,Chipotle,90232,Los Angeles County
37.337502,-122.036323,Chipotle,94087,Santa Clara County
37.316583,-122.032363,Chipotle,95129,Santa Clara County
33.802975,-118.013591,Chipotle,90680,Orange County
37.701348,-122.483091,Chipotle,94132,San Francisco County
37.823554,-122.003189,Chipotle,94526,Contra Costa County
38.544051,-121.741452,Chipotle,95616,Yolo County
32.980846,-117.249045,Chipotle,92075,San Diego County
33.887070,-118.319000,Chipotle,90506,Los Angeles County
33.938190,-118.129700,Chipotle,90241,Los Angeles County
37.706170,-121.891791,Chipotle,94588,Alameda County
37.706083,-121.928610,Chipotle,94568,Alameda County
32.745160,-116.935379,Chipotle,91978,San Diego County
32.793538,-116.934768,Chipotle,92020,San Diego County
37.899171,-122.301933,Chipotle,94530,Contra Costa County
34.067921,-118.026733,Chipotle,91732,Los Angeles County
33.919624,-118.396317,Chipotle,90245,Los Angeles County
38.420375,-121.410505,Chipotle,95758,Sacramento County
33.052540,-117.261240,Chipotle,92024,San Diego County
34.156975,-118.489127,Chipotle,91436,Los Angeles County
33.130272,-117.066452,Chipotle,92025,San Diego County
33.070479,-117.065955,Chipotle,92025,San Diego County
33.112540,-117.100430,Chipotle,92025,San Diego County
38.661249,-121.225750,Chipotle,95662,Sacramento County
38.259179,-122.056877,Chipotle,94533,Solano County
33.372169,-117.253247,Chipotle,92028,San Diego County
38.645478,-121.124119,Chipotle,95630,Sacramento County
38.669501,-121.154443,Chipotle,95630,Sacramento County
34.062587,-117.435466,Chipotle,92337,San Bernardino County
34.138718,-117.441283,Chipotle,92336,San Bernardino County
33.679932,-117.667771,Chipotle,92610,Orange County
37.562691,-122.281105,Chipotle,94404,San Mateo County
33.687530,-117.954210,Chipotle,92646,Orange County
37.511280,-121.940980,Chipotle,94539,Alameda County
37.555356,-121.983020,Chipotle,94536,Alameda County
37.504235,-121.975263,Chipotle,94538,Alameda County
36.782012,-119.790419,Chipotle,93704,Fresno County
36.808376,-119.872259,Chipotle,93722,Fresno County
36.808174,-119.754101,Chipotle,93726,Fresno County
36.808435,-119.778694,Chipotle,93710,Fresno County
36.810723,-119.808326,Chipotle,93704,Fresno County
36.852033,-119.789085,Chipotle,93650,Fresno County
33.860020,-117.923580,Chipotle,92832,Orange County
33.874200,-117.889650,Chipotle,92831,Orange County
33.788672,-117.963616,Chipotle,92841,Orange County
33.872958,-118.308057,Chipotle,90248,Los Angeles County
37.002338,-121.552803,Chipotle,95020,Santa Clara County
34.146219,-118.255427,Chipotle,91210,Los Angeles County
34.147525,-118.255146,Chipotle,91210,Los Angeles County
34.146931,-118.246765,Chipotle,91210,Los Angeles County
34.113937,-117.845543,Chipotle,91740,Los Angeles County
38.616772,-121.268814,Chipotle,95670,Sacramento County
34.428932,-119.869472,Chipotle,93111,Santa Barbara County
34.257800,-118.501920,Chipotle,91343,Los Angeles County
36.327688,-119.673056,Chipotle,93202,Kings County
33.901710,-118.373010,Chipotle,90250,Los Angeles County
33.747258,-116.997306,Chipotle,92545,Riverside County
33.865065,-118.393251,Chipotle,90254,Los Angeles County
34.429241,-117.377580,Chipotle,92344,San Bernardino County
33.679301,-118.004659,Chipotle,92648,Orange County
33.726811,-117.989516,Chipotle,92647,Orange County
33.930855,-118.326123,Chipotle,90303,Los Angeles County
33.699171,-117.739302,Chipotle,92620,Orange County
33.721850,-117.771380,Chipotle,92620,Orange County
33.685720,-117.811073,Chipotle,92606,Orange County
33.648814,-117.838934,Chipotle,92617,Orange County
33.653259,-117.747749,Chipotle,92618,Orange County
34.203454,-118.197574,Chipotle,91011,Los Angeles County
33.917225,-117.959030,Chipotle,90631,Orange County
32.865810,-117.233560,Chipotle,92122,San Diego County
32.774320,-117.025170,Chipotle,91942,San Diego County
33.714779,-116.294548,Chipotle,92210,Riverside County
34.112076,-117.761602,Chipotle,91767,Los Angeles County
37.892188,-122.117424,Chipotle,94549,Contra Costa County
33.568681,-117.707887,Chipotle,92656,Orange County
33.492335,-117.696937,Chipotle,92629,Orange County
33.637390,-117.679800,Chipotle,92630,Orange County
33.619194,-117.702507,Chipotle,92637,Orange County
33.853810,-118.142340,Chipotle,90712,Los Angeles County
34.674923,-118.147087,Chipotle,93534,Los Angeles County
34.837334,-118.863628,Chipotle,93243,Kern County
37.699486,-121.842255,Chipotle,94588,Alameda County
37.699502,-121.741986,Chipotle,94566,Alameda County
38.116674,-121.302510,Chipotle,95258,San Joaquin County
34.662060,-120.458370,Chipotle,93436,Santa Barbara County
33.835116,-118.189502,Chipotle,90807,Los Angeles County
33.760695,-118.113666,Chipotle,90814,Los Angeles County
33.789870,-118.138820,Chipotle,90804,Los Angeles County
34.058605,-118.419059,Chipotle,90067,Los Angeles County
34.061539,-118.446357,Chipotle,90025,Los Angeles County
34.054380,-118.262985,Chipotle,90017,Los Angeles County
34.053679,-118.464801,Chipotle,90025,Los Angeles County
34.022449,-118.439211,Chipotle,90064,Los Angeles County
34.077040,-118.264690,Chipotle,90026,Los Angeles County
34.076430,-118.323990,Chipotle,90004,Los Angeles County
34.041960,-118.258620,Chipotle,90014,Los Angeles County
34.061813,-118.291192,Chipotle,90010,Los Angeles County
34.048604,-118.334922,Chipotle,90019,Los Angeles County
34.138497,-118.214405,Chipotle,90041,Los Angeles County
34.083459,-118.344155,Chipotle,90038,Los Angeles County
34.076241,-118.378593,Chipotle,90048,Los Angeles County
34.074170,-118.361380,Chipotle,90036,Los Angeles County
34.097250,-118.326559,Chipotle,90028,Los Angeles County
34.016460,-118.282710,Chipotle,90007,Los Angeles County
34.062233,-118.349526,Chipotle,90036,Los Angeles County
34.047424,-118.256656,Chipotle,90017,Los Angeles County
34.097919,-118.356544,Chipotle,90046,Los Angeles County
37.235729,-121.963722,Chipotle,95030,Santa Clara County
36.974503,-120.083291,Chipotle,93638,Madera County
34.036512,-118.685491,Chipotle,90263,Los Angeles County
37.796567,-121.192608,Chipotle,95336,San Joaquin County
33.979380,-118.439740,Chipotle,90292,Los Angeles County
36.666055,-121.810930,Chipotle,93933,Monterey County
37.994969,-122.107488,Chipotle,94553,Contra Costa County
33.684020,-117.175371,Chipotle,92584,Riverside County
37.319649,-120.486275,Chipotle,95348,Merced County
37.597128,-122.386455,Chipotle,94030,San Mateo County
37.415879,-121.894489,Chipotle,95131,Santa Clara County
33.975432,-117.554419,Chipotle,91752,Riverside County
34.258025,-118.467266,Chipotle,91345,Los Angeles County
33.592020,-117.659996,Chipotle,92692,Orange County
33.560360,-117.667940,Chipotle,92694,Orange County
37.670761,-120.994934,Chipotle,95350,Stanislaus County
37.688296,-121.050080,Chipotle,95356,Stanislaus County
34.140190,-118.012179,Chipotle,91006,Los Angeles County
34.087394,-117.689133,Chipotle,91763,San Bernardino County
34.018056,-118.105818,Chipotle,90640,Los Angeles County
34.038469,-118.144886,Chipotle,90022,Los Angeles County
36.585634,-121.896688,Chipotle,93943,Monterey County
36.596920,-121.894200,Chipotle,93943,Monterey County
33.936307,-117.261531,Chipotle,92553,Riverside County
37.149536,-121.657940,Chipotle,95037,Santa Clara County
37.390825,-122.095841,Chipotle,94040,Santa Clara County
37.422588,-122.089827,Chipotle,94043,Santa Clara County
33.567954,-117.205570,Chipotle,92563,Riverside County
38.321774,-122.305955,Chipotle,94599,Napa County
38.285600,-122.274607,Chipotle,94559,Napa County
32.655469,-117.067773,Chipotle,91950,San Diego County
32.660381,-117.105072,Chipotle,91950,San Diego County
37.543532,-122.036058,Chipotle,94560,Alameda County
33.637491,-117.860737,Chipotle,92660,Orange County
33.615391,-117.930402,Chipotle,92663,Orange County
33.902240,-117.562240,Chipotle,92860,Riverside County
34.188090,-118.416990,Chipotle,91401,Los Angeles County
34.166109,-118.375351,Chipotle,91601,Los Angeles County
34.235405,-118.554661,Chipotle,91324,Los Angeles County
34.237380,-118.536130,Chipotle,91324,Los Angeles County
38.105809,-122.569376,Chipotle,94945,Marin County
37.819179,-122.262627,Chipotle,94612,Alameda County
37.810663,-122.244367,Chipotle,94610,Alameda County
37.737372,-122.197773,Chipotle,94621,Alameda County
33.206037,-117.288702,Chipotle,92056,San Diego County
33.245197,-117.290352,Chipotle,92057,San Diego County
33.183170,-117.331110,Chipotle,92054,San Diego County
34.033474,-117.628906,Chipotle,91762,San Bernardino County
34.074423,-117.556371,Chipotle,91764,San Bernardino County
33.787788,-117.816675,Chipotle,92866,Orange County
33.826130,-117.836140,Chipotle,92865,Orange County
34.234482,-119.179236,Chipotle,93036,Ventura County
34.046486,-118.524322,Chipotle,90402,Los Angeles County
33.801440,-116.387460,Chipotle,92276,Riverside County
33.721610,-116.382509,Chipotle,92260,Riverside County
33.800583,-116.519852,Chipotle,92234,Riverside County
34.601910,-118.150050,Chipotle,93551,Los Angeles County
37.439560,-122.162769,Chipotle,94301,Santa Clara County
37.424041,-122.143231,Chipotle,94304,Santa Clara County
34.215744,-118.448227,Chipotle,91402,Los Angeles County
33.889924,-118.159975,Chipotle,90723,Los Angeles County
34.141720,-118.132210,Chipotle,91106,Los Angeles County
34.150150,-118.079470,Chipotle,91775,Los Angeles County
35.615076,-120.685342,Chipotle,93422,San Luis Obispo County
33.805674,-117.226254,Chipotle,92571,Riverside County
38.243708,-122.630789,Chipotle,94954,Sonoma County
34.001837,-118.085234,Chipotle,90660,Los Angeles County
37.995740,-122.285808,Chipotle,94564,Contra Costa County
38.007527,-121.844731,Chipotle,94509,Contra Costa County
38.712971,-120.841764,Chipotle,95619,El Dorado County
37.977123,-122.066910,Chipotle,94520,Contra Costa County
37.946218,-122.061460,Chipotle,94523,Contra Costa County
34.033341,-117.752777,Chipotle,91766,Los Angeles County
32.956226,-117.038483,Chipotle,92064,San Diego County
38.579060,-121.490999,Chipotle,95811,Sacramento County
34.106370,-117.568860,Chipotle,91730,San Bernardino County
34.077390,-117.554480,Chipotle,91764,San Bernardino County
34.129017,-117.525339,Chipotle,91739,San Bernardino County
33.639278,-117.593803,Chipotle,92688,Orange County
40.585962,-122.354101,Chipotle,96002,Shasta County
34.074215,-117.204887,Chipotle,92374,San Bernardino County
34.061035,-117.183205,Chipotle,92374,San Bernardino County
33.821726,-118.384992,Chipotle,90277,Los Angeles County
37.484693,-122.228382,Chipotle,94063,San Mateo County
34.077130,-117.370351,Chipotle,92316,San Bernardino County
34.134112,-117.368022,Chipotle,92377,San Bernardino County
37.711016,-120.958061,Chipotle,95367,Stanislaus County
33.907073,-117.457636,Chipotle,92503,Riverside County
33.890018,-117.324211,Chipotle,92508,Riverside County
33.955430,-117.388020,Chipotle,92506,Riverside County
38.805141,-121.206146,Chipotle,95677,Placer County
38.347966,-122.709589,Chipotle,94928,Sonoma County
33.776157,-118.375305,Chipotle,90275,Los Angeles County
34.074965,-118.073007,Chipotle,91770,Los Angeles County
38.770218,-121.265697,Chipotle,95678,Placer County
38.743867,-121.226736,Chipotle,95661,Placer County
38.782748,-121.286953,Chipotle,95678,Placer County
38.477531,-121.496048,Chipotle,95822,Sacramento County
38.596971,-121.415396,Chipotle,95825,Sacramento County
38.573899,-121.483722,Chipotle,95811,Sacramento County
38.574352,-121.403744,Chipotle,95825,Sacramento County
38.610338,-121.386521,Chipotle,95821,Sacramento County
38.638403,-121.505372,Chipotle,95834,Sacramento County
38.538001,-121.492869,Chipotle,95818,Sacramento County
38.660156,-121.347086,Chipotle,95841,Sacramento County
38.557944,-121.436792,Chipotle,95819,Sacramento County
36.715530,-121.654939,Chipotle,93906,Monterey County
34.069060,-117.261370,Chipotle,92408,San Bernardino County
37.636355,-122.420875,Chipotle,94066,San Mateo County
37.503171,-122.247666,Chipotle,94070,San Mateo County
33.443445,-117.614624,Chipotle,92673,Orange County
33.019883,-117.111051,Chipotle,92127,San Diego County
32.869862,-117.115936,Chipotle,92126,San Diego County
32.937837,-117.230449,Chipotle,92130,San Diego County
32.772262,-117.071959,Chipotle,92115,San Diego County
32.820048,-117.180018,Chipotle,92117,San Diego County
32.761234,-117.066643,Chipotle,92115,San Diego County
32.715695,-117.161719,Chipotle,92101,San Diego County
32.870547,-117.214165,Chipotle,92122,San Diego County
32.715632,-117.163899,Chipotle,92101,San Diego County
32.768120,-117.153481,Chipotle,92108,San Diego County
32.980471,-117.082626,Chipotle,92128,San Diego County
32.799430,-117.242620,Chipotle,92109,San Diego County
32.751420,-117.205020,Chipotle,92110,San Diego County
32.748440,-117.157950,Chipotle,92103,San Diego County
32.912760,-117.146020,Chipotle,92126,San Diego County
34.283586,-118.441149,Chipotle,91340,Los Angeles County
37.784261,-122.403936,Chipotle,94103,San Francisco County
37.733952,-122.490585,Chipotle,94116,San Francisco County
37.789786,-122.404108,Chipotle,94104,San Francisco County
37.781853,-122.445862,Chipotle,94115,San Francisco County
37.807911,-122.418114,Chipotle,94111,San Francisco County
37.789160,-122.395800,Chipotle,94105,San Francisco County
37.793579,-122.397049,Chipotle,94104,San Francisco County
37.787070,-122.400045,Chipotle,94104,San Francisco County
37.786478,-122.408722,Chipotle,94108,San Francisco County
37.728481,-122.475569,Chipotle,94132,San Francisco County
37.790715,-122.399519,Chipotle,94104,San Francisco County
37.784242,-122.407701,Chipotle,94103,San Francisco County
37.334880,-121.892130,Chipotle,95113,Santa Clara County
37.382855,-121.896429,Chipotle,95131,Santa Clara County
37.325649,-121.948994,Chipotle,95128,Santa Clara County
37.415910,-121.955086,Chipotle,95134,Santa Clara County
37.249766,-121.803864,Chipotle,95119,Santa Clara County
37.250029,-121.876826,Chipotle,95118,Santa Clara County
37.292332,-121.991577,Chipotle,95130,Santa Clara County
37.370672,-121.916506,Chipotle,95131,Santa Clara County
37.261819,-121.931886,Chipotle,95124,Santa Clara County
37.323290,-121.944529,Chipotle,95128,Santa Clara County
37.331123,-121.812088,Chipotle,95122,Santa Clara County
37.371090,-121.844658,Chipotle,95133,Santa Clara County
37.321677,-121.950301,Chipotle,95128,Santa Clara County
37.351363,-121.923052,Chipotle,95110,Santa Clara County
37.250490,-121.863620,Chipotle,95123,Santa Clara County
37.331706,-121.908950,Chipotle,95110,Santa Clara County
37.723266,-122.154052,Chipotle,94577,Alameda County
35.262630,-120.678205,Chipotle,93405,San Luis Obispo County
35.279809,-120.662239,Chipotle,93405,San Luis Obispo County
33.135574,-117.178415,Chipotle,92078,San Diego County
37.544767,-122.291714,Chipotle,94403,San Mateo County
37.565409,-122.322539,Chipotle,94401,San Mateo County
33.751467,-118.309015,Chipotle,90732,Los Angeles County
37.970470,-122.516838,Chipotle,94901,Marin County
38.002920,-122.544031,Chipotle,94903,Marin County
37.775264,-121.977822,Chipotle,94583,Contra Costa County
36.621324,-121.842041,Chipotle,93955,Monterey County
33.760380,-117.886253,Chipotle,92706,Orange County
33.774396,-117.867444,Chipotle,92706,Orange County
33.738602,-117.919556,Chipotle,92843,Orange County
33.760103,-117.838674,Chipotle,92866,Orange County
33.698400,-117.885360,Chipotle,92707,Orange County
34.440421,-119.749157,Chipotle,93110,Santa Barbara County
34.419010,-119.698530,Chipotle,93101,Santa Barbara County
37.352265,-121.960582,Chipotle,95050,Santa Clara County
37.395040,-121.946381,Chipotle,95054,Santa Clara County
34.395540,-118.484919,Chipotle,91321,Los Angeles County
36.982604,-122.029695,Chipotle,95064,Santa Cruz County
34.921658,-120.432788,Chipotle,93458,Santa Barbara County
34.017898,-118.499011,Chipotle,90401,Los Angeles County
34.032100,-118.482870,Chipotle,90403,Los Angeles County
38.417833,-122.713517,Chipotle,95407,Sonoma County
38.459258,-122.731384,Chipotle,95401,Sonoma County
32.838768,-116.982992,Chipotle,92071,San Diego County
33.783138,-118.072226,Chipotle,90720,Orange County
36.576383,-119.631537,Chipotle,93662,Fresno County
34.157602,-118.437903,Chipotle,91423,Los Angeles County
34.151694,-118.453442,Chipotle,91403,Los Angeles County
33.811715,-118.181080,Chipotle,90806,Los Angeles County
34.283760,-118.776620,Chipotle,93065,Ventura County
33.952312,-118.186671,Chipotle,90280,Los Angeles County
38.054003,-121.375231,Chipotle,95209,San Joaquin County
37.993566,-121.313546,Chipotle,95207,San Joaquin County
34.143456,-118.398008,Chipotle,91604,Los Angeles County
37.368665,-122.035393,Chipotle,94086,Santa Clara County
34.170698,-118.540808,Chipotle,91356,Los Angeles County
33.523937,-117.159227,Chipotle,92591,Riverside County
33.481511,-117.096533,Chipotle,92591,Riverside County
34.105261,-118.073701,Chipotle,91775,Los Angeles County
34.181825,-118.882789,Chipotle,91360,Ventura County
34.191210,-118.936270,Chipotle,91320,Ventura County
33.831190,-118.347543,Chipotle,90503,Los Angeles County
33.835129,-118.353030,Chipotle,90503,Los Angeles County
33.801710,-118.328120,Chipotle,90717,Los Angeles County
37.755270,-121.466157,Chipotle,95376,San Joaquin County
36.226311,-119.328751,Chipotle,93274,Tulare County
37.521067,-120.881017,Chipotle,95380,Stanislaus County
33.713876,-117.816779,Chipotle,92606,Orange County
33.745160,-117.814870,Chipotle,92705,Orange County
37.602358,-122.069540,Chipotle,94544,Alameda County
34.132380,-117.667090,Chipotle,91786,San Bernardino County
34.107830,-117.670180,Chipotle,91786,San Bernardino County
38.367380,-121.962825,Chipotle,95688,Solano County
34.417691,-118.561411,Chipotle,91355,Los Angeles County
34.440300,-118.570000,Chipotle,91354,Los Angeles County
38.135759,-122.214373,Chipotle,94591,Solano County
34.172215,-118.448731,Chipotle,91411,Los Angeles County
34.264840,-119.212370,Chipotle,93003,Ventura County
34.267460,-119.246500,Chipotle,93003,Ventura County
34.470547,-117.354072,Chipotle,92392,San Bernardino County
36.292552,-119.313795,Chipotle,93277,Tulare County
33.200240,-117.244910,Chipotle,92083,San Diego County
37.896446,-122.061302,Chipotle,94598,Contra Costa County
33.974685,-118.234106,Chipotle,90001,Los Angeles County
34.028630,-117.833130,Chipotle,91789,Los Angeles County
34.069896,-117.927851,Chipotle,91790,Los Angeles County
34.073240,-117.881330,Chipotle,91723,Los Angeles County
34.075759,-118.373962,Chipotle,90048,Los Angeles County
38.589909,-121.550688,Chipotle,95605,Yolo County
34.154730,-118.795558,Chipotle,91301,Los Angeles County
33.759138,-118.008461,Chipotle,92683,Orange County
33.941260,-118.046090,Chipotle,90670,Los Angeles County
33.941419,-118.046431,Chipotle,90670,Los Angeles County
33.945607,-117.996924,Chipotle,90603,Los Angeles County
34.187319,-118.597547,Chipotle,91303,Los Angeles County
34.169410,-118.605690,Chipotle,91367,Los Angeles County
39.142112,-121.630260,Chipotle,95993,Sutter County
39.812485,-105.139618,Chipotle,80004,Jefferson County
39.794571,-105.081299,Chipotle,80002,Jefferson County
39.856055,-105.081872,Chipotle,80005,Jefferson County
39.694505,-104.866141,Chipotle,80247,Arapahoe County
39.739955,-104.828078,Chipotle,80045,Adams County
39.674565,-104.810414,Chipotle,80014,Arapahoe County
39.674621,-104.870451,Chipotle,80231,Denver County
39.604464,-104.706748,Chipotle,80016,Arapahoe County
39.764361,-104.774691,Chipotle,80011,Arapahoe County
39.640542,-104.791667,Chipotle,80015,Arapahoe County
39.594559,-104.806537,Chipotle,80015,Arapahoe County
40.016366,-105.258170,Chipotle,80305,Boulder County
40.017291,-105.283555,Chipotle,80304,Boulder County
39.414140,-104.864669,Chipotle,80108,Douglas County
39.595315,-104.848589,Chipotle,80111,Arapahoe County
39.611136,-104.753279,Chipotle,80016,Arapahoe County
38.896763,-104.853481,Chipotle,80907,El Paso County
38.833553,-104.823373,Chipotle,80905,El Paso County
38.802029,-104.817828,Chipotle,80903,El Paso County
38.876011,-104.719625,Chipotle,80922,El Paso County
38.904183,-104.774199,Chipotle,80918,El Paso County
38.904456,-104.817304,Chipotle,80907,El Paso County
38.945366,-104.801198,Chipotle,80920,El Paso County
38.845521,-104.757072,Chipotle,80909,El Paso County
39.805075,-104.931008,Chipotle,80216,Denver County
39.718507,-104.949607,Chipotle,80206,Denver County
39.750289,-104.999069,Chipotle,80202,Denver County
39.666640,-76.380813,Chipotle,21132,Harford County
39.678315,-104.968205,Chipotle,80210,Denver County
39.740113,-104.957277,Chipotle,80206,Denver County
39.666353,-104.940528,Chipotle,80222,Denver County
39.762026,-105.034699,Chipotle,80211,Denver County
39.711325,-104.983571,Chipotle,80209,Denver County
39.724898,-104.987294,Chipotle,80203,Denver County
39.652945,-104.901949,Chipotle,80237,Denver County
39.757896,-104.902002,Chipotle,80207,Denver County
39.728174,-104.940914,Chipotle,80206,Denver County
39.618098,-105.089136,Chipotle,80123,Jefferson County
39.690732,-104.912119,Chipotle,80224,Denver County
39.567229,-104.880063,Chipotle,80112,Arapahoe County
39.653465,-104.991743,Chipotle,80110,Arapahoe County
39.883803,-105.024956,Chipotle,80031,Adams County
40.523557,-105.038319,Chipotle,80525,Larimer County
40.579112,-105.077341,Chipotle,80521,Larimer County
39.083152,-108.588705,Chipotle,81501,Mesa County
40.411996,-104.691176,Chipotle,80631,Weld County
39.597611,-104.888903,Chipotle,80111,Arapahoe County
39.623868,-104.895961,Chipotle,80237,Denver County
39.535909,-105.016492,Chipotle,80129,Douglas County
39.986859,-105.096941,Chipotle,80027,Boulder County
39.733333,-105.161443,Chipotle,80215,Jefferson County
39.717072,-105.132997,Chipotle,80215,Jefferson County
39.659409,-105.081278,Chipotle,80235,Jefferson County
39.709471,-105.081782,Chipotle,80226,Jefferson County
39.740499,-105.079454,Chipotle,80214,Jefferson County
39.610687,-105.095505,Chipotle,80123,Jefferson County
39.579774,-105.137729,Chipotle,80128,Jefferson County
39.613426,-104.988254,Chipotle,80120,Arapahoe County
39.580089,-104.960527,Chipotle,80122,Arapahoe County
39.559213,-104.873071,Chipotle,80112,Arapahoe County
39.537376,-104.879369,Chipotle,80124,Douglas County
40.152484,-105.109979,Chipotle,80501,Boulder County
40.189064,-105.102092,Chipotle,80501,Boulder County
39.964896,-105.163706,Chipotle,80027,Boulder County
40.407270,-105.097000,Chipotle,80537,Larimer County
40.408944,-105.007376,Chipotle,80528,Larimer County
39.558676,-104.777837,Chipotle,80016,Arapahoe County
39.518571,-104.770395,Chipotle,80134,Douglas County
38.302962,-104.615078,Chipotle,81003,Pueblo County
39.630769,-106.071062,Chipotle,80424,Summit County
39.871177,-104.975064,Chipotle,80260,Adams County
39.914265,-104.975223,Chipotle,80241,Adams County
39.913885,-105.051961,Chipotle,80020,Broomfield County
39.763323,-105.142367,Chipotle,80033,Jefferson County
41.178371,-73.181295,Chipotle,06607,Fairfield County
41.824169,-72.884407,Chipotle,06020,Hartford County
41.392956,-73.523308,Chipotle,06810,Fairfield County
41.378577,-73.477054,Chipotle,06810,Fairfield County
41.090758,-73.455546,Chipotle,06820,Fairfield County
41.080173,-73.461531,Chipotle,06820,Fairfield County
41.991164,-72.583947,Chipotle,06082,Hartford County
41.157052,-73.241789,Chipotle,06605,Fairfield County
41.721231,-72.621474,Chipotle,06118,Hartford County
41.029698,-73.626509,Chipotle,06830,Fairfield County
41.370312,-72.918579,Chipotle,06514,New Haven County
41.812877,-72.527546,Chipotle,06042,Hartford County
41.238768,-73.035753,Chipotle,06461,New Haven County
41.306278,-72.926335,Chipotle,06510,New Haven County
41.650946,-72.728255,Chipotle,06051,Hartford County
41.042702,-73.577576,Chipotle,06870,Fairfield County
41.275731,-73.123552,Chipotle,06484,Fairfield County
41.497139,-72.807548,Chipotle,06492,New Haven County
41.725386,-72.759915,Chipotle,06110,Hartford County
41.238797,-73.035718,Chipotle,06461,New Haven County
41.271228,-72.972763,Chipotle,06516,New Haven County
41.140321,-73.352744,Chipotle,06880,Fairfield County
38.903114,-77.033867,Chipotle,20005,District of Columbia
38.901606,-77.025780,Chipotle,20260,District of Columbia
38.910011,-77.032318,Chipotle,20005,District of Columbia
38.900701,-77.044911,Chipotle,20006,District of Columbia
38.928704,-76.974133,Chipotle,20018,District of Columbia
38.934469,-77.057882,Chipotle,20008,District of Columbia
38.898145,-77.010842,Chipotle,20260,District of Columbia
38.883514,-76.994987,Chipotle,20003,District of Columbia
38.932345,-76.996928,Chipotle,20017,District of Columbia
38.920681,-77.021553,Chipotle,20001,District of Columbia
38.911555,-77.044271,Chipotle,20036,District of Columbia
38.905837,-77.042417,Chipotle,20036,District of Columbia
38.920930,-77.072085,Chipotle,20007,District of Columbia
38.923572,-77.051733,Chipotle,20008,District of Columbia
38.929009,-77.032495,Chipotle,20010,District of Columbia
38.905265,-77.064377,Chipotle,20036,District of Columbia
38.897003,-77.006500,Chipotle,20260,District of Columbia
38.945007,-77.077824,Chipotle,20016,District of Columbia
38.897437,-77.020092,Chipotle,20260,District of Columbia
39.186966,-75.536469,Chipotle,19901,Kent County
39.445298,-75.734653,Chipotle,19709,New Castle County
39.676429,-75.650171,Chipotle,19713,New Castle County
39.684025,-75.747765,Chipotle,19716,New Castle County
38.718147,-75.110819,Chipotle,19971,Sussex County
39.733262,-75.639445,Chipotle,19804,New Castle County
28.661744,-81.396754,Chipotle,32714,Seminole County
28.673058,-81.470384,Chipotle,32703,Orange County
25.949949,-80.146422,Chipotle,33160,Miami-Dade County
26.365427,-80.079468,Chipotle,33432,Palm Beach County
26.350239,-80.154653,Chipotle,33433,Palm Beach County
26.367813,-80.201585,Chipotle,33434,Palm Beach County
26.368307,-80.128176,Chipotle,33486,Palm Beach County
26.396052,-80.121312,Chipotle,33431,Palm Beach County
26.544103,-80.090675,Chipotle,33426,Palm Beach County
26.527222,-80.186169,Chipotle,33472,Palm Beach County
27.462496,-82.577711,Chipotle,34205,Manatee County
27.938191,-82.324295,Chipotle,33510,Hillsborough County
27.930914,-82.322970,Chipotle,33510,Hillsborough County
27.893657,-82.272451,Chipotle,33511,Hillsborough County
28.533821,-82.505934,Chipotle,34609,Hernando County
26.673470,-81.928690,Chipotle,33903,Lee County
26.610946,-81.941176,Chipotle,33990,Lee County
28.014597,-82.735616,Chipotle,33763,Pinellas County
27.917677,-82.731171,Chipotle,33764,Pinellas County
27.960745,-82.727450,Chipotle,33764,Pinellas County
28.545930,-81.730130,Chipotle,34756,Lake County
26.253364,-80.252868,Chipotle,33071,Broward County
26.280998,-80.201637,Chipotle,33073,Broward County
26.287399,-80.250926,Chipotle,33065,Broward County
25.589479,-80.357842,Chipotle,33189,Miami-Dade County
26.048292,-80.160540,Chipotle,33004,Broward County
26.095119,-80.251195,Chipotle,33324,Broward County
26.047861,-80.251588,Chipotle,33024,Broward County
29.181517,-81.079695,Chipotle,32114,Volusia County
26.307238,-80.092662,Chipotle,33441,Broward County
26.439651,-80.078259,Chipotle,33444,Palm Beach County
30.390652,-86.424008,Chipotle,32541,Okaloosa County
25.793529,-80.337603,Chipotle,33122,Miami-Dade County
26.403400,-81.811636,Chipotle,34134,Lee County
28.661131,-81.342697,Chipotle,32730,Seminole County
26.100529,-80.127033,Chipotle,33316,Broward County
26.150531,-80.119188,Chipotle,33304,Broward County
26.121505,-80.176345,Chipotle,33311,Broward County
26.187345,-80.116157,Chipotle,33308,Broward County
26.205104,-80.147785,Chipotle,33309,Broward County
26.491510,-81.787170,Chipotle,33967,Lee County
26.558410,-81.871680,Chipotle,33907,Lee County
26.609409,-81.810126,Chipotle,33966,Lee County
29.673664,-82.338814,Chipotle,32603,Alachua County
29.652157,-82.340957,Chipotle,32603,Alachua County
29.619571,-82.381712,Chipotle,32608,Alachua County
26.649439,-80.147911,Chipotle,33415,Palm Beach County
25.941043,-80.306630,Chipotle,33015,Miami-Dade County
25.866870,-80.291405,Chipotle,33012,Miami-Dade County
26.033563,-80.142976,Chipotle,33020,Broward County
25.479190,-80.442056,Chipotle,33033,Miami-Dade County
30.173486,-81.628284,Chipotle,32223,Duval County
30.286953,-81.460495,Chipotle,32224,Duval County
30.141788,-81.546097,Chipotle,32258,Duval County
30.271324,-81.388847,Chipotle,32250,Duval County
30.254414,-81.535571,Chipotle,32216,Duval County
30.477149,-81.633613,Chipotle,32218,Duval County
30.192870,-81.739101,Chipotle,32244,Duval County
26.934465,-80.130426,Chipotle,33458,Palm Beach County
28.345504,-81.420013,Chipotle,34741,Osceola County
28.332645,-81.530290,Chipotle,34747,Osceola County
28.756081,-81.350482,Chipotle,32746,Seminole County
26.585505,-80.146105,Chipotle,33463,Palm Beach County
28.001457,-81.956911,Chipotle,33803,Polk County
28.225695,-81.970352,Chipotle,33809,Polk County
27.894545,-82.780255,Chipotle,33778,Pinellas County
26.191408,-80.252169,Chipotle,33351,Broward County
28.078752,-80.647338,Chipotle,32901,Brevard County
28.227305,-80.700139,Chipotle,32952,Brevard County
25.913128,-80.330584,Chipotle,33016,Miami-Dade County
25.768878,-80.360497,Chipotle,33174,Miami-Dade County
25.749179,-80.254537,Chipotle,33134,Miami-Dade County
25.748520,-80.336082,Chipotle,33165,Miami-Dade County
25.809235,-80.314892,Chipotle,33122,Miami-Dade County
25.685268,-80.415514,Chipotle,33183,Miami-Dade County
25.979166,-80.359572,Chipotle,33027,Broward County
28.824578,-81.640754,Chipotle,32757,Lake County
26.172110,-81.800790,Chipotle,34103,Collier County
26.066595,-81.696905,Chipotle,34113,Collier County
26.251021,-81.799835,Chipotle,34108,Collier County
25.876818,-80.168749,Chipotle,33161,Miami-Dade County
27.036682,-82.215028,Chipotle,34287,Sarasota County
29.166774,-82.168050,Chipotle,34474,Marion County
28.552269,-81.527020,Chipotle,34734,Orange County
28.597584,-81.217695,Chipotle,32817,Orange County
28.386616,-81.244987,Chipotle,32827,Orange County
28.381603,-81.404674,Chipotle,32837,Orange County
28.450141,-81.401782,Chipotle,32809,Orange County
28.517401,-81.376337,Chipotle,32806,Orange County
28.511845,-81.460238,Chipotle,32811,Orange County
28.553044,-81.347351,Chipotle,32803,Orange County
28.486995,-81.414789,Chipotle,32839,Orange County
28.553092,-81.205469,Chipotle,32826,Orange County
28.494751,-81.429041,Chipotle,32839,Orange County
28.468319,-81.309953,Chipotle,32812,Orange County
28.459140,-81.488139,Chipotle,32819,Orange County
28.431229,-81.307579,Chipotle,32827,Orange County
29.263865,-81.105949,Chipotle,32117,Volusia County
28.656017,-81.203396,Chipotle,32765,Seminole County
26.845071,-80.084300,Chipotle,33410,Palm Beach County
26.838353,-80.112313,Chipotle,33410,Palm Beach County
28.086018,-82.723633,Chipotle,34684,Pinellas County
30.222756,-85.872236,Chipotle,32407,Bay County
26.007909,-80.293952,Chipotle,33026,Broward County
26.007444,-80.356768,Chipotle,33028,Broward County
25.656877,-80.327960,Chipotle,33158,Miami-Dade County
27.839326,-82.718893,Chipotle,33781,Pinellas County
26.121058,-80.330182,Chipotle,33325,Broward County
26.147631,-80.256900,Chipotle,33322,Broward County
26.260738,-80.098900,Chipotle,33062,Broward County
29.110827,-81.025963,Chipotle,32129,Volusia County
28.290882,-82.711876,Chipotle,34668,Pasco County
27.311230,-80.405998,Chipotle,34986,St. Lucie County
28.799946,-81.336083,Chipotle,32771,Seminole County
27.318103,-82.529510,Chipotle,34239,Sarasota County
27.337752,-82.462724,Chipotle,34232,Sarasota County
27.386592,-82.456101,Chipotle,34201,Manatee County
27.841470,-82.794702,Chipotle,33772,Pinellas County
25.699963,-80.294788,Chipotle,33143,Miami-Dade County
29.868709,-81.323282,Chipotle,32084,St. Johns County
28.252525,-81.316361,Chipotle,34769,Osceola County
27.804539,-82.638924,Chipotle,33704,Pinellas County
27.785505,-82.728644,Chipotle,33710,Pinellas County
27.780151,-82.638541,Chipotle,33701,Pinellas County
27.179252,-80.237770,Chipotle,34994,Martin County
27.247511,-80.273499,Chipotle,34994,Martin County
26.144951,-80.321541,Chipotle,33323,Broward County
30.435623,-84.257393,Chipotle,32301,Leon County
30.448863,-84.311672,Chipotle,32304,Leon County
30.503628,-84.250038,Chipotle,32308,Leon County
28.063553,-82.503988,Chipotle,33618,Hillsborough County
28.129797,-82.367188,Chipotle,33647,Hillsborough County
27.960175,-82.504852,Chipotle,33609,Hillsborough County
27.960972,-82.523853,Chipotle,33607,Hillsborough County
28.054556,-82.429892,Chipotle,33612,Hillsborough County
27.946816,-82.524145,Chipotle,33609,Hillsborough County
27.893585,-82.505678,Chipotle,33611,Hillsborough County
27.939435,-82.482988,Chipotle,33606,Hillsborough County
28.066508,-82.570297,Chipotle,33625,Hillsborough County
28.043512,-82.591719,Chipotle,33626,Hillsborough County
27.638769,-80.447941,Chipotle,32960,Indian River County
26.666747,-80.202662,Chipotle,33414,Palm Beach County
26.708649,-80.098587,Chipotle,33409,Palm Beach County
26.068199,-80.362568,Chipotle,33331,Broward County
28.521284,-81.586951,Chipotle,34787,Orange County
28.003915,-81.716721,Chipotle,33839,Polk County
28.593708,-81.365085,Chipotle,32789,Orange County
28.647440,-81.270625,Chipotle,32708,Seminole County
31.617070,-84.222040,Chipotle,31707,Dougherty County
34.051317,-84.285877,Chipotle,30009,Fulton County
33.947054,-84.661438,Chipotle,30064,Cobb County
33.675510,-84.392750,Chipotle,30354,Fulton County
33.788552,-84.326263,Chipotle,30306,Fulton County
33.809900,-84.412807,Chipotle,30363,Fulton County
33.848908,-84.364029,Chipotle,30326,Fulton County
33.922331,-84.338749,Chipotle,30346,DeKalb County
34.237364,-84.950943,Chipotle,30145,Bartow County
32.483007,-84.941343,Chipotle,31906,Muscogee County
33.651700,-84.007880,Chipotle,30013,Rockdale County
34.181404,-83.858873,Chipotle,30542,Hall County
34.022888,-84.150726,Chipotle,30097,Fulton County
33.657470,-84.499070,Chipotle,30337,Fulton County
34.302634,-84.020189,Chipotle,30506,Hall County
34.035560,-84.573450,Chipotle,30144,Cobb County
34.003538,-84.341243,Chipotle,30350,Fulton County
32.900688,-84.423999,Chipotle,30258,Pike County
33.980120,-93.610369,Chipotle,71847,Hempstead County
33.422751,-84.186508,Chipotle,30253,Henry County
33.562836,-84.324768,Chipotle,30260,Clayton County
33.980301,-84.215986,Chipotle,30092,Gwinnett County
32.139525,-81.246756,Chipotle,31322,Chatham County
33.880510,-81.072274,Chipotle,29172,Lexington County
33.916570,-84.381190,Chipotle,30328,Fulton County
32.044463,-91.716191,Chipotle,71295,Franklin Parish
32.003812,-81.113108,Chipotle,31406,Chatham County
33.883677,-84.010610,Chipotle,30078,Gwinnett County
34.034260,-84.052180,Chipotle,30043,Gwinnett County
33.851560,-84.209880,Chipotle,30084,DeKalb County
32.618568,-83.690514,Chipotle,31028,Houston County
34.091309,-83.409224,Chipotle,30565,Jackson County
33.927312,-84.457870,Chipotle,30067,Cobb County
33.801890,-84.133469,Chipotle,30087,DeKalb County
33.846747,-84.255570,Chipotle,30345,DeKalb County
33.814822,-84.309889,Chipotle,30033,DeKalb County
33.880438,-84.460691,Chipotle,30339,Cobb County
33.847886,-84.373599,Chipotle,30305,Fulton County
33.916551,-84.379358,Chipotle,30328,Fulton County
33.773821,-84.363486,Chipotle,30308,Fulton County
34.081163,-83.949427,Chipotle,30519,Gwinnett County
32.541084,-84.298048,Chipotle,31006,Taylor County
33.775550,-84.169503,Chipotle,30088,DeKalb County
34.065942,-84.578841,Chipotle,30144,Cobb County
33.954891,-84.131601,Chipotle,30096,Gwinnett County
33.967154,-83.688346,Chipotle,30680,Barrow County
34.043315,-84.379844,Chipotle,30075,Fulton County
42.018385,-84.275785,Chipotle,49253,Lenawee County
41.708761,-93.581020,Chipotle,50021,Polk County
41.954495,-84.343085,Chipotle,49220,Lenawee County
42.023225,-91.626859,Chipotle,52402,Linn County
41.574028,-90.528597,Chipotle,52807,Scott County
41.630265,-93.699850,Chipotle,50310,Polk County
42.491780,-90.720242,Chipotle,52002,Dubuque County
42.445460,-96.340520,Chipotle,51106,Woodbury County
42.464110,-92.324490,Chipotle,50702,Black Hawk County
41.562469,-93.799095,Chipotle,50266,Polk County
41.641949,-91.458611,Chipotle,52245,Johnson County
41.595479,-93.751554,Chipotle,50324,Polk County
43.606678,-116.282173,Chipotle,83704,Ada County
43.612701,-116.202787,Chipotle,83706,Ada County
42.906032,-112.464437,Chipotle,83201,Bannock County
47.700790,-116.789076,Chipotle,83815,Kootenai County
43.671310,-116.282684,Chipotle,83714,Ada County
43.624234,-116.354332,Chipotle,83713,Ada County
43.600923,-116.596499,Chipotle,83651,Canyon County
41.949800,-88.031806,Chipotle,60101,DuPage County
41.815167,-88.375758,Chipotle,60542,Kane County
41.850398,-88.114084,Chipotle,60187,DuPage County
41.957192,-88.073509,Chipotle,60108,DuPage County
41.174472,-87.851392,Chipotle,60915,Kankakee County
40.137405,-88.231521,Chipotle,61820,Champaign County
41.799602,-87.677394,Chipotle,60609,Cook County
41.932744,-87.620685,Chipotle,60611,Cook County
41.877659,-87.708998,Chipotle,60624,Cook County
41.946608,-87.640387,Chipotle,60613,Cook County
41.941815,-87.628382,Chipotle,60613,Cook County
41.953121,-87.744843,Chipotle,60641,Cook County
41.977046,-87.660278,Chipotle,60660,Cook County
41.796319,-87.723296,Chipotle,60629,Cook County
41.989476,-87.739052,Chipotle,60646,Cook County
41.757618,-87.741583,Chipotle,60459,Cook County
41.779829,-87.645162,Chipotle,60621,Cook County
41.851084,-87.744195,Chipotle,60804,Cook County
41.784740,-87.868080,Chipotle,60525,Cook County
41.649342,-88.294463,Chipotle,60543,Kendall County
41.953125,-88.771484,Chipotle,60111,DeKalb County
41.808456,-88.014914,Chipotle,60515,DuPage County
40.668806,-87.939829,Chipotle,60955,Iroquois County
39.138039,-88.565750,Chipotle,62401,Effingham County
42.002788,-87.680915,Chipotle,60645,Cook County
41.882985,-87.975639,Chipotle,60181,DuPage County
41.503139,-88.340204,Chipotle,60447,Grundy County
42.109267,-87.875697,Chipotle,60062,Cook County
42.049388,-88.191602,Chipotle,60107,Cook County
41.631477,-87.931186,Chipotle,60491,Will County
41.573820,-88.147066,Chipotle,60435,Will County
41.522140,-87.869794,Chipotle,60448,Will County
41.576710,-88.157715,Chipotle,60435,Will County
42.279791,-87.849974,Chipotle,60044,Lake County
42.284223,-87.935897,Chipotle,60048,Lake County
42.182615,-87.926565,Chipotle,60069,Lake County
42.010815,-87.711512,Chipotle,60645,Cook County
42.365610,-89.023828,Chipotle,61115,Winnebago County
41.506120,-87.732956,Chipotle,60443,Cook County
42.360045,-88.267119,Chipotle,60050,McHenry County
41.542640,-87.850683,Chipotle,60487,Cook County
41.470493,-88.119132,Chipotle,60436,Will County
41.796531,-88.954849,Chipotle,60530,Lee County
40.509945,-87.776365,Chipotle,60942,Vermilion County
40.504229,-87.803468,Chipotle,60942,Vermilion County
41.957258,-87.807251,Chipotle,60634,Cook County
42.122162,-87.760292,Chipotle,60022,Cook County
41.849568,-87.932306,Chipotle,60523,DuPage County
41.713810,-87.753120,Chipotle,60453,Cook County
42.139135,-88.980238,Chipotle,61052,Ogle County
42.009824,-87.995195,Chipotle,60007,Cook County
40.742407,-89.631565,Chipotle,61614,Peoria County
41.651186,-88.203559,Chipotle,60585,Will County
41.615005,-87.885240,Chipotle,60467,Cook County
42.381303,-88.335394,Chipotle,60097,McHenry County
41.905501,-87.986686,Chipotle,60181,DuPage County
42.170023,-88.279683,Chipotle,60102,McHenry County
42.111465,-87.803089,Chipotle,60062,Cook County
41.785360,-88.205869,Chipotle,60563,DuPage County
41.770240,-88.259131,Chipotle,60504,DuPage County
41.939157,-88.952413,Chipotle,60150,DeKalb County
40.482093,-87.588196,Chipotle,47917,Benton County
41.690562,-88.125635,Chipotle,60490,Will County
40.110441,-87.627283,Chipotle,61833,Vermilion County
41.878352,-87.668397,Chipotle,60607,Cook County
41.881805,-87.632509,Chipotle,60603,Cook County
41.939720,-87.654974,Chipotle,60657,Cook County
41.868021,-87.640817,Chipotle,60607,Cook County
41.903611,-87.628738,Chipotle,60610,Cook County
41.913317,-87.659095,Chipotle,60614,Cook County
41.917596,-87.636192,Chipotle,60614,Cook County
41.911280,-87.635183,Chipotle,60610,Cook County
41.923022,-87.646370,Chipotle,60614,Cook County
41.880808,-87.634308,Chipotle,60606,Cook County
41.721170,-87.679882,Chipotle,60805,Cook County
41.885602,-87.635229,Chipotle,60606,Cook County
41.928108,-87.785800,Chipotle,60707,Cook County
41.931010,-87.685843,Chipotle,60647,Cook County
41.893267,-87.624632,Chipotle,60602,Cook County
41.887245,-87.644126,Chipotle,60654,Cook County
41.939678,-87.688247,Chipotle,60618,Cook County
41.880440,-87.705808,Chipotle,60624,Cook County
41.891787,-87.644141,Chipotle,60654,Cook County
41.932852,-88.725288,Chipotle,60112,DeKalb County
42.002661,-87.660915,Chipotle,60626,Cook County
41.882197,-87.627445,Chipotle,60602,Cook County
42.226244,-87.844656,Chipotle,60045,Lake County
42.167151,-89.583831,Chipotle,61007,Ogle County
41.931175,-88.023748,Chipotle,60101,DuPage County
41.833952,-88.004496,Chipotle,60515,DuPage County
41.906240,-87.887972,Chipotle,60165,Cook County
42.048456,-88.079359,Chipotle,60194,Cook County
38.592242,-89.985115,Chipotle,62208,St. Clair County
41.874813,-88.058141,Chipotle,60137,DuPage County
41.859209,-87.636379,Chipotle,60607,Cook County
42.105520,-87.814749,Chipotle,60062,Cook County
42.385292,-87.953674,Chipotle,60031,Lake County
42.186145,-87.802899,Chipotle,60035,Lake County
42.069617,-88.052651,Chipotle,60008,Cook County
42.162285,-87.881939,Chipotle,60015,Lake County
41.817715,-87.953738,Chipotle,60514,DuPage County
41.908252,-90.480544,Chipotle,52750,Clinton County
42.080831,-88.147453,Chipotle,60192,Cook County
41.771392,-88.205679,Chipotle,60563,DuPage County
41.709730,-88.994669,Chipotle,61353,Lee County
42.054764,-87.837187,Chipotle,60025,Cook County
41.719719,-88.024477,Chipotle,60517,DuPage County
41.888739,-87.827313,Chipotle,60305,Cook County
41.854250,-87.965149,Chipotle,60523,DuPage County
41.613377,-87.853501,Chipotle,60462,Cook County
41.704477,-88.306921,Chipotle,60503,Will County
42.264586,-88.123352,Chipotle,60084,Lake County
42.051337,-88.062970,Chipotle,60173,Cook County
42.007390,-88.143369,Chipotle,60133,Cook County
42.024936,-88.035503,Chipotle,60173,Cook County
42.037948,-87.978433,Chipotle,60005,Cook County
42.011752,-87.762127,Chipotle,60646,Cook County
42.051958,-87.747038,Chipotle,60077,Cook County
41.986999,-88.340864,Chipotle,60177,Kane County
39.764183,-89.705726,Chipotle,62711,Sangamon County
41.921035,-88.266654,Chipotle,60174,Kane County
41.600541,-87.794403,Chipotle,60452,Cook County
42.234011,-87.943138,Chipotle,60061,Lake County
41.801677,-88.169215,Chipotle,60563,DuPage County
42.342394,-87.895107,Chipotle,60085,Lake County
42.099215,-88.286955,Chipotle,60118,Kane County
41.810350,-87.968346,Chipotle,60514,DuPage County
41.857995,-88.139164,Chipotle,60190,DuPage County
41.829563,-88.092215,Chipotle,60189,DuPage County
42.154189,-87.954291,Chipotle,60089,Lake County
41.758387,-87.944554,Chipotle,60527,DuPage County
39.075104,-84.892560,Chipotle,41080,Boone County
39.164202,-86.155143,Chipotle,47448,Brown County
39.972730,-85.888739,Chipotle,46037,Hamilton County
39.221025,-87.492081,Chipotle,47849,Sullivan County
37.980812,-85.128300,Chipotle,40046,Spencer County
39.933830,-86.010147,Chipotle,46038,Hamilton County
41.135438,-85.161485,Chipotle,46825,Allen County
41.525700,-86.218189,Chipotle,46506,Marshall County
39.870064,-86.090497,Chipotle,46220,Marion County
39.912588,-86.132537,Chipotle,46240,Marion County
39.905770,-86.077640,Chipotle,46250,Marion County
39.767109,-86.157792,Chipotle,46204,Marion County
39.637902,-86.128667,Chipotle,46227,Marion County
40.417774,-87.312412,Chipotle,47975,Warren County
41.672787,-87.508980,Chipotle,46394,Lake County
41.564473,-87.181262,Chipotle,46368,Porter County
39.715443,-86.356231,Chipotle,46231,Marion County
41.550615,-86.235687,Chipotle,46536,St. Joseph County
41.628873,-87.029750,Chipotle,46304,Porter County
39.800838,-86.269126,Chipotle,46224,Marion County
41.468531,-86.338338,Chipotle,46536,St. Joseph County
39.763718,-86.494364,Chipotle,46122,Hendricks County
39.166528,-86.119563,Chipotle,47448,Brown County
40.000287,-85.255500,Chipotle,47360,Henry County
41.032700,-87.471214,Chipotle,47963,Newton County
41.117900,-86.141541,Chipotle,46570,Marshall County
39.911782,-86.830275,Chipotle,47954,Montgomery County
39.926885,-86.893927,Chipotle,47933,Montgomery County
39.914303,-86.109579,Chipotle,46240,Marion County
40.473648,-86.108089,Chipotle,46068,Tipton County
41.470467,-86.179631,Chipotle,46506,Marshall County
41.711099,-84.850520,Chipotle,46737,Steuben County
39.831175,-86.252551,Chipotle,46254,Marion County
41.692380,-86.906961,Chipotle,46360,LaPorte County
40.423365,-97.244403,Chipotle,68464,Saline County
37.564017,-86.529472,Chipotle,40119,Grayson County
39.003446,-95.761396,Chipotle,66610,Shawnee County
39.014619,-97.463053,Chipotle,67480,Dickinson County
39.009337,-94.841941,Chipotle,66218,Johnson County
37.679865,-94.823395,Chipotle,66734,Crawford County
39.125911,-94.629582,Chipotle,66101,Wyandotte County
38.943104,-94.722652,Chipotle,66215,Johnson County
38.971747,-95.289520,Chipotle,66049,Douglas County
38.967271,-95.235956,Chipotle,66044,Douglas County
38.956764,-94.725999,Chipotle,66215,Johnson County
39.184872,-96.576315,Chipotle,66506,Riley County
39.022193,-94.664973,Chipotle,66202,Johnson County
38.913167,-94.761457,Chipotle,66219,Johnson County
38.851113,-94.817533,Chipotle,66062,Johnson County
38.956435,-94.718037,Chipotle,66214,Johnson County
38.912696,-94.643897,Chipotle,66209,Johnson County
38.963844,-94.665082,Chipotle,66212,Johnson County
38.883868,-94.667795,Chipotle,66223,Johnson County
38.927641,-94.699123,Chipotle,66210,Johnson County
39.029469,-97.425105,Chipotle,67480,Dickinson County
37.724090,-97.245033,Chipotle,67208,Sedgwick County
37.737921,-95.252052,Chipotle,66772,Allen County
37.693873,-97.299310,Chipotle,67208,Sedgwick County
37.678081,-97.244594,Chipotle,67207,Sedgwick County
36.942760,-86.420990,Chipotle,42104,Warren County
39.018801,-84.694524,Chipotle,41042,Boone County
39.086483,-84.518946,Chipotle,45203,Hamilton County
39.021408,-84.525734,Chipotle,41017,Kenton County
37.987094,-84.417342,Chipotle,40509,Fayette County
38.293170,-91.177050,Chipotle,63056,Franklin County
38.238979,-93.709388,Chipotle,64740,Henry County
38.242515,-85.508624,Chipotle,40243,Jefferson County
38.253668,-85.757010,Chipotle,40203,Jefferson County
38.240486,-85.577873,Chipotle,40223,Jefferson County
39.086421,-84.477575,Chipotle,41073,Campbell County
39.048163,-84.589630,Chipotle,41018,Kenton County
39.002883,-84.641808,Chipotle,41042,Boone County
38.989155,-85.560497,Chipotle,47265,Jennings County
39.037348,-84.454701,Chipotle,41076,Campbell County
38.017529,-84.449610,Chipotle,40502,Fayette County
38.006186,-85.721275,Chipotle,40165,Bullitt County
38.042387,-84.502591,Chipotle,40507,Fayette County
30.418110,-84.575840,Chipotle,32310,Leon County
32.549477,-84.652464,Chipotle,31801,Marion County
30.212913,-90.950486,Chipotle,70737,Ascension Parish
29.960760,-90.184079,Chipotle,70121,Jefferson Parish
29.613205,-90.755814,Chipotle,70360,Terrebonne Parish
30.161652,-92.054544,Chipotle,70503,Lafayette Parish
30.003434,-90.162292,Chipotle,70002,Jefferson Parish
32.442148,-93.717993,Chipotle,71105,Caddo Parish
30.266091,-89.763348,Chipotle,70458,St. Tammany Parish
41.923740,-71.356140,Chipotle,02863,Providence County
42.486728,-71.263290,Chipotle,01730,Middlesex County
42.576615,-70.891223,Chipotle,01915,Essex County
42.580563,-71.289215,Chipotle,01862,Middlesex County
42.353780,-71.058150,Chipotle,02111,Suffolk County
42.357498,-71.058357,Chipotle,02110,Suffolk County
42.350594,-71.046478,Chipotle,02210,Suffolk County
42.350443,-71.076202,Chipotle,02116,Suffolk County
42.352007,-71.067250,Chipotle,02111,Suffolk County
42.485828,-71.212998,Chipotle,01803,Middlesex County
42.367048,-71.076299,Chipotle,02141,Middlesex County
42.363195,-71.085616,Chipotle,02142,Middlesex County
42.364906,-71.102913,Chipotle,02139,Middlesex County
42.625360,-71.362100,Chipotle,01851,Middlesex County
42.172180,-72.577110,Chipotle,01020,Hampden County
42.090306,-71.422484,Chipotle,02038,Norfolk County
42.355825,-72.554842,Chipotle,01035,Hampshire County
42.176435,-72.640408,Chipotle,01013,Hampden County
41.669146,-70.296350,Chipotle,02601,Barnstable County
42.742166,-71.156116,Chipotle,01844,Essex County
42.338495,-71.207074,Chipotle,02460,Middlesex County
42.677743,-71.132040,Chipotle,01843,Essex County
41.639768,-70.991011,Chipotle,02740,Bristol County
42.165439,-71.045164,Chipotle,02368,Norfolk County
41.906123,-71.049724,Chipotle,02767,Bristol County
42.519008,-71.093614,Chipotle,01867,Middlesex County
41.802502,-71.339249,Chipotle,02914,Providence County
42.482026,-70.902185,Chipotle,01907,Essex County
42.376334,-71.253136,Chipotle,02453,Middlesex County
42.363189,-71.161170,Chipotle,02472,Middlesex County
42.095964,-72.601885,Chipotle,01103,Hampden County
42.567592,-71.422481,Chipotle,01886,Middlesex County
42.203422,-71.153690,Chipotle,02021,Norfolk County
42.344709,-71.101161,Chipotle,02115,Suffolk County
42.220475,-71.027805,Chipotle,02169,Norfolk County
42.336418,-71.149403,Chipotle,02135,Suffolk County
42.350789,-71.114906,Chipotle,02446,Norfolk County
42.389119,-71.143216,Chipotle,02140,Middlesex County
42.373193,-71.120725,Chipotle,02163,Suffolk County
42.257012,-71.169987,Chipotle,02026,Norfolk County
42.302085,-71.396017,Chipotle,01701,Middlesex County
42.180256,-70.906463,Chipotle,02190,Norfolk County
42.015368,-71.230794,Chipotle,02048,Bristol County
42.338012,-71.592037,Chipotle,01752,Middlesex County
42.406213,-71.082283,Chipotle,02145,Middlesex County
42.163775,-71.199420,Chipotle,02062,Norfolk County
42.526360,-70.928509,Chipotle,01970,Essex County
42.272617,-71.027371,Chipotle,02170,Norfolk County
42.479570,-71.021325,Chipotle,01906,Essex County
42.274713,-71.750474,Chipotle,01604,Worcester County
42.395993,-71.122259,Chipotle,02144,Middlesex County
42.285118,-71.608438,Chipotle,01581,Worcester County
42.515899,-71.138743,Chipotle,01801,Middlesex County
38.978000,-76.487590,Chipotle,21402,Anne Arundel County
39.337744,-76.635552,Chipotle,21211,Baltimore city
39.286678,-76.619675,Chipotle,21201,Baltimore city
39.366585,-76.448918,Chipotle,21236,Baltimore County
39.186170,-76.673509,Chipotle,21240,Anne Arundel County
39.022145,-77.146940,Chipotle,20817,Montgomery County
38.979240,-76.735300,Chipotle,20715,Prince George's County
38.869953,-76.849767,Chipotle,20747,Prince George's County
39.287865,-77.202258,Chipotle,20872,Montgomery County
38.792460,-76.060063,Chipotle,21601,Talbot County
38.942707,-76.562064,Chipotle,21140,Anne Arundel County
39.277450,-76.826040,Chipotle,21043,Howard County
39.149790,-76.909650,Chipotle,20759,Howard County
39.116794,-77.198448,Chipotle,20877,Montgomery County
39.182581,-77.264059,Chipotle,20876,Montgomery County
39.199130,-77.245197,Chipotle,20876,Montgomery County
38.955740,-76.940178,Chipotle,20781,Prince George's County
39.027905,-77.076727,Chipotle,20895,Montgomery County
38.548240,-76.984021,Chipotle,20675,Charles County
38.921379,-76.846108,Chipotle,20785,Prince George's County
39.097805,-76.808098,Chipotle,20724,Anne Arundel County
39.202240,-76.683570,Chipotle,21090,Anne Arundel County
39.364190,-77.161205,Chipotle,21771,Frederick County
38.957764,-76.869522,Chipotle,20706,Prince George's County
39.048881,-77.117975,Chipotle,20852,Montgomery County
38.335242,-75.101376,Chipotle,21811,Worcester County
39.152927,-77.065843,Chipotle,20832,Montgomery County
39.414268,-76.772951,Chipotle,21117,Baltimore County
38.784674,-77.016860,Chipotle,20745,Prince George's County
39.372760,-76.543631,Chipotle,21234,Baltimore County
39.388870,-76.736248,Chipotle,21208,Baltimore County
39.017600,-77.208339,Chipotle,20854,Montgomery County
38.546086,-76.591445,Chipotle,20678,Calvert County
39.050036,-77.114792,Chipotle,20852,Montgomery County
39.622605,-87.276694,Chipotle,47874,Parke County
38.350429,-75.601722,Chipotle,21826,Wicomico County
38.403110,-75.569725,Chipotle,21875,Wicomico County
39.021805,-76.977050,Chipotle,20903,Montgomery County
39.397297,-76.933998,Chipotle,21104,Carroll County
39.399450,-76.602907,Chipotle,21204,Baltimore County
38.899574,-76.791906,Chipotle,20774,Prince George's County
39.563416,-76.972680,Chipotle,21157,Carroll County
39.039029,-77.053690,Chipotle,20902,Montgomery County
39.312940,-76.754227,Chipotle,21244,Baltimore County
38.991800,-76.544238,Chipotle,21401,Anne Arundel County
39.076571,-77.080371,Chipotle,20906,Montgomery County
39.303638,-76.616043,Chipotle,21202,Baltimore city
39.281325,-76.581074,Chipotle,21231,Baltimore city
39.327049,-76.615734,Chipotle,21218,Baltimore city
39.286612,-76.607542,Chipotle,21201,Baltimore city
39.372198,-76.609977,Chipotle,21212,Baltimore city
39.271559,-76.601104,Chipotle,21230,Baltimore city
39.497565,-76.326160,Chipotle,21009,Harford County
39.024860,-77.125305,Chipotle,20852,Montgomery County
38.985592,-77.095949,Chipotle,20815,Montgomery County
38.955940,-76.827646,Chipotle,20706,Prince George's County
38.945163,-76.737123,Chipotle,20716,Prince George's County
38.961900,-77.088263,Chipotle,20015,District of Columbia
38.767103,-76.888001,Chipotle,20735,Prince George's County
39.022785,-76.924252,Chipotle,20740,Prince George's County
38.980072,-76.938176,Chipotle,20740,Prince George's County
39.216788,-76.858062,Chipotle,21045,Howard County
39.203551,-76.812684,Chipotle,21045,Howard County
39.374307,-77.410085,Chipotle,21703,Frederick County
39.449342,-77.399111,Chipotle,21701,Frederick County
39.149444,-77.208665,Chipotle,20877,Montgomery County
39.124709,-77.236995,Chipotle,20878,Montgomery County
39.036060,-76.680714,Chipotle,21054,Anne Arundel County
38.998324,-76.912128,Chipotle,20740,Prince George's County
39.661384,-77.745328,Chipotle,21767,Washington County
39.152839,-76.726014,Chipotle,21076,Anne Arundel County
39.495937,-76.653541,Chipotle,21030,Baltimore County
39.087043,-76.860735,Chipotle,20707,Prince George's County
38.292139,-76.494569,Chipotle,20619,St. Mary's County
39.099210,-77.192158,Chipotle,20850,Montgomery County
39.075488,-77.137180,Chipotle,20851,Montgomery County
39.075896,-76.544131,Chipotle,21146,Anne Arundel County
39.020735,-77.012261,Chipotle,20901,Montgomery County
39.058582,-76.955763,Chipotle,20904,Montgomery County
38.996670,-77.025753,Chipotle,20910,Montgomery County
39.432561,-76.622661,Chipotle,21093,Baltimore County
39.397201,-76.585741,Chipotle,21286,Baltimore County
38.622426,-76.914249,Chipotle,20601,Charles County
44.347878,-69.787299,Chipotle,04347,Kennebec County
44.830166,-68.753585,Chipotle,04412,Penobscot County
43.660351,-70.266708,Chipotle,04101,Cumberland County
43.634246,-70.337796,Chipotle,04106,Cumberland County
43.677406,-70.330956,Chipotle,04092,Cumberland County
41.879066,-84.043150,Chipotle,49221,Lenawee County
42.282171,-83.205073,Chipotle,48122,Wayne County
42.607706,-83.299394,Chipotle,48302,Oakland County
42.540832,-83.786455,Chipotle,48116,Livingston County
42.322657,-83.458824,Chipotle,48187,Wayne County
42.673980,-82.829400,Chipotle,48051,Macomb County
42.977220,-83.768449,Chipotle,48507,Genesee County
42.884516,-85.739637,Chipotle,49519,Kent County
42.812122,-86.086908,Chipotle,49424,Ottawa County
42.296138,-85.655231,Chipotle,49006,Kalamazoo County
42.534133,-83.106787,Chipotle,48071,Oakland County
42.318821,-83.395943,Chipotle,48185,Wayne County
42.483761,-83.474580,Chipotle,48377,Oakland County
44.862617,-85.735138,Chipotle,49621,Leelanau County
42.230600,-85.589551,Chipotle,49002,Kalamazoo County
42.681524,-83.194064,Chipotle,48309,Oakland County
42.536027,-82.911701,Chipotle,48035,Macomb County
43.481060,-84.071838,Chipotle,48623,Saginaw County
42.498432,-83.284921,Chipotle,48034,Oakland County
42.513693,-83.047029,Chipotle,48092,Macomb County
42.140346,-83.226063,Chipotle,48183,Wayne County
42.279948,-83.740784,Chipotle,48109,Washtenaw County
42.256090,-83.693372,Chipotle,48104,Washtenaw County
42.238009,-83.744509,Chipotle,48108,Washtenaw County
42.733756,-84.477623,Chipotle,48825,Ingham County
42.912389,-85.577713,Chipotle,49546,Kent County
42.741276,-84.624463,Chipotle,48917,Eaton County
42.641738,-83.131815,Chipotle,48307,Oakland County
42.530776,-83.198216,Chipotle,48009,Oakland County
42.481136,-83.241074,Chipotle,48076,Oakland County
42.625519,-82.986860,Chipotle,48313,Macomb County
42.563273,-83.167517,Chipotle,48084,Oakland County
42.539299,-83.360392,Chipotle,48322,Oakland County
45.058215,-93.321137,Chipotle,55430,Hennepin County
45.158189,-93.390141,Chipotle,55316,Hennepin County
45.062577,-93.247746,Chipotle,55421,Anoka County
44.832981,-92.957763,Chipotle,55016,Washington County
46.806619,-92.160936,Chipotle,55811,St. Louis County
44.918078,-93.503060,Chipotle,55345,Hennepin County
45.200745,-93.553993,Chipotle,55374,Hennepin County
44.731609,-93.133264,Chipotle,55068,Dakota County
45.057475,-93.144160,Chipotle,55126,Ramsey County
44.731611,-93.220446,Chipotle,55124,Dakota County
45.159736,-93.233006,Chipotle,55434,Anoka County
45.126089,-93.256285,Chipotle,55432,Anoka County
44.811617,-93.329347,Chipotle,55437,Hennepin County
44.853568,-93.242789,Chipotle,55425,Hennepin County
45.093071,-93.382111,Chipotle,55445,Hennepin County
44.746699,-93.288860,Chipotle,55306,Dakota County
44.859218,-93.534056,Chipotle,55317,Carver County
45.198493,-93.355561,Chipotle,55316,Hennepin County
45.055004,-93.365689,Chipotle,55428,Hennepin County
44.790259,-93.211483,Chipotle,55122,Dakota County
44.836789,-93.152432,Chipotle,55121,Dakota County
44.858431,-93.449329,Chipotle,55344,Hennepin County
44.880140,-93.320948,Chipotle,55435,Hennepin County
45.315580,-93.553949,Chipotle,55330,Sherburne County
44.984518,-93.380644,Chipotle,55427,Hennepin County
44.739113,-92.892432,Chipotle,55033,Dakota County
44.924247,-93.409850,Chipotle,55343,Hennepin County
44.146147,-93.994463,Chipotle,56001,Blue Earth County
44.166662,-93.952147,Chipotle,56001,Blue Earth County
45.095486,-93.441483,Chipotle,55369,Hennepin County
45.134600,-93.474089,Chipotle,55369,Hennepin County
45.010694,-93.022783,Chipotle,55109,Ramsey County
45.034122,-93.017891,Chipotle,55109,Ramsey County
44.973599,-93.275159,Chipotle,55402,Hennepin County
44.976720,-93.268499,Chipotle,55402,Hennepin County
44.987761,-93.257474,Chipotle,55401,Hennepin County
44.972405,-93.247025,Chipotle,55454,Hennepin County
44.955430,-93.297032,Chipotle,55405,Hennepin County
45.038730,-93.222589,Chipotle,55421,Anoka County
44.947473,-93.320558,Chipotle,55416,Hennepin County
44.978221,-93.271987,Chipotle,55402,Hennepin County
44.973553,-93.226952,Chipotle,55455,Hennepin County
44.970342,-93.437890,Chipotle,55305,Hennepin County
45.035815,-92.839483,Chipotle,55003,Washington County
45.020169,-93.482034,Chipotle,55447,Hennepin County
44.883341,-93.248509,Chipotle,55450,Hennepin County
44.864776,-93.288655,Chipotle,55423,Hennepin County
44.005970,-92.463594,Chipotle,55904,Olmsted County
44.063023,-92.501043,Chipotle,55901,Olmsted County
45.013360,-93.176039,Chipotle,55113,Ramsey County
44.777287,-93.415033,Chipotle,55378,Scott County
45.559059,-94.156311,Chipotle,56303,Stearns County
45.549893,-94.207890,Chipotle,56387,Stearns County
44.931106,-93.348048,Chipotle,55416,Hennepin County
44.917680,-93.188500,Chipotle,55116,Ramsey County
44.945363,-93.095436,Chipotle,55101,Ramsey County
44.940096,-93.136905,Chipotle,55102,Ramsey County
45.076797,-93.083348,Chipotle,55127,Ramsey County
44.971267,-93.496060,Chipotle,55391,Hennepin County
44.889908,-93.080755,Chipotle,55118,Dakota County
44.925710,-92.955200,Chipotle,55125,Washington County
44.944748,-92.904500,Chipotle,55125,Washington County
38.813577,-94.510327,Chipotle,64012,Cass County
38.750690,-90.427811,Chipotle,63044,St. Louis County
38.603125,-90.447794,Chipotle,63131,St. Louis County
38.804294,-90.308168,Chipotle,63033,St. Louis County
38.902761,-94.524745,Chipotle,64030,Jackson County
37.084789,-94.476562,Chipotle,64801,Jasper County
39.195820,-94.579117,Chipotle,64118,Clay County
39.046557,-94.447629,Chipotle,64052,Jackson County
39.173523,-94.535252,Chipotle,64117,Clay County
38.994927,-94.474227,Chipotle,64138,Jackson County
38.626232,-90.334412,Chipotle,63117,St. Louis County
38.632770,-90.234367,Chipotle,63103,St. Louis city
38.770889,-93.735458,Chipotle,64093,Johnson County
39.025364,-94.248641,Chipotle,64014,Jackson County
38.643515,-90.566386,Chipotle,63011,St. Louis County
38.650252,-90.338248,Chipotle,63105,St. Louis County
38.947703,-92.300874,Chipotle,65202,Boone County
38.948250,-92.327557,Chipotle,65202,Boone County
38.592485,-90.584174,Chipotle,63011,St. Louis County
39.033144,-94.357882,Chipotle,64015,Jackson County
38.578576,-92.192717,Chipotle,65109,Cole County
38.889914,-94.607327,Chipotle,64145,Jackson County
39.097660,-94.582369,Chipotle,64106,Jackson County
39.057122,-94.605173,Chipotle,64111,Jackson County
39.038909,-94.586933,Chipotle,64112,Jackson County
38.992441,-94.595412,Chipotle,64113,Jackson County
39.252519,-94.651047,Chipotle,64154,Platte County
38.561938,-90.407049,Chipotle,63122,St. Louis County
38.926222,-94.407524,Chipotle,64081,Jackson County
38.921063,-94.360055,Chipotle,64063,Jackson County
39.247844,-94.465597,Chipotle,64158,Clay County
38.778778,-90.699896,Chipotle,63368,St. Charles County
37.209669,-93.275638,Chipotle,65806,Greene County
37.153741,-93.295501,Chipotle,65807,Greene County
39.813893,-94.814866,Chipotle,64505,Buchanan County
38.671271,-90.434974,Chipotle,63141,St. Louis County
45.784174,-108.556617,Chipotle,59102,Yellowstone County
45.679363,-111.063125,Chipotle,59715,Gallatin County
46.892189,-114.039970,Chipotle,59801,Missoula County
35.749690,-78.831792,Chipotle,27511,Wake County
35.503843,-82.524171,Chipotle,28803,Buncombe County
35.586900,-82.587230,Chipotle,28806,Buncombe County
36.199028,-81.658222,Chipotle,28607,Watauga County
35.760250,-78.741096,Chipotle,27606,Wake County
35.936080,-79.024050,Chipotle,27514,Orange County
35.054955,-80.811111,Chipotle,28277,Mecklenburg County
35.151173,-80.828697,Chipotle,28210,Mecklenburg County
35.061287,-80.813894,Chipotle,28277,Mecklenburg County
35.314302,-80.741536,Chipotle,28262,Mecklenburg County
35.348980,-80.857620,Chipotle,28216,Mecklenburg County
35.438522,-80.605657,Chipotle,28083,Cabarrus County
35.372568,-80.722234,Chipotle,28027,Cabarrus County
35.953316,-78.991715,Chipotle,27707,Durham County
35.903719,-78.938698,Chipotle,27713,Durham County
35.068285,-78.966483,Chipotle,28303,Cumberland County
35.592792,-78.774366,Chipotle,27540,Wake County
35.609035,-78.573303,Chipotle,27520,Johnston County
35.260330,-81.133110,Chipotle,28054,Gaston County
35.374840,-77.945540,Chipotle,27531,Wayne County
36.067478,-79.805534,Chipotle,27403,Guilford County
35.584419,-77.370948,Chipotle,28590,Pitt County
35.985960,-80.024963,Chipotle,27265,Guilford County
36.033041,-79.959447,Chipotle,27282,Guilford County
35.443684,-80.878815,Chipotle,28031,Mecklenburg County
34.786362,-77.402267,Chipotle,28546,Onslow County
36.108437,-80.097687,Chipotle,27284,Forsyth County
35.595900,-80.875403,Chipotle,28117,Iredell County
35.844224,-78.835073,Chipotle,27560,Wake County
35.099781,-77.095238,Chipotle,28562,Craven County
35.082694,-80.879549,Chipotle,28134,Mecklenburg County
35.787341,-78.666521,Chipotle,27605,Wake County
35.867679,-78.582110,Chipotle,27616,Wake County
35.901836,-78.654945,Chipotle,27615,Wake County
35.506559,-78.322035,Chipotle,27577,Johnston County
34.213936,-77.902030,Chipotle,28403,New Hanover County
34.243354,-77.828603,Chipotle,28480,New Hanover County
35.551590,-77.404915,Chipotle,28590,Pitt County
35.764988,-78.783616,Chipotle,27511,Wake County
35.911700,-79.059530,Chipotle,27510,Orange County
35.207710,-80.860300,Chipotle,28203,Mecklenburg County
35.214076,-80.833606,Chipotle,28204,Mecklenburg County
35.171020,-80.807850,Chipotle,28211,Mecklenburg County
35.087814,-80.851114,Chipotle,28226,Mecklenburg County
36.008803,-78.944579,Chipotle,27705,Durham County
36.090650,-79.814000,Chipotle,27408,Guilford County
36.055320,-79.904470,Chipotle,27407,Guilford County
35.707336,-81.308357,Chipotle,28602,Catawba County
35.124300,-80.708200,Chipotle,28105,Mecklenburg County
35.865840,-78.620440,Chipotle,27609,Wake County
35.860230,-78.708180,Chipotle,27612,Wake County
36.069300,-80.297990,Chipotle,27103,Forsyth County
46.854998,-96.861724,Chipotle,58103,Cass County
40.815802,-96.702214,Chipotle,68508,Lancaster County
41.162128,-96.022842,Chipotle,68157,Sarpy County
41.157406,-95.935101,Chipotle,68147,Sarpy County
40.739424,-96.680914,Chipotle,68512,Lancaster County
40.813339,-96.623009,Chipotle,68505,Lancaster County
41.233863,-96.119757,Chipotle,68144,Douglas County
41.258771,-96.023742,Chipotle,68132,Douglas County
41.236880,-96.191729,Chipotle,68130,Douglas County
41.291349,-96.143563,Chipotle,68116,Douglas County
42.955616,-71.478364,Chipotle,03103,Hillsborough County
43.224291,-71.489543,Chipotle,03301,Merrimack County
42.925170,-72.289790,Chipotle,03446,Cheshire County
42.962379,-71.440503,Chipotle,03103,Hillsborough County
42.712365,-71.442587,Chipotle,03060,Hillsborough County
42.783167,-71.504767,Chipotle,03063,Hillsborough County
43.092843,-70.797470,Chipotle,03801,Rockingham County
40.644321,-74.577682,Chipotle,07939,Somerset County
40.059612,-74.140896,Chipotle,08723,Ocean County
40.631725,-74.304886,Chipotle,07066,Union County
39.837496,-75.090271,Chipotle,08078,Camden County
40.435848,-74.390210,Chipotle,08882,Middlesex County
40.807233,-73.989143,Chipotle,07010,Bergen County
40.548699,-74.334086,Chipotle,08840,Middlesex County
40.895039,-73.975955,Chipotle,07631,Bergen County
40.860921,-73.970985,Chipotle,07024,Bergen County
40.244247,-74.299378,Chipotle,07728,Monmouth County
40.909400,-74.030530,Chipotle,07661,Bergen County
40.739124,-74.030368,Chipotle,07030,Hudson County
40.415138,-74.158615,Chipotle,07730,Monmouth County
40.135481,-74.224260,Chipotle,07731,Monmouth County
40.726923,-74.034912,Chipotle,07310,Hudson County
40.892139,-74.072972,Chipotle,07607,Bergen County
40.760179,-74.416974,Chipotle,07940,Morris County
39.451763,-74.636630,Chipotle,08234,Atlantic County
39.968834,-74.919084,Chipotle,08054,Burlington County
40.705322,-74.404785,Chipotle,07974,Union County
40.734760,-74.170326,Chipotle,07102,Essex County
40.914832,-74.078924,Chipotle,07662,Bergen County
40.862935,-74.386720,Chipotle,07054,Morris County
40.309161,-74.665008,Chipotle,08542,Mercer County
41.071293,-74.139482,Chipotle,07446,Bergen County
40.350259,-74.069878,Chipotle,07701,Monmouth County
40.904638,-74.546480,Chipotle,07801,Morris County
40.138963,-74.061922,Chipotle,08750,Monmouth County
39.733780,-75.006890,Chipotle,08081,Camden County
40.553917,-74.431491,Chipotle,08854,Middlesex County
40.862159,-74.063669,Chipotle,07604,Bergen County
39.984238,-74.180733,Chipotle,08753,Ocean County
39.853070,-74.981636,Chipotle,08043,Camden County
40.642970,-74.411520,Chipotle,07062,Union County
40.804170,-74.247073,Chipotle,07052,Essex County
40.650929,-74.349122,Chipotle,07090,Union County
40.583933,-74.613640,Chipotle,08807,Somerset County
39.928207,-75.032106,Chipotle,08002,Camden County
40.829165,-74.136560,Chipotle,07014,Passaic County
40.802690,-74.362320,Chipotle,07936,Morris County
40.830966,-74.090457,Chipotle,07073,Bergen County
40.287407,-74.051457,Chipotle,07724,Monmouth County
39.880731,-74.921784,Chipotle,08053,Burlington County
39.961555,-74.929970,Chipotle,08054,Burlington County
40.496058,-74.443965,Chipotle,08904,Middlesex County
40.461300,-74.456400,Chipotle,08850,Middlesex County
40.919382,-74.064910,Chipotle,07662,Bergen County
40.786469,-74.045988,Chipotle,07094,Hudson County
40.686730,-74.315634,Chipotle,07081,Union County
40.888895,-74.250941,Chipotle,07512,Passaic County
40.848899,-74.292151,Chipotle,07006,Essex County
35.080623,-106.616676,Chipotle,87102,Bernalillo County
35.204418,-106.649009,Chipotle,87114,Bernalillo County
35.122924,-106.701505,Chipotle,87104,Bernalillo County
35.108246,-106.571312,Chipotle,87110,Bernalillo County
35.108920,-106.568507,Chipotle,87110,Bernalillo County
35.174981,-106.577551,Chipotle,87113,Bernalillo County
34.434380,-103.195860,Chipotle,88135,Curry County
36.162238,-115.062352,Chipotle,89110,Clark County
36.195785,-115.119780,Chipotle,89030,Clark County
36.127616,-115.168036,Chipotle,89109,Clark County
36.121243,-115.171349,Chipotle,89109,Clark County
36.115021,-115.155594,Chipotle,89109,Clark County
36.108742,-115.170402,Chipotle,89109,Clark County
36.039387,-115.192321,Chipotle,89139,Clark County
36.098827,-115.295731,Chipotle,89147,Clark County
36.270543,-115.206832,Chipotle,89031,Clark County
36.159240,-115.233360,Chipotle,89146,Clark County
36.163823,-115.156680,Chipotle,89106,Clark County
39.532387,-119.865578,Chipotle,89503,Washoe County
39.476780,-119.793260,Chipotle,89509,Washoe County
39.534111,-119.717796,Chipotle,89431,Washoe County
36.003536,-115.110039,Chipotle,89052,Clark County
36.063718,-115.041853,Chipotle,89014,Clark County
36.143173,-115.207894,Chipotle,89146,Clark County
36.118386,-115.171625,Chipotle,89109,Clark County
36.107197,-115.137334,Chipotle,89169,Clark County
36.085360,-115.118800,Chipotle,89120,Clark County
36.290718,-115.287780,Chipotle,89149,Clark County
36.195975,-115.249293,Chipotle,89128,Clark County
36.063723,-115.251902,Chipotle,89113,Clark County
36.055633,-115.172334,Chipotle,89123,Clark County
36.144617,-115.297184,Chipotle,89117,Clark County
36.240044,-115.115708,Chipotle,89030,Clark County
42.715824,-73.809590,Chipotle,12205,Albany County
42.681519,-73.838421,Chipotle,12203,Albany County
40.884259,-73.900829,Chipotle,10463,Bronx County
40.825580,-73.918980,Chipotle,10451,Bronx County
40.860306,-73.890826,Chipotle,10458,Bronx County
40.823570,-73.837395,Chipotle,10465,Bronx County
40.716469,-73.960116,Chipotle,11211,Kings County
40.608178,-73.959778,Chipotle,11223,Kings County
40.689270,-73.992599,Chipotle,11231,Kings County
40.671143,-73.977661,Chipotle,11215,Kings County
40.632025,-73.947654,Chipotle,11210,Kings County
40.583290,-73.986810,Chipotle,11224,Kings County
40.677250,-73.972120,Chipotle,11217,Kings County
40.692932,-73.970139,Chipotle,11205,Kings County
40.622047,-74.026611,Chipotle,11209,Kings County
40.608215,-73.919807,Chipotle,11229,Kings County
40.692588,-73.987206,Chipotle,11201,Kings County
41.317375,-74.125675,Chipotle,10917,Orange County
42.907928,-78.774318,Chipotle,14227,Erie County
41.002300,-73.855860,Chipotle,10706,Westchester County
40.725012,-73.550622,Chipotle,11554,Nassau County
40.734127,-73.871655,Chipotle,11373,Queens County
41.528010,-73.894370,Chipotle,12524,Dutchess County
40.720517,-73.845783,Chipotle,11375,Queens County
40.743094,-73.615163,Chipotle,11514,Nassau County
40.785829,-73.727855,Chipotle,11021,Nassau County
42.789795,-78.815299,Chipotle,14219,Erie County
40.828753,-73.201545,Chipotle,11788,Suffolk County
40.807366,-73.807366,Chipotle,11357,Queens County
42.430137,-76.507924,Chipotle,14853,Tompkins County
40.755249,-73.888161,Chipotle,11372,Queens County
41.966334,-73.989276,Chipotle,12449,Ulster County
40.870532,-73.128270,Chipotle,11755,Suffolk County
40.627167,-73.736790,Chipotle,11516,Nassau County
40.725675,-73.502530,Chipotle,11756,Nassau County
40.763969,-73.726603,Chipotle,11005,Queens County
43.184682,-76.246177,Chipotle,13041,Onondaga County
40.747279,-73.941849,Chipotle,11101,Queens County
40.656003,-73.549824,Chipotle,11566,Nassau County
41.455526,-74.384545,Chipotle,10941,Orange County
40.744294,-73.655757,Chipotle,11501,Nassau County
43.096800,-75.303715,Chipotle,13417,Oneida County
40.758042,-73.688720,Chipotle,11042,Nassau County
40.762661,-73.966194,Chipotle,10065,New York County
40.766030,-73.957279,Chipotle,10021,New York County
40.752956,-73.986686,Chipotle,10001,New York County
40.752617,-73.983406,Chipotle,10110,New York County
40.733038,-73.981034,Chipotle,10009,New York County
40.710341,-74.016346,Chipotle,10280,New York County
40.841403,-73.939624,Chipotle,10032,New York County
40.718746,-74.002045,Chipotle,10278,New York County
40.714550,-74.007124,Chipotle,10007,New York County
40.763191,-73.983070,Chipotle,10103,New York County
40.794994,-73.965637,Chipotle,10162,New York County
40.758725,-73.968712,Chipotle,10022,New York County
40.702835,-74.011404,Chipotle,10006,New York County
43.096878,-78.973869,Chipotle,14304,Niagara County
40.634783,-73.640514,Chipotle,11572,Nassau County
43.100480,-77.535479,Chipotle,14618,Monroe County
44.696831,-73.487801,Chipotle,12901,Clinton County
40.733464,-73.864130,Chipotle,11373,Queens County
40.925766,-72.692131,Chipotle,11933,Suffolk County
43.197872,-77.577735,Chipotle,14621,Monroe County
43.206928,-77.678139,Chipotle,14615,Monroe County
41.003819,-73.681934,Chipotle,10573,Westchester County
42.772723,-73.893427,Chipotle,12304,Schenectady County
40.865898,-73.038338,Chipotle,11784,Suffolk County
40.568193,-74.111875,Chipotle,10306,Richmond County
40.810287,-73.500445,Chipotle,11791,Nassau County
43.041604,-76.135868,Chipotle,13202,Onondaga County
43.042940,-76.068395,Chipotle,13214,Onondaga County
43.047653,-76.237335,Chipotle,13219,Onondaga County
42.980778,-78.868472,Chipotle,14217,Erie County
40.660709,-73.718860,Chipotle,11581,Nassau County
42.093038,-75.951640,Chipotle,13903,Broome County
43.018010,-77.437980,Chipotle,14564,Ontario County
40.694092,-73.507649,Chipotle,11783,Nassau County
43.976075,-75.946605,Chipotle,13601,Jefferson County
43.213250,-77.446712,Chipotle,14580,Monroe County
41.099847,-73.957040,Chipotle,10994,Rockland County
41.033264,-73.764236,Chipotle,10601,Westchester County
42.986284,-78.697137,Chipotle,14221,Erie County
40.929459,-73.852109,Chipotle,10704,Westchester County
42.999849,-78.822152,Chipotle,14226,Erie County
40.694237,-73.992279,Chipotle,11201,Kings County
40.742788,-73.618404,Chipotle,11514,Nassau County
42.863542,-73.780657,Chipotle,12065,Saratoga County
40.762399,-73.327370,Chipotle,11729,Suffolk County
40.732996,-73.423642,Chipotle,11735,Nassau County
40.774534,-73.528552,Chipotle,11801,Nassau County
40.824798,-73.412465,Chipotle,11747,Suffolk County
42.755877,-73.776564,Chipotle,12110,Albany County
40.706831,-74.006907,Chipotle,10005,New York County
40.709930,-74.006599,Chipotle,10038,New York County
40.766637,-73.962681,Chipotle,10065,New York County
40.734190,-73.988941,Chipotle,10003,New York County
40.739823,-73.985145,Chipotle,10003,New York County
40.759098,-73.982410,Chipotle,10020,New York County
40.763593,-73.977826,Chipotle,10103,New York County
40.741974,-74.001107,Chipotle,10011,New York County
40.777678,-73.954615,Chipotle,10028,New York County
40.752379,-73.974250,Chipotle,10017,New York County
40.757639,-73.971186,Chipotle,10154,New York County
40.729112,-73.988878,Chipotle,10003,New York County
40.704040,-74.013190,Chipotle,10006,New York County
40.728332,-74.005361,Chipotle,10012,New York County
40.786238,-73.978006,Chipotle,10023,New York County
40.744339,-73.988045,Chipotle,10001,New York County
40.765483,-73.981716,Chipotle,10103,New York County
40.755882,-73.980449,Chipotle,10110,New York County
40.778924,-73.981394,Chipotle,10023,New York County
40.751486,-73.980618,Chipotle,10110,New York County
40.715218,-74.011215,Chipotle,10007,New York County
40.714482,-74.006070,Chipotle,10007,New York County
40.746038,-73.994242,Chipotle,10001,New York County
40.804294,-73.966739,Chipotle,10025,New York County
40.752247,-73.993595,Chipotle,10119,New York County
40.757378,-73.974159,Chipotle,10171,New York County
40.748085,-73.984822,Chipotle,10001,New York County
40.745228,-73.982833,Chipotle,10001,New York County
40.752949,-73.989084,Chipotle,10119,New York County
40.736727,-73.997299,Chipotle,10011,New York County
40.730940,-73.993226,Chipotle,10003,New York County
40.744325,-73.976198,Chipotle,10017,New York County
40.759713,-73.991692,Chipotle,10018,New York County
40.741819,-73.993595,Chipotle,10011,New York County
40.722539,-73.997639,Chipotle,10012,New York County
40.763061,-73.985540,Chipotle,10018,New York County
40.737340,-73.990251,Chipotle,10003,New York County
40.753624,-73.981234,Chipotle,10110,New York County
43.123368,-77.617984,Chipotle,14620,Monroe County
43.087063,-77.627054,Chipotle,14623,Monroe County
43.104311,-73.742183,Chipotle,12866,Saratoga County
40.718623,-73.591063,Chipotle,11556,Nassau County
41.073019,-81.513352,Chipotle,44311,Summit County
40.983874,-81.492029,Chipotle,44319,Summit County
40.901853,-81.129408,Chipotle,44601,Stark County
39.046140,-84.244548,Chipotle,45245,Clermont County
41.417452,-82.208769,Chipotle,44053,Lorain County
41.099596,-80.764965,Chipotle,44515,Mahoning County
39.776283,-84.077004,Chipotle,45431,Montgomery County
41.313972,-81.654846,Chipotle,44147,Cuyahoga County
41.238159,-81.806458,Chipotle,44212,Medina County
39.854943,-82.826024,Chipotle,43136,Fairfield County
41.025160,-80.735280,Chipotle,44406,Mahoning County
39.145393,-84.431839,Chipotle,45209,Hamilton County
39.094364,-84.615980,Chipotle,45238,Hamilton County
39.582654,-82.951590,Chipotle,43113,Pickaway County
41.509275,-81.604836,Chipotle,44106,Cuyahoga County
41.450584,-81.814204,Chipotle,44111,Cuyahoga County
41.499542,-81.691628,Chipotle,44115,Cuyahoga County
39.983153,-83.004696,Chipotle,43201,Franklin County
40.089421,-82.823195,Chipotle,43054,Franklin County
41.148326,-81.506674,Chipotle,44223,Summit County
39.856044,-84.276593,Chipotle,45415,Montgomery County
40.267156,-83.070412,Chipotle,43015,Delaware County
41.615286,-81.517600,Chipotle,44132,Cuyahoga County
39.143429,-84.387220,Chipotle,45227,Hamilton County
40.019691,-82.866491,Chipotle,43230,Franklin County
41.539330,-81.453270,Chipotle,44143,Cuyahoga County
41.099597,-81.386585,Chipotle,44278,Summit County
39.377640,-84.377769,Chipotle,45069,Butler County
40.791379,-84.214264,Chipotle,45809,Allen County
40.237597,-83.349832,Chipotle,43040,Union County
39.355954,-84.259381,Chipotle,45034,Warren County
40.795565,-81.526919,Chipotle,44646,Stark County
39.598374,-84.235038,Chipotle,45342,Montgomery County
39.441824,-84.330264,Chipotle,45050,Butler County
40.399315,-82.459351,Chipotle,43050,Knox County
40.892446,-81.406236,Chipotle,44720,Stark County
41.385957,-81.975890,Chipotle,44039,Lorain County
41.548916,-83.600281,Chipotle,43551,Wood County
41.416340,-82.671934,Chipotle,44870,Erie County
40.287018,-84.184448,Chipotle,45365,Shelby County
41.501369,-81.538354,Chipotle,44118,Cuyahoga County
40.071873,-80.866859,Chipotle,43950,Belmont County
41.112530,-83.201760,Chipotle,44883,Seneca County
41.308342,-81.438945,Chipotle,44087,Summit County
41.049949,-81.728964,Chipotle,44281,Medina County
39.973606,-82.898681,Chipotle,43213,Franklin County
41.462395,-81.480216,Chipotle,44122,Cuyahoga County
39.689765,-83.962692,Chipotle,45385,Greene County
41.135763,-81.638963,Chipotle,44333,Summit County
41.096855,-81.543846,Chipotle,44302,Summit County
39.327793,-82.101479,Chipotle,45701,Athens County
41.458942,-82.017769,Chipotle,44011,Lorain County
39.770635,-84.054081,Chipotle,45431,Montgomery County
39.694847,-84.103149,Chipotle,45440,Montgomery County
39.957237,-82.932468,Chipotle,43209,Franklin County
41.024212,-80.646095,Chipotle,44512,Mahoning County
41.374363,-83.625974,Chipotle,43402,Wood County
41.423609,-81.758951,Chipotle,44144,Cuyahoga County
40.796547,-81.423395,Chipotle,44710,Stark County
40.854891,-81.432180,Chipotle,44718,Stark County
39.645300,-84.163400,Chipotle,45459,Montgomery County
39.361795,-82.976334,Chipotle,45601,Ross County
39.100988,-84.512819,Chipotle,45203,Hamilton County
39.271176,-84.376005,Chipotle,45241,Hamilton County
39.128073,-84.519444,Chipotle,45219,Hamilton County
39.274288,-84.395416,Chipotle,45241,Hamilton County
39.134661,-84.503453,Chipotle,45219,Hamilton County
39.091610,-84.263824,Chipotle,45245,Clermont County
39.157630,-84.457928,Chipotle,45212,Hamilton County
39.071837,-84.310735,Chipotle,45245,Clermont County
39.131663,-84.609872,Chipotle,45238,Hamilton County
39.191259,-84.657376,Chipotle,45248,Hamilton County
39.151504,-84.627894,Chipotle,45211,Hamilton County
39.200079,-84.377647,Chipotle,45236,Hamilton County
39.219254,-84.518227,Chipotle,45224,Hamilton County
39.243018,-84.594489,Chipotle,45251,Hamilton County
41.461220,-81.690308,Chipotle,44109,Cuyahoga County
41.508124,-81.580679,Chipotle,44118,Cuyahoga County
40.143594,-82.989601,Chipotle,43240,Delaware County
39.988749,-83.041064,Chipotle,43212,Franklin County
39.919963,-83.126957,Chipotle,43123,Franklin County
40.114135,-83.011054,Chipotle,43085,Franklin County
39.997703,-83.007460,Chipotle,43201,Franklin County
39.988735,-83.151592,Chipotle,43228,Franklin County
40.060286,-82.969590,Chipotle,43229,Franklin County
40.087154,-82.965943,Chipotle,43229,Franklin County
40.021561,-83.060440,Chipotle,43221,Franklin County
39.970664,-83.004205,Chipotle,43201,Franklin County
40.049201,-82.914378,Chipotle,43224,Franklin County
40.053978,-83.020151,Chipotle,43214,Franklin County
39.952100,-82.998483,Chipotle,43206,Franklin County
40.077207,-83.133134,Chipotle,43016,Franklin County
40.102037,-83.091020,Chipotle,43235,Franklin County
39.981997,-82.819230,Chipotle,43213,Franklin County
40.063009,-83.039867,Chipotle,43214,Franklin County
41.119373,-81.479202,Chipotle,44310,Summit County
39.741754,-84.182431,Chipotle,45410,Montgomery County
39.652869,-84.109660,Chipotle,45440,Montgomery County
39.845168,-84.192340,Chipotle,45414,Montgomery County
40.103020,-83.157964,Chipotle,43016,Franklin County
41.397128,-82.107164,Chipotle,44035,Lorain County
39.335087,-84.525970,Chipotle,45015,Butler County
41.461438,-81.853079,Chipotle,44116,Cuyahoga County
41.055832,-83.591301,Chipotle,44804,Hancock County
39.305705,-84.518530,Chipotle,45240,Hamilton County
40.055518,-82.865419,Chipotle,43230,Franklin County
41.409039,-81.616278,Chipotle,44125,Cuyahoga County
39.878563,-83.042985,Chipotle,43123,Franklin County
39.390640,-84.504509,Chipotle,45011,Butler County
39.260540,-84.795700,Chipotle,45030,Hamilton County
40.039552,-82.428273,Chipotle,43056,Licking County
40.028864,-83.116816,Chipotle,43221,Franklin County
41.612343,-83.700523,Chipotle,43614,Lucas County
39.866459,-84.138092,Chipotle,45424,Montgomery County
41.240396,-81.445779,Chipotle,44236,Summit County
41.394540,-81.642041,Chipotle,44131,Cuyahoga County
39.617883,-83.603932,Chipotle,43128,Fayette County
41.153886,-81.352476,Chipotle,44243,Portage County
39.684503,-84.167785,Chipotle,45429,Montgomery County
41.484940,-81.800703,Chipotle,44107,Cuyahoga County
39.731117,-82.613930,Chipotle,43130,Fairfield County
41.501437,-81.504662,Chipotle,44124,Cuyahoga County
39.203984,-84.368853,Chipotle,45236,Hamilton County
40.691490,-82.512680,Chipotle,44907,Richland County
40.772838,-82.590218,Chipotle,44906,Richland County
40.580909,-83.082771,Chipotle,43302,Marion County
39.347400,-84.313000,Chipotle,45040,Warren County
41.576407,-83.661329,Chipotle,43537,Lucas County
41.522847,-81.436281,Chipotle,44040,Cuyahoga County
41.151077,-81.863498,Chipotle,44256,Medina County
41.657342,-81.377274,Chipotle,44094,Lake County
41.676594,-81.310699,Chipotle,44060,Lake County
41.371763,-81.826351,Chipotle,44142,Cuyahoga County
39.187693,-84.258563,Chipotle,45111,Hamilton County
40.083069,-82.427635,Chipotle,43055,Licking County
41.418041,-81.910773,Chipotle,44070,Cuyahoga County
41.313139,-81.525669,Chipotle,44067,Summit County
39.510365,-84.742523,Chipotle,45056,Butler County
41.361585,-81.685652,Chipotle,44134,Cuyahoga County
41.384485,-81.738146,Chipotle,44129,Cuyahoga County
40.165964,-83.021218,Chipotle,43035,Delaware County
40.156737,-83.091598,Chipotle,43065,Delaware County
39.927527,-82.829234,Chipotle,43232,Franklin County
39.940997,-82.790895,Chipotle,43068,Franklin County
39.292213,-84.393730,Chipotle,45241,Hamilton County
41.385140,-81.440330,Chipotle,44139,Cuyahoga County
39.563499,-84.264989,Chipotle,45066,Warren County
39.285255,-84.467357,Chipotle,45246,Hamilton County
39.932995,-83.833378,Chipotle,45502,Clark County
41.156246,-81.404709,Chipotle,44262,Summit County
41.251161,-81.364773,Chipotle,44241,Portage County
41.306392,-81.835016,Chipotle,44149,Cuyahoga County
41.311932,-81.820175,Chipotle,44136,Cuyahoga County
41.677155,-83.622939,Chipotle,43606,Lucas County
41.693216,-83.644680,Chipotle,43623,Lucas County
41.673676,-83.716446,Chipotle,43617,Lucas County
40.056327,-84.242021,Chipotle,45373,Miami County
41.217300,-80.740633,Chipotle,44484,Trumbull County
41.450924,-81.497516,Chipotle,44122,Cuyahoga County
39.353562,-84.362543,Chipotle,45069,Butler County
39.324582,-84.429969,Chipotle,45069,Butler County
40.146860,-82.923760,Chipotle,43240,Delaware County
40.108961,-82.925498,Chipotle,43081,Franklin County
41.457451,-81.950423,Chipotle,44145,Cuyahoga County
41.626957,-81.429624,Chipotle,44095,Lake County
40.848654,-81.945993,Chipotle,44691,Wayne County
39.988956,-82.023295,Chipotle,43701,Muskingum County
35.319873,-97.499867,Chipotle,73160,Cleveland County
35.238854,-97.482181,Chipotle,73069,Cleveland County
35.615143,-97.549565,Chipotle,73134,Oklahoma County
36.075706,-95.922722,Chipotle,74136,Tulsa County
35.637159,-97.483828,Chipotle,73003,Oklahoma County
35.212067,-97.443527,Chipotle,73071,Cleveland County
35.530403,-97.574738,Chipotle,73112,Oklahoma County
36.126892,-97.054296,Chipotle,74074,Payne County
36.060375,-95.856271,Chipotle,74133,Tulsa County
36.140720,-95.968559,Chipotle,74104,Tulsa County
36.104360,-95.911837,Chipotle,74135,Tulsa County
44.054975,-121.303480,Chipotle,97701,Deschutes County
44.040020,-123.074661,Chipotle,97401,Lane County
45.499900,-122.411934,Chipotle,97080,Multnomah County
45.426816,-122.488258,Chipotle,97089,Clackamas County
45.532977,-122.934971,Chipotle,97006,Washington County
45.010330,-122.998473,Chipotle,97303,Marion County
45.422901,-122.739937,Chipotle,97035,Clackamas County
42.340752,-122.899353,Chipotle,97501,Jackson County
45.527554,-122.815506,Chipotle,97229,Washington County
45.523361,-122.690949,Chipotle,97205,Multnomah County
45.574587,-122.562374,Chipotle,97220,Multnomah County
44.899960,-123.039390,Chipotle,97302,Marion County
45.365805,-122.836277,Chipotle,97224,Washington County
44.073275,-123.042632,Chipotle,97401,Lane County
45.303291,-122.766380,Chipotle,97070,Clackamas County
45.151751,-122.884169,Chipotle,97026,Marion County
45.437592,-122.828997,Chipotle,97223,Washington County
45.495368,-122.809285,Chipotle,97005,Washington County
45.454374,-122.777081,Chipotle,97223,Washington County
44.567810,-123.274567,Chipotle,97331,Benton County
44.067619,-123.072090,Chipotle,97401,Lane County
45.435453,-122.578934,Chipotle,97222,Clackamas County
45.535546,-122.876906,Chipotle,97006,Washington County
45.530148,-122.683513,Chipotle,97209,Multnomah County
45.510104,-122.684349,Chipotle,97201,Multnomah County
45.517307,-122.675415,Chipotle,97204,Multnomah County
45.534263,-122.658379,Chipotle,97232,Multnomah County
44.941887,-122.983020,Chipotle,97301,Marion County
45.382848,-122.747621,Chipotle,97062,Washington County
40.123311,-75.117201,Chipotle,19001,Montgomery County
40.639771,-75.434540,Chipotle,18109,Lehigh County
40.597949,-75.526529,Chipotle,18104,Lehigh County
40.565781,-75.567490,Chipotle,18106,Lehigh County
40.488362,-78.386850,Chipotle,16602,Blair County
40.354316,-80.114787,Chipotle,15017,Allegheny County
40.238475,-76.934533,Chipotle,17011,Cumberland County
40.273981,-80.126654,Chipotle,15055,Washington County
40.190888,-77.191449,Chipotle,17015,Cumberland County
39.940335,-77.628371,Chipotle,17201,Franklin County
40.675461,-80.098793,Chipotle,15086,Allegheny County
41.466375,-75.637152,Chipotle,18519,Lackawanna County
40.323475,-75.130066,Chipotle,18901,Bucks County
40.328880,-79.856911,Chipotle,15133,Allegheny County
40.649856,-75.294473,Chipotle,18020,Northampton County
42.105431,-80.131531,Chipotle,16505,Erie County
42.058022,-80.090140,Chipotle,16508,Erie County
40.032545,-75.631206,Chipotle,19341,Chester County
40.143777,-75.168128,Chipotle,19025,Montgomery County
39.874760,-75.543144,Chipotle,19373,Delaware County
39.828291,-76.999609,Chipotle,17344,Adams County
40.278008,-76.827696,Chipotle,17109,Dauphin County
39.966724,-75.298306,Chipotle,19083,Delaware County
41.234726,-80.449670,Chipotle,16148,Mercer County
40.283928,-76.654643,Chipotle,17036,Dauphin County
40.613045,-79.174660,Chipotle,15701,Indiana County
40.085446,-75.393246,Chipotle,19406,Montgomery County
40.088451,-75.382690,Chipotle,19406,Montgomery County
40.077044,-76.326471,Chipotle,17520,Lancaster County
40.317873,-76.423946,Chipotle,17042,Lebanon County
40.981591,-76.883398,Chipotle,17886,Union County
40.246507,-77.014905,Chipotle,17050,Cumberland County
40.439182,-79.766685,Chipotle,15146,Allegheny County
39.986715,-75.403548,Chipotle,19073,Delaware County
39.979267,-75.153107,Chipotle,19122,Philadelphia County
39.951702,-75.168190,Chipotle,19103,Philadelphia County
40.047707,-75.056862,Chipotle,19149,Philadelphia County
39.957200,-75.191890,Chipotle,19104,Philadelphia County
40.075250,-75.032350,Chipotle,19115,Philadelphia County
40.487324,-79.884745,Chipotle,15206,Allegheny County
40.391971,-80.061236,Chipotle,15243,Allegheny County
40.347730,-80.053484,Chipotle,15228,Allegheny County
40.114962,-75.285483,Chipotle,19462,Montgomery County
40.359090,-75.986038,Chipotle,19610,Berks County
39.766285,-76.681015,Chipotle,17361,York County
39.937410,-75.354278,Chipotle,19064,Delaware County
39.916557,-75.333672,Chipotle,19070,Delaware County
40.137356,-74.964186,Chipotle,19053,Bucks County
40.197307,-75.083230,Chipotle,18974,Bucks County
40.073523,-75.429318,Chipotle,19087,Chester County
40.043813,-75.380758,Chipotle,19087,Chester County
40.622993,-80.054329,Chipotle,15090,Allegheny County
40.629725,-75.481140,Chipotle,18102,Lehigh County
41.243094,-75.842242,Chipotle,18705,Luzerne County
39.937750,-76.693429,Chipotle,17402,York County
39.979790,-76.751910,Chipotle,17404,York County
40.009378,-75.293679,Chipotle,19003,Montgomery County
40.300919,-79.561516,Chipotle,15634,Westmoreland County
40.310242,-76.802078,Chipotle,17109,Dauphin County
40.236797,-75.240318,Chipotle,19454,Montgomery County
39.948889,-75.160670,Chipotle,19107,Philadelphia County
39.949556,-75.166638,Chipotle,19109,Philadelphia County
39.954117,-75.201485,Chipotle,19104,Philadelphia County
40.006751,-75.214232,Chipotle,19127,Philadelphia County
39.894712,-75.229287,Chipotle,19153,Philadelphia County
40.440608,-80.001864,Chipotle,15219,Allegheny County
40.449599,-80.174550,Chipotle,15071,Allegheny County
40.440803,-79.958272,Chipotle,15213,Allegheny County
40.454262,-79.947510,Chipotle,15224,Allegheny County
40.528767,-80.008011,Chipotle,15229,Allegheny County
40.332901,-79.945946,Chipotle,15236,Allegheny County
40.568630,-80.021790,Chipotle,15237,Allegheny County
40.793395,-77.860001,Chipotle,16802,Centre County
40.227170,-75.134939,Chipotle,18976,Bucks County
39.968563,-75.587563,Chipotle,19380,Chester County
40.143769,-75.122153,Chipotle,19090,Montgomery County
39.982506,-76.670303,Chipotle,17406,York County
41.814976,-71.498253,Chipotle,02919,Providence County
41.517021,-71.299651,Chipotle,02842,Newport County
41.828159,-71.400657,Chipotle,02903,Providence County
41.870189,-71.521669,Chipotle,02828,Providence County
41.732117,-71.436604,Chipotle,02888,Kent County
41.712347,-71.489131,Chipotle,02893,Kent County
41.761765,-71.458862,Chipotle,02920,Providence County
33.521344,-81.718436,Chipotle,29801,Aiken County
34.551704,-82.677916,Chipotle,29670,Anderson County
32.247805,-80.833142,Chipotle,29910,Beaufort County
32.785662,-79.936124,Chipotle,29401,Charleston County
34.684521,-82.837036,Chipotle,29631,Pickens County
34.072755,-81.158493,Chipotle,29212,Lexington County
34.018555,-80.965351,Chipotle,29206,Richland County
33.982880,-80.966230,Chipotle,29205,Richland County
33.998579,-81.042524,Chipotle,29201,Richland County
34.189129,-79.834699,Chipotle,29501,Florence County
32.816960,-79.844770,Chipotle,29464,Charleston County
33.644261,-78.987335,Chipotle,29575,Horry County
33.705152,-78.921524,Chipotle,29577,Horry County
33.749635,-78.815621,Chipotle,29572,Horry County
32.873916,-80.020769,Chipotle,29405,Charleston County
32.935634,-80.038538,Chipotle,29406,Charleston County
33.841992,-78.662127,Chipotle,29566,Horry County
34.937212,-81.984555,Chipotle,29301,Spartanburg County
33.034823,-80.158443,Chipotle,29456,Dorchester County
34.825716,-82.299243,Chipotle,29615,Greenville County
34.849021,-82.338242,Chipotle,29607,Greenville County
36.029550,-86.790991,Chipotle,37027,Williamson County
36.598965,-87.285376,Chipotle,37042,Montgomery County
35.144333,-89.795649,Chipotle,38018,Shelby County
35.945704,-86.825277,Chipotle,37067,Williamson County
35.899701,-84.160498,Chipotle,37932,Knox County
35.956558,-83.932789,Chipotle,37916,Knox County
35.915337,-84.089950,Chipotle,37923,Knox County
36.026344,-83.927834,Chipotle,37917,Knox County
35.928073,-84.037562,Chipotle,37909,Knox County
35.200877,-89.792018,Chipotle,38133,Shelby County
35.101706,-89.867924,Chipotle,38117,Shelby County
35.855192,-86.430408,Chipotle,37129,Rutherford County
36.147207,-86.799368,Chipotle,37203,Davidson County
36.132611,-86.893651,Chipotle,37209,Davidson County
36.129402,-86.853287,Chipotle,37205,Davidson County
36.004045,-84.248968,Chipotle,37830,Anderson County
35.780312,-83.610573,Chipotle,37862,Sevier County
36.144444,-86.813185,Chipotle,37212,Davidson County
36.105879,-86.813793,Chipotle,37212,Davidson County
32.405440,-99.765430,Chipotle,79605,Taylor County
32.953365,-96.852805,Chipotle,75001,Dallas County
33.102532,-96.678788,Chipotle,75013,Collin County
35.188638,-101.866305,Chipotle,79102,Potter County
32.722594,-97.114646,Chipotle,76010,Tarrant County
32.768265,-97.096954,Chipotle,76006,Tarrant County
32.666016,-97.133949,Chipotle,76015,Tarrant County
30.242000,-97.728293,Chipotle,78741,Travis County
30.247260,-97.775461,Chipotle,78704,Travis County
30.393072,-97.732749,Chipotle,78759,Travis County
30.480063,-97.799920,Chipotle,78613,Williamson County
30.308697,-97.685711,Chipotle,78723,Travis County
30.412299,-97.688600,Chipotle,78727,Travis County
30.285461,-97.741771,Chipotle,78705,Travis County
30.358467,-97.735542,Chipotle,78757,Travis County
30.274218,-97.800162,Chipotle,78746,Travis County
30.312098,-97.738540,Chipotle,78756,Travis County
30.229741,-97.820175,Chipotle,78745,Travis County
30.201671,-97.770034,Chipotle,78745,Travis County
30.445711,-97.743489,Chipotle,78729,Williamson County
30.269905,-97.742114,Chipotle,78701,Travis County
30.160896,-97.789736,Chipotle,78748,Travis County
29.777821,-94.977613,Chipotle,77520,Harris County
30.115460,-94.168870,Chipotle,77706,Jefferson County
32.592902,-96.937624,Chipotle,75104,Dallas County
30.524128,-97.820453,Chipotle,78613,Williamson County
30.637859,-96.316541,Chipotle,77802,Brazos County
30.621894,-96.341747,Chipotle,77840,Brazos County
30.315593,-95.473130,Chipotle,77301,Montgomery County
30.206370,-95.463710,Chipotle,77384,Montgomery County
32.968994,-96.993385,Chipotle,75019,Dallas County
31.120739,-97.868560,Chipotle,76539,Lampasas County
27.708433,-97.368935,Chipotle,78412,Nueces County
29.972815,-95.691231,Chipotle,77429,Harris County
29.992254,-95.750591,Chipotle,77433,Harris County
32.921946,-96.838307,Chipotle,75244,Dallas County
32.836110,-97.132910,Chipotle,76022,Tarrant County
32.861305,-96.856170,Chipotle,75220,Dallas County
32.869863,-96.770764,Chipotle,75225,Dallas County
32.907362,-96.769391,Chipotle,75251,Dallas County
32.911721,-96.803765,Chipotle,75230,Dallas County
32.999036,-96.797234,Chipotle,75252,Collin County
32.780019,-96.806277,Chipotle,75270,Dallas County
32.816914,-96.753304,Chipotle,75214,Dallas County
32.797862,-96.801331,Chipotle,75201,Dallas County
32.816951,-96.811355,Chipotle,75219,Dallas County
32.821121,-96.788216,Chipotle,75205,Dallas County
32.953863,-96.818235,Chipotle,75254,Dallas County
32.857248,-96.769916,Chipotle,75225,Dallas County
32.863622,-96.806573,Chipotle,75225,Dallas County
29.663867,-95.115715,Chipotle,77505,Harris County
33.214654,-97.145531,Chipotle,76201,Denton County
33.229784,-97.170183,Chipotle,76201,Denton County
33.192197,-97.098086,Chipotle,76205,Denton County
26.303769,-98.178732,Chipotle,78539,Hidalgo County
31.928926,-106.429175,Chipotle,79924,El Paso County
31.727191,-106.302934,Chipotle,79907,El Paso County
31.778648,-106.504463,Chipotle,79902,El Paso County
31.834375,-106.544956,Chipotle,79912,El Paso County
31.770128,-106.368172,Chipotle,79925,El Paso County
32.331718,-96.618118,Chipotle,75119,Ellis County
32.869186,-97.101680,Chipotle,76039,Tarrant County
33.068765,-97.081943,Chipotle,75077,Denton County
31.813600,-106.412003,Chipotle,79906,El Paso County
31.130838,-97.797637,Chipotle,76541,Bell County
32.732833,-97.343093,Chipotle,76104,Tarrant County
32.914735,-97.316337,Chipotle,76244,Tarrant County
32.751237,-97.360313,Chipotle,76107,Tarrant County
32.706427,-97.388266,Chipotle,76109,Tarrant County
32.686482,-97.413961,Chipotle,76109,Tarrant County
32.726396,-97.421220,Chipotle,76116,Tarrant County
33.176689,-96.732880,Chipotle,75070,Collin County
33.107973,-96.805836,Chipotle,75024,Collin County
32.955387,-96.617401,Chipotle,75040,Dallas County
30.648939,-97.677374,Chipotle,78626,Williamson County
32.434208,-97.784172,Chipotle,76048,Hood County
32.673615,-97.006911,Chipotle,75052,Dallas County
32.961720,-97.041809,Chipotle,76051,Tarrant County
33.097001,-96.110834,Chipotle,75402,Hunt County
31.071768,-97.664364,Chipotle,76548,Bell County
26.186603,-97.721511,Chipotle,78550,Cameron County
29.812073,-95.422218,Chipotle,77008,Harris County
29.769820,-95.181720,Chipotle,77015,Harris County
29.774456,-95.397524,Chipotle,77007,Harris County
29.746311,-95.376518,Chipotle,77002,Harris County
29.779474,-95.535978,Chipotle,77024,Harris County
29.740623,-95.461341,Chipotle,77027,Harris County
29.877125,-95.645327,Chipotle,77095,Harris County
29.698713,-95.518914,Chipotle,77036,Harris County
29.903956,-95.552424,Chipotle,77064,Harris County
29.722719,-95.688072,Chipotle,77094,Harris County
29.996525,-95.575989,Chipotle,77070,Harris County
29.768027,-95.623843,Chipotle,77077,Harris County
29.736620,-95.587047,Chipotle,77042,Harris County
29.787236,-95.718893,Chipotle,77094,Harris County
29.772415,-95.516551,Chipotle,77024,Harris County
29.915762,-95.617590,Chipotle,77065,Harris County
29.852682,-95.511481,Chipotle,77040,Harris County
29.747883,-95.410717,Chipotle,77019,Harris County
29.732624,-95.438831,Chipotle,77046,Harris County
29.731874,-95.466179,Chipotle,77027,Harris County
29.722429,-95.418617,Chipotle,77005,Harris County
29.809011,-95.162782,Chipotle,77049,Harris County
29.709509,-95.401141,Chipotle,77030,Harris County
29.964710,-95.541836,Chipotle,77069,Harris County
29.737352,-95.514346,Chipotle,77063,Harris County
29.690222,-95.417335,Chipotle,77054,Harris County
29.760387,-95.363242,Chipotle,77201,Harris County
30.005122,-95.270610,Chipotle,77338,Harris County
29.998014,-95.162663,Chipotle,77346,Harris County
30.710341,-95.565101,Chipotle,77320,Walker County
32.824100,-97.199900,Chipotle,76180,Tarrant County
32.849846,-96.976330,Chipotle,75062,Dallas County
32.921760,-96.993873,Chipotle,75063,Dallas County
32.844818,-96.992101,Chipotle,75061,Dallas County
32.912304,-96.958953,Chipotle,75063,Dallas County
29.761438,-95.751408,Chipotle,77450,Harris County
29.786019,-95.792069,Chipotle,77494,Fort Bend County
32.810509,-97.430041,Chipotle,76127,Tarrant County
27.573366,-99.473953,Chipotle,78040,Webb County
33.069028,-96.880690,Chipotle,75056,Denton County
33.000839,-96.962360,Chipotle,75067,Denton County
33.046127,-97.010464,Chipotle,75057,Denton County
32.542149,-94.733536,Chipotle,75601,Gregg County
33.587952,-101.869316,Chipotle,79401,Lubbock County
33.568464,-101.944542,Chipotle,79414,Lubbock County
33.519557,-101.904994,Chipotle,79414,Lubbock County
31.311300,-94.721298,Chipotle,75901,Angelina County
32.595793,-97.147401,Chipotle,76063,Tarrant County
26.194603,-98.259991,Chipotle,78501,Hidalgo County
26.268379,-98.218468,Chipotle,78504,Hidalgo County
33.217011,-96.639369,Chipotle,75069,Collin County
33.174086,-96.641517,Chipotle,75069,Collin County
32.810526,-96.625095,Chipotle,75150,Dallas County
32.035995,-102.123210,Chipotle,79703,Midland County
29.564567,-95.563473,Chipotle,77459,Fort Bend County
33.011592,-96.611195,Chipotle,75094,Collin County
29.701112,-98.094860,Chipotle,78130,Comal County
32.841030,-97.238182,Chipotle,76180,Tarrant County
32.824100,-97.187470,Chipotle,76053,Tarrant County
31.889690,-102.351322,Chipotle,79762,Ector County
29.650864,-95.153072,Chipotle,77505,Harris County
29.556101,-95.385172,Chipotle,77584,Brazoria County
29.555269,-95.264183,Chipotle,77581,Brazoria County
30.463269,-97.597466,Chipotle,78660,Travis County
26.105055,-98.219945,Chipotle,78557,Hidalgo County
33.078022,-96.819191,Chipotle,75024,Collin County
33.015230,-96.708982,Chipotle,75075,Collin County
33.036556,-96.806618,Chipotle,75093,Collin County
33.027506,-96.832544,Chipotle,75093,Collin County
29.914302,-94.030063,Chipotle,77627,Jefferson County
32.949593,-96.768997,Chipotle,75254,Dallas County
32.975224,-96.720981,Chipotle,75080,Dallas County
32.903233,-96.454558,Chipotle,75087,Rockwall County
30.556641,-97.687500,Chipotle,78665,Williamson County
30.481799,-97.690401,Chipotle,78728,Travis County
32.907735,-96.570057,Chipotle,75088,Dallas County
29.566230,-98.484850,Chipotle,78232,Bexar County
29.193701,-98.479776,Chipotle,78264,Bexar County
29.510000,-98.578589,Chipotle,78229,Bexar County
29.422917,-98.483933,Chipotle,78205,Bexar County
29.547534,-98.661434,Chipotle,78249,Bexar County
29.551983,-98.585487,Chipotle,78230,Bexar County
29.609196,-98.509877,Chipotle,78248,Bexar County
29.462038,-98.465977,Chipotle,78212,Bexar County
29.520102,-98.502573,Chipotle,78216,Bexar County
29.497449,-98.479769,Chipotle,78209,Bexar County
29.436083,-98.649795,Chipotle,78251,Bexar County
29.829010,-97.986969,Chipotle,78666,Hays County
29.885641,-97.940616,Chipotle,78666,Hays County
29.571691,-98.326656,Chipotle,78148,Bexar County
33.682346,-96.608741,Chipotle,75020,Grayson County
32.937466,-97.186882,Chipotle,76248,Tarrant County
32.938612,-97.103779,Chipotle,76051,Tarrant County
30.065153,-95.438112,Chipotle,77388,Harris County
30.094180,-95.485640,Chipotle,77389,Harris County
29.563308,-95.683389,Chipotle,77479,Fort Bend County
29.594109,-95.622682,Chipotle,77478,Fort Bend County
31.091812,-97.384598,Chipotle,76502,Bell County
33.457442,-94.087821,Chipotle,75569,Bowie County
30.089400,-95.635364,Chipotle,77375,Harris County
32.299531,-95.300808,Chipotle,75701,Smith County
28.860731,-96.996101,Chipotle,77904,Victoria County
31.552939,-97.125508,Chipotle,76701,McLennan County
31.530625,-97.186673,Chipotle,76710,McLennan County
32.882400,-97.260000,Chipotle,76148,Tarrant County
32.422634,-96.838226,Chipotle,75165,Ellis County
32.729525,-97.788092,Chipotle,76086,Parker County
29.547842,-95.130981,Chipotle,77598,Harris County
26.172315,-98.009829,Chipotle,78596,Hidalgo County
33.871967,-98.533852,Chipotle,76308,Wichita County
30.173190,-95.461379,Chipotle,77380,Montgomery County
40.392174,-111.796440,Chipotle,84003,Utah County
40.984566,-111.881004,Chipotle,84014,Davis County
41.089125,-111.984910,Chipotle,84041,Davis County
40.432257,-111.888097,Chipotle,84043,Utah County
40.660872,-111.888379,Chipotle,84107,Salt Lake County
40.273106,-111.677653,Chipotle,84097,Utah County
37.111885,-113.554497,Chipotle,84765,Washington County
40.625363,-111.851073,Chipotle,84093,Salt Lake County
40.725578,-111.862118,Chipotle,84105,Salt Lake County
40.562790,-111.890629,Chipotle,84070,Salt Lake County
40.890835,-111.892045,Chipotle,84025,Davis County
38.818103,-77.142286,Chipotle,22312,Fairfax County
38.861086,-77.092121,Chipotle,22204,Arlington County
38.898581,-77.118227,Chipotle,22207,Arlington County
39.041531,-77.479568,Chipotle,20147,Loudoun County
37.723106,-80.415546,Chipotle,24925,Greenbrier County
37.231619,-80.431756,Chipotle,24060,Montgomery County
38.731654,-77.548537,Chipotle,20136,Prince William County
38.029228,-78.443628,Chipotle,22902,Charlottesville city
36.774953,-76.232213,Chipotle,23320,Chesapeake city
37.354757,-77.410294,Chipotle,23831,Chesterfield County
37.254216,-77.390330,Chipotle,23834,Colonial Heights city
38.484543,-77.967134,Chipotle,22714,Culpeper County
38.846912,-77.118484,Chipotle,22311,Alexandria city
38.299150,-77.482892,Chipotle,22401,Fredericksburg city
38.344028,-77.491880,Chipotle,22401,Fredericksburg city
39.113540,-77.537491,Chipotle,20175,Loudoun County
38.701690,-77.220710,Chipotle,22079,Fairfax County
37.398180,-79.223630,Chipotle,24502,Lynchburg city
37.347238,-79.187077,Chipotle,24502,Lynchburg city
38.933296,-77.175890,Chipotle,22101,Fairfax County
36.858983,-76.210106,Chipotle,23502,Norfolk city
36.868070,-76.297848,Chipotle,23517,Norfolk city
36.844300,-76.291110,Chipotle,23510,Norfolk city
38.880892,-77.301210,Chipotle,22181,Fairfax County
38.939120,-77.328814,Chipotle,20191,Fairfax County
37.556569,-77.485826,Chipotle,23221,Richmond city
37.602196,-77.524575,Chipotle,23226,Richmond city
37.500960,-77.528735,Chipotle,23225,Richmond city
37.636648,-77.511258,Chipotle,23228,Henrico County
37.256144,-79.953735,Chipotle,24016,Roanoke city
38.774589,-77.175308,Chipotle,22150,Fairfax County
38.469597,-77.411635,Chipotle,22554,Stafford County
36.881233,-76.424362,Chipotle,23703,Portsmouth city
38.925393,-77.238464,Chipotle,22102,Fairfax County
36.850986,-76.023621,Chipotle,23451,Virginia Beach city
36.759508,-76.005843,Chipotle,23454,Virginia Beach city
36.773859,-76.088331,Chipotle,23453,Virginia Beach city
38.728688,-77.799772,Chipotle,20186,Fauquier County
38.781849,-77.235091,Chipotle,22152,Fairfax County
37.287338,-76.721069,Chipotle,23188,James City County
38.631242,-77.274378,Chipotle,22191,Prince William County
38.674480,-77.334331,Chipotle,22192,Prince William County
38.835883,-77.051623,Chipotle,22305,Alexandria city
38.812288,-77.110369,Chipotle,22304,Alexandria city
38.770198,-77.139948,Chipotle,22310,Fairfax County
38.805013,-77.045962,Chipotle,22301,Alexandria city
38.770611,-77.082023,Chipotle,22306,Fairfax County
38.864223,-77.059094,Chipotle,22202,Arlington County
38.895443,-77.070637,Chipotle,22209,Arlington County
38.854164,-77.049271,Chipotle,22202,Arlington County
39.010875,-77.491312,Chipotle,20148,Loudoun County
38.880018,-77.112542,Chipotle,22203,Arlington County
38.798796,-77.320458,Chipotle,22015,Fairfax County
38.868908,-77.448288,Chipotle,20120,Fairfax County
38.828648,-77.438583,Chipotle,20121,Fairfax County
38.898342,-77.444630,Chipotle,20151,Fairfax County
38.049103,-78.503281,Chipotle,22904,Albemarle County
38.852548,-77.327074,Chipotle,22030,Fairfax County
38.857735,-77.357592,Chipotle,22035,Fairfax County
38.857021,-77.393907,Chipotle,22035,Fairfax County
38.841449,-77.272935,Chipotle,22031,Fairfax County
38.884661,-77.174556,Chipotle,22046,Falls Church city
38.870159,-77.152739,Chipotle,22044,Fairfax County
38.872380,-77.227089,Chipotle,22027,Fairfax County
38.296009,-77.513644,Chipotle,22401,Fredericksburg city
38.231850,-77.503165,Chipotle,22401,Fredericksburg city
38.791798,-77.605133,Chipotle,20155,Prince William County
37.646251,-77.579454,Chipotle,23294,Henrico County
37.665722,-77.456540,Chipotle,23059,Henrico County
37.045513,-76.385712,Chipotle,23666,Hampton city
38.431891,-78.855260,Chipotle,22801,Harrisonburg city
38.964214,-77.398263,Chipotle,20170,Fairfax County
38.907455,-77.408035,Chipotle,20151,Fairfax County
38.796661,-77.517323,Chipotle,20109,Prince William County
38.748184,-77.449475,Chipotle,20111,Prince William County
38.918962,-77.219694,Chipotle,22102,Fairfax County
37.415537,-77.640826,Chipotle,23832,Chesterfield County
37.112522,-76.499260,Chipotle,23602,Newport News city
38.959435,-77.356735,Chipotle,20190,Fairfax County
38.954306,-77.366738,Chipotle,20190,Fairfax County
37.505848,-77.607606,Chipotle,23236,Chesterfield County
37.654096,-77.622482,Chipotle,23233,Henrico County
37.584367,-77.496683,Chipotle,23230,Henrico County
37.549427,-77.450211,Chipotle,23220,Richmond city
37.547643,-77.573128,Chipotle,23235,Chesterfield County
38.778951,-77.189385,Chipotle,22150,Fairfax County
38.739487,-77.211493,Chipotle,22153,Fairfax County
39.035353,-77.407090,Chipotle,20164,Loudoun County
38.952759,-77.447737,Chipotle,20166,Loudoun County
38.903680,-77.262314,Chipotle,22180,Fairfax County
36.820588,-76.067083,Chipotle,23460,Virginia Beach city
36.843828,-76.130899,Chipotle,23462,Virginia Beach city
39.162489,-78.167740,Chipotle,22601,Winchester city
38.653014,-77.287041,Chipotle,22191,Prince William County
44.449242,-73.209057,Chipotle,05403,Chittenden County
47.574481,-122.169343,Chipotle,98006,King County
47.613763,-122.199968,Chipotle,98004,King County
47.620980,-122.132409,Chipotle,98007,King County
48.784312,-122.486688,Chipotle,98226,Whatcom County
48.452853,-122.335552,Chipotle,98233,Skagit County
47.909560,-122.225290,Chipotle,98204,Snohomish County
47.316922,-122.313601,Chipotle,98003,King County
47.543449,-122.048204,Chipotle,98029,King County
46.221256,-119.223122,Chipotle,99336,Benton County
47.385179,-122.235214,Chipotle,98032,King County
47.057418,-122.764600,Chipotle,98503,Thurston County
47.161990,-122.518384,Chipotle,98499,Pierce County
47.831735,-122.273485,Chipotle,98037,Snohomish County
47.820797,-122.288781,Chipotle,98037,Snohomish County
48.151245,-122.191350,Chipotle,98271,Snohomish County
47.042493,-122.934265,Chipotle,98501,Thurston County
47.146694,-122.292313,Chipotle,98373,Pierce County
47.667293,-122.101812,Chipotle,98052,King County
47.477318,-122.216339,Chipotle,98057,King County
47.606130,-122.036290,Chipotle,98074,King County
47.721850,-122.294190,Chipotle,98125,King County
47.613220,-122.320809,Chipotle,98101,King County
47.620110,-122.338424,Chipotle,98109,King County
47.661795,-122.299001,Chipotle,98105,King County
47.560141,-122.386765,Chipotle,98136,King County
47.609720,-122.337819,Chipotle,98101,King County
47.708532,-122.324664,Chipotle,98125,King County
47.663200,-122.300800,Chipotle,98105,King County
47.668976,-122.670990,Chipotle,98383,Kitsap County
47.665523,-117.411212,Chipotle,99204,Spokane County
47.217888,-122.467663,Chipotle,98409,Pierce County
47.456965,-122.258120,Chipotle,98188,King County
47.449160,-122.262294,Chipotle,98188,King County
47.664944,-122.715057,Chipotle,98383,Kitsap County
45.620880,-122.552900,Chipotle,98664,Clark County
45.653086,-122.586453,Chipotle,98661,Clark County
45.677885,-122.667027,Chipotle,98665,Clark County
45.614898,-122.504103,Chipotle,98683,Clark County
47.754488,-122.155741,Chipotle,98072,King County
46.574810,-120.490073,Chipotle,98902,Yakima County
44.243792,-88.347928,Chipotle,54915,Outagamie County
44.774837,-91.437629,Chipotle,54720,Eau Claire County
42.722815,-88.995106,Chipotle,53546,Rock County
43.174961,-88.113915,Chipotle,53051,Waukesha County
42.565515,-87.920209,Chipotle,53142,Kenosha County
43.075481,-89.453390,Chipotle,53705,Dane County
44.486466,-88.067170,Chipotle,54304,Brown County
43.035738,-88.104356,Chipotle,53122,Waukesha County
43.084937,-88.066662,Chipotle,53222,Milwaukee County
44.262438,-88.469605,Chipotle,54914,Outagamie County
42.939343,-88.048176,Chipotle,53130,Milwaukee County
44.959729,-92.720000,Chipotle,55043,Washington County
43.130540,-89.305554,Chipotle,53714,Dane County
43.074994,-89.396308,Chipotle,53706,Dane County
43.075039,-89.528714,Chipotle,53717,Dane County
42.985994,-87.947930,Chipotle,53215,Milwaukee County
43.048282,-87.904610,Chipotle,53202,Milwaukee County
42.719171,-87.848674,Chipotle,53406,Racine County
43.068354,-88.048091,Chipotle,53226,Milwaukee County
38.415567,-82.259772,Chipotle,25504,Cabell County
38.319232,-81.717498,Chipotle,25309,Kanawha County
38.423449,-82.419963,Chipotle,25703,Cabell County
39.446175,-77.987526,Chipotle,25401,Berkeley County
39.659067,-80.001357,Chipotle,26505,Monongalia County
42.847805,-106.260324,Chipotle,82609,Natrona County
41.160349,-104.804885,Chipotle,82001,Laramie County
