latitude,longitude,name,zipcode,county
31.548676,-85.291260,Hardee's,36353,Henry County
34.297516,-86.264969,Hardee's,35976,Marshall County
32.930904,-85.948654,Hardee's,35010,Tallapoosa County
31.224230,-86.427032,Hardee's,36442,Covington County
33.647663,-85.865364,Hardee's,36201,Calhoun County
34.333466,-86.503555,Hardee's,35016,Marshall County
34.794804,-86.972488,Hardee's,35613,Limestone County
34.785217,-86.947922,Hardee's,35613,Limestone County
31.072205,-87.486205,Hardee's,36502,Escambia County
33.997265,-86.093796,Hardee's,35906,Etowah County
32.590057,-85.509193,Hardee's,36832,Lee County
30.879011,-87.781578,Hardee's,36507,Baldwin County
33.525913,-86.791786,Hardee's,35234,Jefferson County
33.590992,-86.696894,Hardee's,35206,Jefferson County
34.211472,-86.155640,Hardee's,35957,Marshall County
34.970757,-85.734077,Hardee's,35740,Jackson County
31.720217,-85.830086,Hardee's,36010,Pike County
32.089993,-88.221092,Hardee's,36904,Choctaw County
33.100311,-86.753021,Hardee's,35040,Shelby County
31.987343,-87.295303,Hardee's,36726,Wilcox County
31.103096,-88.238274,Hardee's,36521,Mobile County
33.654182,-86.647926,Hardee's,35235,Jefferson County
34.117199,-86.862015,Hardee's,35058,Cullman County
34.183540,-86.849068,Hardee's,35058,Cullman County
34.570538,-87.013313,Hardee's,35601,Morgan County
34.556641,-86.973297,Hardee's,35603,Morgan County
34.537479,-86.912018,Hardee's,35603,Morgan County
34.607998,-86.978012,Hardee's,35601,Morgan County
32.502960,-87.838440,Hardee's,36740,Greene County
31.216984,-85.361305,Hardee's,36321,Houston County
31.189819,-85.401337,Hardee's,36301,Houston County
31.244478,-85.429337,Hardee's,36303,Houston County
31.323153,-85.830536,Hardee's,36330,Coffee County
31.844598,-85.167600,Hardee's,36027,Barbour County
31.593725,-87.120003,Hardee's,36471,Monroe County
30.522066,-87.886002,Hardee's,36532,Baldwin County
31.008898,-87.264236,Hardee's,36441,Escambia County
30.997549,-86.333549,Hardee's,32567,Okaloosa County
34.832253,-87.628624,Hardee's,35630,Lauderdale County
30.367250,-87.683083,Hardee's,36535,Baldwin County
34.437401,-85.751648,Hardee's,35967,DeKalb County
34.466911,-85.699265,Hardee's,35967,DeKalb County
33.609493,-86.797012,Hardee's,35068,Jefferson County
33.971937,-85.949173,Hardee's,35901,Etowah County
31.047707,-85.892082,Hardee's,36340,Geneva County
30.494972,-88.336227,Hardee's,36541,Mobile County
34.502129,-86.260941,Hardee's,35747,Marshall County
31.846256,-86.639519,Hardee's,36033,Butler County
30.256918,-87.688629,Hardee's,36511,Baldwin County
34.700699,-86.385872,Hardee's,35748,Madison County
34.142021,-87.985741,Hardee's,35570,Marion County
34.054943,-86.763718,Hardee's,35077,Cullman County
31.072474,-85.693497,Hardee's,36344,Geneva County
34.439014,-86.940552,Hardee's,35640,Morgan County
31.352179,-85.327499,Hardee's,36345,Henry County
33.624855,-85.595016,Hardee's,36264,Cleburne County
33.463020,-86.828270,Hardee's,35209,Jefferson County
33.357946,-86.774444,Hardee's,35244,Jefferson County
32.268631,-86.356908,Hardee's,36108,Montgomery County
34.595863,-86.561263,Hardee's,35803,Madison County
34.705284,-86.590103,Hardee's,35801,Madison County
34.738892,-86.576607,Hardee's,35801,Madison County
34.792791,-86.668610,Hardee's,35806,Madison County
31.538040,-87.886887,Hardee's,36545,Clarke County
33.811642,-85.761147,Hardee's,36277,Calhoun County
33.849037,-87.277962,Hardee's,35501,Walker County
33.562103,-86.522141,Hardee's,35004,St. Clair County
32.596680,-88.183083,Hardee's,35470,Sumter County
30.642710,-87.760658,Hardee's,36551,Baldwin County
31.707804,-86.263847,Hardee's,36049,Crenshaw County
34.751553,-86.749969,Hardee's,35757,Madison County
34.685474,-86.729935,Hardee's,35758,Madison County
32.621479,-87.318001,Hardee's,36756,Perry County
34.854507,-86.571609,Hardee's,35759,Madison County
33.469269,-86.905525,Hardee's,35064,Jefferson County
32.517006,-86.374962,Hardee's,36054,Elmore County
30.749502,-88.114567,Hardee's,36612,Mobile County
30.709484,-88.126312,Hardee's,36607,Mobile County
30.687813,-88.048195,Hardee's,36603,Mobile County
30.689299,-88.174286,Hardee's,36609,Mobile County
30.640087,-88.188377,Hardee's,36609,Mobile County
30.671457,-88.225623,Hardee's,36609,Mobile County
31.506405,-87.318695,Hardee's,36460,Monroe County
32.366215,-86.244019,Hardee's,36109,Montgomery County
32.406590,-86.265541,Hardee's,36115,Montgomery County
32.327480,-86.340210,Hardee's,36113,Montgomery County
32.340365,-86.179051,Hardee's,36117,Montgomery County
32.322147,-86.236435,Hardee's,36111,Montgomery County
32.343727,-86.221710,Hardee's,36106,Montgomery County
32.382072,-86.214523,Hardee's,36109,Montgomery County
32.370041,-86.271076,Hardee's,36107,Montgomery County
32.327677,-86.340235,Hardee's,36113,Montgomery County
34.486954,-87.275650,Hardee's,35650,Lawrence County
34.744686,-87.666626,Hardee's,35660,Colbert County
34.550964,-86.433022,Hardee's,35760,Madison County
33.301861,-87.599976,Hardee's,35473,Tuscaloosa County
33.235657,-87.610115,Hardee's,35476,Tuscaloosa County
32.444901,-85.365692,Hardee's,36804,Lee County
32.638130,-85.410660,Hardee's,36801,Lee County
31.269135,-86.248871,Hardee's,36467,Covington County
34.660405,-86.485559,Hardee's,35763,Madison County
33.613937,-85.827751,Hardee's,36203,Calhoun County
31.437984,-85.665543,Hardee's,36362,Dale County
33.630112,-86.294327,Hardee's,35125,St. Clair County
32.463779,-85.023567,Hardee's,36867,Russell County
33.697247,-86.680016,Hardee's,35126,Jefferson County
32.460472,-86.391296,Hardee's,36066,Autauga County
32.459877,-86.456535,Hardee's,36066,Autauga County
34.492870,-85.848267,Hardee's,35986,DeKalb County
34.823658,-87.291512,Hardee's,35652,Lauderdale County
30.800951,-88.072014,Hardee's,36571,Mobile County
34.782108,-86.088463,Hardee's,35768,Jackson County
34.665333,-86.034767,Hardee's,35769,Jackson County
32.431538,-87.017921,Hardee's,36701,Dallas County
33.779263,-86.432095,Hardee's,35146,St. Clair County
33.757114,-87.063477,Hardee's,35148,Walker County
33.155956,-86.269875,Hardee's,35150,Talladega County
32.550591,-85.917007,Hardee's,36078,Elmore County
30.414446,-88.243744,Hardee's,36509,Mobile County
31.913618,-87.740944,Hardee's,36784,Clarke County
31.824982,-85.994591,Hardee's,36079,Pike County
33.618507,-86.607758,Hardee's,35235,Jefferson County
33.204456,-87.567978,Hardee's,35476,Tuscaloosa County
33.197296,-87.528595,Hardee's,35404,Tuscaloosa County
33.146385,-87.544426,Hardee's,35401,Tuscaloosa County
33.167892,-87.523499,Hardee's,35404,Tuscaloosa County
34.709599,-87.667351,Hardee's,35674,Colbert County
33.420006,-86.799866,Hardee's,35216,Jefferson County
33.811142,-86.824326,Hardee's,35180,Jefferson County
32.515514,-86.212189,Hardee's,36110,Montgomery County
35.771133,-91.641098,Hardee's,72501,Independence County
35.928261,-89.870567,Hardee's,72315,Mississippi County
34.612696,-92.497159,Hardee's,72022,Saline County
35.462257,-93.506844,Hardee's,72830,Johnson County
35.066017,-92.435351,Hardee's,72032,Faulkner County
36.055004,-94.190956,Hardee's,72730,Washington County
36.106163,-94.146576,Hardee's,72703,Washington County
35.338871,-94.415504,Hardee's,74901,Le Flore County
35.375633,-94.403267,Hardee's,72901,Sebastian County
35.385792,-94.386398,Hardee's,72904,Sebastian County
35.352947,-94.350853,Hardee's,72903,Sebastian County
36.259239,-93.126488,Hardee's,72601,Boone County
35.827759,-90.668854,Hardee's,72401,Craighead County
34.760210,-92.336839,Hardee's,72207,Pulaski County
35.169934,-92.719247,Hardee's,72110,Conway County
36.331322,-92.406471,Hardee's,72653,Baxter County
35.863476,-92.140144,Hardee's,72560,Stone County
35.605652,-91.258705,Hardee's,72112,Jackson County
34.800331,-92.255264,Hardee's,72116,Pulaski County
36.052227,-90.505295,Hardee's,72450,Greene County
36.381641,-90.179230,Hardee's,72454,Clay County
34.201702,-92.032204,Hardee's,71601,Jefferson County
33.802090,-93.381393,Hardee's,71857,Nevada County
35.281036,-93.144341,Hardee's,72801,Pope County
35.277981,-93.094116,Hardee's,72802,Pope County
35.250393,-91.701538,Hardee's,72082,White County
34.307919,-92.399261,Hardee's,72150,Grant County
36.176533,-94.557762,Hardee's,72761,Benton County
36.182060,-94.138512,Hardee's,72745,Benton County
39.614166,-75.701416,Hardee's,19701,New Castle County
39.160763,-75.556732,Hardee's,19904,Kent County
39.157024,-75.510086,Hardee's,19901,Kent County
38.698816,-75.401478,Hardee's,19947,Sussex County
38.923939,-75.565804,Hardee's,19952,Kent County
38.560761,-75.556376,Hardee's,19973,Sussex County
39.452927,-75.689072,Hardee's,19709,New Castle County
38.920231,-75.438538,Hardee's,19963,Sussex County
38.578426,-75.289291,Hardee's,19966,Sussex County
38.646466,-75.622463,Hardee's,19973,Sussex County
39.300449,-75.606903,Hardee's,19938,Kent County
28.058868,-81.784653,Hardee's,33823,Polk County
30.775705,-85.682434,Hardee's,32425,Holmes County
29.986387,-82.763016,Hardee's,32038,Columbia County
28.552370,-82.420036,Hardee's,34601,Hernando County
30.563015,-81.829102,Hardee's,32011,Nassau County
30.704771,-84.850006,Hardee's,32460,Jackson County
29.488592,-82.861084,Hardee's,32626,Levy County
30.766571,-85.540154,Hardee's,32431,Jackson County
30.762144,-85.377853,Hardee's,32431,Jackson County
30.178875,-84.375191,Hardee's,32327,Wakulla County
30.723232,-86.569260,Hardee's,32536,Okaloosa County
29.637852,-83.135689,Hardee's,32680,Dixie County
29.054276,-81.324837,Hardee's,32720,Volusia County
28.017651,-81.631996,Hardee's,33838,Polk County
29.646046,-81.596405,Hardee's,32131,Putnam County
26.679764,-81.806175,Hardee's,33905,Lee County
27.447069,-80.398537,Hardee's,34947,St. Lucie County
30.467110,-86.643570,Hardee's,32544,Okaloosa County
30.500660,-86.136009,Hardee's,32439,Walton County
29.659765,-82.420799,Hardee's,32607,Alachua County
30.963235,-85.516510,Hardee's,32440,Jackson County
30.007242,-81.693802,Hardee's,32003,Clay County
30.008034,-81.694649,Hardee's,32003,Clay County
28.560709,-81.856987,Hardee's,34753,Lake County
29.830204,-82.595055,Hardee's,32615,Alachua County
28.804895,-82.576553,Hardee's,34448,Citrus County
30.171247,-81.629021,Hardee's,32223,Duval County
30.318979,-81.471748,Hardee's,32224,Duval County
30.335533,-81.414978,Hardee's,32266,Duval County
30.429827,-81.652657,Hardee's,32208,Duval County
30.335535,-81.758720,Hardee's,32254,Duval County
30.479195,-81.636864,Hardee's,32218,Duval County
30.269955,-81.757011,Hardee's,32210,Duval County
30.380543,-81.670807,Hardee's,32208,Duval County
30.291918,-81.782387,Hardee's,32210,Duval County
30.310068,-81.751755,Hardee's,32205,Duval County
30.352627,-81.550217,Hardee's,32277,Duval County
30.220695,-81.567101,Hardee's,32257,Duval County
30.251818,-81.586670,Hardee's,32216,Duval County
30.519043,-82.952942,Hardee's,32052,Hamilton County
29.775324,-82.045265,Hardee's,32666,Putnam County
30.023695,-82.328262,Hardee's,32054,Union County
30.184381,-82.599457,Hardee's,32025,Columbia County
30.179735,-82.674431,Hardee's,32024,Columbia County
30.189497,-82.640045,Hardee's,32025,Columbia County
28.754206,-82.099686,Hardee's,34785,Sumter County
28.054516,-81.989014,Hardee's,33815,Polk County
30.289501,-82.987709,Hardee's,32064,Suwannee County
30.262486,-82.123001,Hardee's,32063,Baker County
30.770615,-85.207497,Hardee's,32448,Jackson County
28.049992,-80.621788,Hardee's,32905,Brevard County
30.060364,-81.877838,Hardee's,32068,Clay County
30.618036,-87.050682,Hardee's,32583,Santa Rosa County
28.589832,-81.752545,Hardee's,34715,Lake County
29.646496,-82.605713,Hardee's,32669,Alachua County
29.166156,-82.163359,Hardee's,34471,Marion County
29.103559,-82.232300,Hardee's,34476,Marion County
28.551493,-81.539772,Hardee's,34761,Orange County
29.601620,-82.981934,Hardee's,32680,Dixie County
30.158037,-81.747040,Hardee's,32073,Clay County
28.577736,-81.451759,Hardee's,32808,Orange County
30.603851,-87.147964,Hardee's,32514,Escambia County
30.210667,-85.649841,Hardee's,32405,Bay County
30.200386,-85.819378,Hardee's,32407,Bay County
30.397722,-87.399673,Hardee's,32506,Escambia County
30.445242,-87.234970,Hardee's,32505,Escambia County
30.531925,-87.221107,Hardee's,32514,Escambia County
30.519842,-87.314285,Hardee's,32534,Escambia County
30.489912,-87.195564,Hardee's,32504,Escambia County
30.511427,-87.270424,Hardee's,32534,Escambia County
30.398587,-87.278007,Hardee's,32502,Escambia County
30.105408,-83.589172,Hardee's,32347,Taylor County
29.142199,-80.986954,Hardee's,32129,Volusia County
30.588295,-84.578217,Hardee's,32352,Gadsden County
27.703491,-82.452065,Hardee's,33570,Hillsborough County
27.806374,-82.679283,Hardee's,33714,Pinellas County
28.811218,-81.309242,Hardee's,32771,Seminole County
28.001759,-82.302200,Hardee's,33584,Hillsborough County
29.941662,-82.111443,Hardee's,32091,Bradford County
30.532692,-84.362495,Hardee's,32303,Leon County
27.995886,-82.512138,Hardee's,33614,Hillsborough County
28.816301,-81.726028,Hardee's,32778,Lake County
27.937653,-82.256241,Hardee's,33594,Hillsborough County
29.793858,-82.167267,Hardee's,32694,Alachua County
28.522282,-82.569916,Hardee's,34607,Hernando County
28.857986,-82.042969,Hardee's,32162,Sumter County
29.386942,-82.450706,Hardee's,32696,Levy County
30.433657,-85.427879,Hardee's,32466,Bay County
28.229811,-82.213089,Hardee's,33541,Pasco County
34.081086,-84.654638,Hardee's,30102,Cherokee County
34.375004,-84.914062,Hardee's,30103,Bartow County
31.134792,-83.433240,Hardee's,31620,Cook County
31.574282,-84.095207,Hardee's,31701,Dougherty County
31.533113,-82.463692,Hardee's,31510,Bacon County
34.073132,-84.295319,Hardee's,30009,Fulton County
32.071915,-84.217636,Hardee's,31719,Sumter County
33.977032,-83.364059,Hardee's,30601,Clarke County
33.719025,-84.329979,Hardee's,30316,DeKalb County
30.903849,-84.563499,Hardee's,39817,Decatur County
33.048271,-84.154678,Hardee's,30257,Lamar County
31.769150,-82.352310,Hardee's,31513,Appling County
33.720600,-85.145645,Hardee's,30110,Haralson County
31.209982,-81.511734,Hardee's,31520,Glynn County
34.096672,-84.012833,Hardee's,30518,Gwinnett County
34.080185,-83.920525,Hardee's,30519,Gwinnett County
32.657595,-83.747272,Hardee's,31028,Houston County
30.886084,-84.206757,Hardee's,39897,Grady County
34.561745,-84.937653,Hardee's,30735,Gordon County
34.242870,-84.494743,Hardee's,30114,Cherokee County
33.554466,-85.073631,Hardee's,30117,Carroll County
34.786060,-84.771767,Hardee's,30705,Murray County
31.170109,-84.734146,Hardee's,39837,Miller County
32.519836,-84.957352,Hardee's,31909,Muscogee County
32.446476,-84.931000,Hardee's,31906,Muscogee County
34.206505,-83.461876,Hardee's,30529,Jackson County
33.630193,-83.976527,Hardee's,30013,Rockdale County
31.962997,-83.764587,Hardee's,31015,Crisp County
33.602784,-83.859522,Hardee's,30014,Newton County
34.206177,-84.139648,Hardee's,30041,Forsyth County
34.796577,-84.962273,Hardee's,30720,Whitfield County
34.759586,-84.970428,Hardee's,30720,Whitfield County
34.129295,-83.217758,Hardee's,30646,Madison County
31.761469,-84.437645,Hardee's,39842,Terrell County
31.040545,-84.878929,Hardee's,39845,Seminole County
34.684818,-84.475189,Hardee's,30540,Gilmer County
33.540607,-82.133301,Hardee's,30809,Columbia County
33.539502,-84.576770,Hardee's,30291,Fulton County
33.469131,-84.446111,Hardee's,30214,Fayette County
33.041714,-83.938461,Hardee's,31029,Monroe County
33.279373,-85.105301,Hardee's,30217,Heard County
34.955002,-85.256157,Hardee's,30742,Catoosa County
33.275925,-84.291565,Hardee's,30223,Spalding County
32.282078,-83.468155,Hardee's,31036,Pulaski County
31.870414,-82.594853,Hardee's,31539,Jeff Davis County
34.951122,-83.758560,Hardee's,30546,Towns County
31.842690,-81.599190,Hardee's,31315,Liberty County
34.123019,-83.606854,Hardee's,30549,Jackson County
31.615549,-81.875610,Hardee's,31546,Wayne County
34.048163,-84.612156,Hardee's,30144,Cobb County
34.719090,-85.280060,Hardee's,30728,Walker County
31.034996,-83.072511,Hardee's,31635,Lanier County
34.447479,-83.123192,Hardee's,30553,Franklin County
33.976059,-83.986259,Hardee's,30046,Gwinnett County
31.683273,-84.172874,Hardee's,31763,Lee County
33.789005,-82.479614,Hardee's,30817,Lincoln County
33.779181,-84.606293,Hardee's,30168,Cobb County
33.831077,-83.871583,Hardee's,30052,Walton County
32.854530,-83.618253,Hardee's,31204,Bibb County
33.922554,-84.479477,Hardee's,30067,Cobb County
33.938843,-84.507477,Hardee's,30060,Cobb County
33.419769,-84.189127,Hardee's,30253,Henry County
33.447086,-84.141220,Hardee's,30253,Henry County
33.482330,-84.213623,Hardee's,30253,Henry County
32.575008,-84.827423,Hardee's,31820,Muscogee County
33.791130,-83.712631,Hardee's,30655,Walton County
31.177624,-83.765350,Hardee's,31768,Colquitt County
31.198786,-83.251030,Hardee's,31639,Berrien County
33.386398,-84.818459,Hardee's,30263,Coweta County
33.441360,-84.691917,Hardee's,30265,Coweta County
34.225883,-83.867447,Hardee's,30566,Hall County
31.298532,-82.852592,Hardee's,31642,Atkinson County
31.130159,-84.149834,Hardee's,31779,Mitchell County
32.113220,-81.240906,Hardee's,31322,Chatham County
30.785357,-83.572037,Hardee's,31643,Brooks County
31.948973,-81.311638,Hardee's,31324,Bryan County
34.909157,-85.128174,Hardee's,30736,Catoosa County
34.271763,-85.232086,Hardee's,30161,Floyd County
34.173649,-85.208076,Hardee's,30147,Floyd County
34.982014,-85.287727,Hardee's,37407,Hamilton County
34.028541,-84.335821,Hardee's,30076,Fulton County
30.751681,-81.576645,Hardee's,31547,Camden County
33.936256,-84.378654,Hardee's,30328,Fulton County
32.000404,-81.283981,Hardee's,31419,Chatham County
32.438995,-81.763466,Hardee's,30461,Bulloch County
33.823638,-84.111962,Hardee's,30087,DeKalb County
32.583977,-82.320770,Hardee's,30401,Emanuel County
33.720852,-85.028824,Hardee's,30179,Carroll County
32.900421,-84.328674,Hardee's,30286,Upson County
30.851965,-83.948894,Hardee's,31757,Thomas County
31.416571,-83.502464,Hardee's,31794,Tift County
31.451281,-83.528177,Hardee's,31793,Tift County
34.571042,-83.307867,Hardee's,30577,Stephens County
34.867279,-85.515167,Hardee's,30752,Dade County
30.857277,-83.280930,Hardee's,31602,Lowndes County
30.821550,-83.273766,Hardee's,31606,Lowndes County
32.217159,-82.404739,Hardee's,30474,Toombs County
33.732552,-84.919899,Hardee's,30180,Carroll County
32.618244,-83.680733,Hardee's,31028,Houston County
32.627853,-83.613129,Hardee's,31098,Houston County
31.232311,-82.330605,Hardee's,31501,Ware County
33.993755,-83.716896,Hardee's,30680,Barrow County
34.165905,-84.596527,Hardee's,30189,Cherokee County
41.016975,-92.808945,Hardee's,52531,Monroe County
41.525444,-90.505524,Hardee's,52803,Scott County
40.799831,-91.140023,Hardee's,52601,Des Moines County
41.962566,-91.676880,Hardee's,52401,Linn County
42.034698,-91.667160,Hardee's,52402,Linn County
42.010033,-91.635063,Hardee's,52402,Linn County
41.924465,-91.658661,Hardee's,52404,Linn County
41.948839,-91.717523,Hardee's,52405,Linn County
40.732372,-92.873985,Hardee's,52544,Appanoose County
41.014397,-93.325630,Hardee's,50049,Lucas County
42.731815,-93.729942,Hardee's,50525,Wright County
41.845032,-90.188118,Hardee's,61252,Whiteside County
41.669277,-91.565895,Hardee's,52242,Johnson County
41.228104,-95.851593,Hardee's,51501,Pottawattamie County
41.049316,-94.369148,Hardee's,50801,Union County
41.537025,-90.600990,Hardee's,52801,Scott County
41.573753,-90.569534,Hardee's,52803,Scott County
41.627277,-93.599154,Hardee's,50316,Polk County
41.627367,-93.697770,Hardee's,50310,Polk County
41.600544,-93.738480,Hardee's,50324,Polk County
41.526468,-93.626751,Hardee's,50315,Polk County
42.459526,-90.673096,Hardee's,52003,Dubuque County
42.499428,-90.695107,Hardee's,52001,Dubuque County
42.512512,-90.666023,Hardee's,52001,Dubuque County
42.515076,-90.745735,Hardee's,52002,Dubuque County
42.473072,-91.114090,Hardee's,52040,Dubuque County
41.654594,-90.571770,Hardee's,52748,Scott County
43.402073,-94.820564,Hardee's,51334,Emmet County
43.263775,-93.639748,Hardee's,50436,Winnebago County
42.506023,-94.177849,Hardee's,50501,Webster County
40.630299,-91.323296,Hardee's,52627,Lee County
43.106030,-93.606155,Hardee's,50438,Hancock County
41.744995,-92.727539,Hardee's,50112,Poweshiek County
42.741558,-93.210976,Hardee's,50441,Franklin County
42.731411,-94.227081,Hardee's,50529,Humboldt County
41.320614,-93.092583,Hardee's,50138,Marion County
41.330513,-93.109070,Hardee's,50138,Marion County
42.781285,-96.182018,Hardee's,51031,Plymouth County
42.484116,-91.459709,Hardee's,52057,Delaware County
42.038021,-92.912628,Hardee's,50158,Marshall County
43.146893,-93.199562,Hardee's,50401,Cerro Gordo County
41.915691,-91.423294,Hardee's,52314,Linn County
40.964397,-91.541290,Hardee's,52641,Henry County
41.409466,-91.063118,Hardee's,52761,Muscatine County
42.997345,-96.056618,Hardee's,51041,Sioux County
43.284279,-92.800270,Hardee's,50461,Mitchell County
41.296104,-92.646484,Hardee's,52534,Mahaska County
43.185757,-95.854111,Hardee's,51201,O'Brien County
43.083851,-96.175476,Hardee's,51250,Sioux County
42.447952,-96.349442,Hardee's,51106,Woodbury County
42.489574,-96.399078,Hardee's,51101,Woodbury County
43.131504,-95.143784,Hardee's,51301,Clay County
42.644802,-95.187698,Hardee's,50588,Buena Vista County
41.771099,-91.128510,Hardee's,52772,Cedar County
41.985718,-92.578514,Hardee's,52339,Tama County
42.459728,-92.328396,Hardee's,50702,Black Hawk County
42.500118,-92.385956,Hardee's,50702,Black Hawk County
42.499146,-92.330688,Hardee's,50707,Black Hawk County
43.265106,-91.474876,Hardee's,52172,Allamakee County
42.961464,-91.814423,Hardee's,52175,Fayette County
41.346085,-94.013405,Hardee's,50273,Madison County
40.808350,-90.401604,Hardee's,61410,Knox County
37.459759,-89.244827,Hardee's,62920,Union County
40.654209,-89.649582,Hardee's,61605,Peoria County
41.851295,-88.312485,Hardee's,60510,Kane County
39.993637,-90.436775,Hardee's,62618,Cass County
38.541683,-90.000931,Hardee's,62226,St. Clair County
38.502327,-89.984123,Hardee's,62226,St. Clair County
38.507648,-89.899803,Hardee's,62221,St. Clair County
37.996918,-88.926758,Hardee's,62812,Franklin County
40.473640,-88.951797,Hardee's,61704,McLean County
41.700897,-88.067642,Hardee's,60440,Will County
38.610985,-89.537231,Hardee's,62230,Clinton County
40.547230,-90.507851,Hardee's,61422,McDonough County
38.555382,-90.167892,Hardee's,62206,St. Clair County
40.563545,-90.035225,Hardee's,61520,Fulton County
39.284721,-89.881783,Hardee's,62626,Macoupin County
38.617559,-89.373385,Hardee's,62231,Clinton County
37.746616,-89.077011,Hardee's,62918,Williamson County
40.411953,-91.136162,Hardee's,62321,Hancock County
38.615383,-90.044205,Hardee's,62203,St. Clair County
38.529636,-89.147217,Hardee's,62801,Marion County
40.096134,-88.245049,Hardee's,61820,Champaign County
40.127423,-88.277248,Hardee's,61821,Champaign County
39.678528,-89.704765,Hardee's,62629,Sangamon County
37.914627,-89.821831,Hardee's,62233,Randolph County
41.809383,-87.675278,Hardee's,60609,Cook County
40.907852,-89.492279,Hardee's,61523,Peoria County
40.150639,-88.964211,Hardee's,61727,De Witt County
38.691113,-89.976631,Hardee's,62234,Madison County
40.138733,-87.630455,Hardee's,61832,Vermilion County
39.845688,-88.972313,Hardee's,62523,Macon County
41.838657,-89.480644,Hardee's,61021,Lee County
38.007187,-89.235992,Hardee's,62832,Perry County
41.112898,-88.413908,Hardee's,60420,Livingston County
41.492664,-90.455948,Hardee's,61265,Rock Island County
40.666840,-89.579704,Hardee's,61602,Peoria County
39.120350,-88.560242,Hardee's,62401,Effingham County
40.736877,-89.027199,Hardee's,61738,Woodford County
37.805222,-88.447464,Hardee's,62930,Saline County
42.038269,-87.960327,Hardee's,60005,Cook County
40.721180,-89.278435,Hardee's,61530,Woodford County
40.947594,-90.356537,Hardee's,61430,Knox County
41.434128,-90.158165,Hardee's,61254,Henry County
38.771362,-89.956795,Hardee's,62034,Madison County
38.922920,-90.191978,Hardee's,63386,St. Charles County
38.762020,-90.123650,Hardee's,62040,Madison County
37.738491,-88.533562,Hardee's,62917,Saline County
40.293900,-90.065277,Hardee's,62644,Mason County
37.797653,-89.027878,Hardee's,62948,Williamson County
38.748478,-89.680290,Hardee's,62249,Madison County
39.156009,-89.492701,Hardee's,62049,Montgomery County
39.723596,-90.240357,Hardee's,62650,Morgan County
39.115074,-90.324341,Hardee's,62052,Jersey County
40.987152,-90.200043,Hardee's,61428,Knox County
38.729355,-87.684486,Hardee's,62417,Lawrence County
41.658928,-88.001579,Hardee's,60439,Cook County
40.157536,-89.373672,Hardee's,62656,Logan County
42.318168,-89.033865,Hardee's,61114,Winnebago County
40.458805,-90.685471,Hardee's,61455,McDonough County
37.741428,-88.948135,Hardee's,62959,Williamson County
39.472031,-88.376717,Hardee's,61938,Coles County
37.152126,-88.731140,Hardee's,62960,Massac County
41.624588,-87.736565,Hardee's,60445,Cook County
41.509258,-90.578796,Hardee's,52801,Scott County
41.489441,-90.513756,Hardee's,61265,Rock Island County
41.512741,-90.460945,Hardee's,61265,Rock Island County
40.915680,-90.647885,Hardee's,61462,Warren County
40.027412,-88.573204,Hardee's,61856,Piatt County
41.809761,-89.967926,Hardee's,61270,Whiteside County
40.625664,-89.465263,Hardee's,61550,Tazewell County
38.316566,-88.909897,Hardee's,62864,Jefferson County
38.313423,-88.945457,Hardee's,62864,Jefferson County
37.764648,-89.326836,Hardee's,62966,Jackson County
38.342930,-89.380486,Hardee's,62263,Washington County
38.990963,-88.169289,Hardee's,62448,Jasper County
42.045748,-87.831038,Hardee's,60714,Cook County
40.510223,-88.958138,Hardee's,61705,McLean County
38.584965,-89.910767,Hardee's,62269,St. Clair County
38.591805,-89.947609,Hardee's,62269,St. Clair County
41.295175,-89.086187,Hardee's,61354,LaSalle County
41.719218,-88.316163,Hardee's,60538,Kendall County
41.368050,-88.835650,Hardee's,61350,LaSalle County
39.608921,-87.694702,Hardee's,61944,Edgar County
40.455448,-88.106056,Hardee's,60948,Iroquois County
40.569546,-89.645065,Hardee's,61607,Peoria County
40.720383,-89.557266,Hardee's,61603,Peoria County
40.776146,-89.655655,Hardee's,61615,Peoria County
40.794987,-89.606544,Hardee's,61614,Peoria County
40.013176,-89.845932,Hardee's,62675,Menard County
39.607414,-90.793106,Hardee's,62363,Pike County
41.591242,-88.201631,Hardee's,60544,Will County
42.105415,-87.888702,Hardee's,60070,Cook County
39.929180,-91.389351,Hardee's,62301,Adams County
39.935123,-91.369240,Hardee's,62301,Adams County
39.921822,-91.396568,Hardee's,62301,Adams County
40.307121,-88.155937,Hardee's,61866,Champaign County
39.005989,-87.735115,Hardee's,62454,Crawford County
41.779728,-89.689400,Hardee's,61081,Whiteside County
41.497051,-90.547417,Hardee's,52801,Scott County
42.456028,-88.998741,Hardee's,61073,Winnebago County
42.379456,-88.073257,Hardee's,60046,Lake County
40.117508,-90.575386,Hardee's,62681,Schuyler County
38.626915,-88.949615,Hardee's,62881,Marion County
38.136711,-89.703690,Hardee's,62286,Randolph County
39.764019,-89.682640,Hardee's,62704,Sangamon County
39.831203,-89.630905,Hardee's,62702,Sangamon County
39.758527,-89.618955,Hardee's,62703,Sangamon County
39.802044,-89.604883,Hardee's,62701,Sangamon County
39.803013,-89.662422,Hardee's,62701,Sangamon County
39.012276,-89.791565,Hardee's,62088,Macoupin County
39.600689,-88.609528,Hardee's,61951,Moultrie County
39.509880,-89.767426,Hardee's,62690,Macoupin County
41.803020,-88.166084,Hardee's,60563,DuPage County
40.702778,-89.421783,Hardee's,61571,Tazewell County
38.356964,-90.154129,Hardee's,62236,Monroe County
42.389221,-87.856209,Hardee's,60087,Lake County
41.915581,-88.210902,Hardee's,60185,DuPage County
37.898075,-88.941299,Hardee's,62896,Franklin County
38.863960,-90.079124,Hardee's,62095,Madison County
41.658916,-88.440804,Hardee's,60512,Kendall County
38.860905,-86.491768,Hardee's,47451,Lawrence County
39.164471,-86.576294,Hardee's,47404,Monroe County
40.741177,-85.171265,Hardee's,46714,Wells County
39.524364,-87.122643,Hardee's,47834,Clay County
39.862659,-86.392738,Hardee's,46112,Hendricks County
39.657848,-87.431999,Hardee's,47842,Vermillion County
41.166313,-85.491272,Hardee's,46725,Whitley County
39.640797,-85.137611,Hardee's,47331,Fayette County
39.777637,-85.980309,Hardee's,46229,Marion County
39.760288,-86.515953,Hardee's,46122,Hendricks County
39.311131,-85.966537,Hardee's,46124,Johnson County
40.277184,-85.824333,Hardee's,46036,Madison County
37.962234,-87.529846,Hardee's,47714,Vanderburgh County
37.990761,-87.519875,Hardee's,47715,Vanderburgh County
37.979744,-87.599258,Hardee's,47708,Vanderburgh County
38.014576,-87.538956,Hardee's,47711,Vanderburgh County
37.955166,-87.497368,Hardee's,47715,Vanderburgh County
39.957680,-86.039978,Hardee's,46038,Hamilton County
40.481761,-85.551283,Hardee's,46933,Grant County
39.784286,-85.786690,Hardee's,46140,Hancock County
39.811897,-85.769585,Hardee's,46140,Hancock County
41.750652,-85.333061,Hardee's,49030,St. Joseph County
41.744976,-85.335205,Hardee's,46746,LaGrange County
39.912712,-86.135780,Hardee's,46240,Marion County
39.788483,-86.160522,Hardee's,46202,Marion County
39.802589,-86.269714,Hardee's,46224,Marion County
39.911655,-86.211723,Hardee's,46268,Marion County
39.781300,-86.094002,Hardee's,46201,Marion County
39.854958,-86.088394,Hardee's,46220,Marion County
39.695496,-86.082146,Hardee's,46237,Marion County
39.692169,-86.185959,Hardee's,46217,Marion County
39.666069,-86.081024,Hardee's,46237,Marion County
39.758343,-86.065102,Hardee's,46219,Marion County
39.746384,-86.270737,Hardee's,46241,Marion County
39.781029,-86.170982,Hardee's,46204,Marion County
39.883690,-86.265884,Hardee's,46278,Marion County
39.836376,-86.026802,Hardee's,46226,Marion County
39.650066,-86.158218,Hardee's,46142,Johnson County
39.912521,-86.074722,Hardee's,46250,Marion County
39.796860,-86.009102,Hardee's,46229,Marion County
39.766769,-86.141571,Hardee's,46204,Marion County
39.766910,-86.149964,Hardee's,46204,Marion County
38.388538,-86.941338,Hardee's,47546,Dubois County
38.272900,-85.744797,Hardee's,40202,Jefferson County
40.505756,-86.112480,Hardee's,46901,Howard County
40.754406,-86.355713,Hardee's,46947,Cass County
40.522621,-85.673477,Hardee's,46953,Grant County
39.435352,-86.452957,Hardee's,46151,Morgan County
38.314858,-85.805203,Hardee's,47150,Floyd County
39.930630,-85.381537,Hardee's,47362,Henry County
39.564758,-86.092331,Hardee's,46184,Johnson County
37.976063,-87.404991,Hardee's,47630,Warrick County
40.045795,-85.996452,Hardee's,46062,Hamilton County
41.000034,-85.792610,Hardee's,46962,Wabash County
38.547943,-86.469254,Hardee's,47452,Orange County
40.759624,-86.072914,Hardee's,46970,Miami County
39.709808,-86.379845,Hardee's,46168,Hendricks County
41.585403,-87.216797,Hardee's,46368,Porter County
41.589165,-87.215393,Hardee's,46368,Porter County
39.873573,-84.935272,Hardee's,47374,Wayne County
39.606308,-85.444611,Hardee's,46173,Rush County
38.957996,-85.883865,Hardee's,47274,Jackson County
39.103153,-87.434837,Hardee's,47882,Sullivan County
39.468567,-87.414185,Hardee's,47807,Vigo County
39.427319,-87.415779,Hardee's,47802,Vigo County
38.666840,-87.513260,Hardee's,47591,Knox County
40.810818,-85.833939,Hardee's,46992,Wabash County
41.226913,-85.795891,Hardee's,46590,Kosciusko County
38.655159,-87.111366,Hardee's,47501,Daviess County
40.040714,-86.134422,Hardee's,46074,Hamilton County
40.044407,-86.469063,Hardee's,46052,Boone County
40.000973,-85.734009,Hardee's,46064,Madison County
38.095373,-96.579572,Hardee's,66862,Chase County
37.766141,-96.981548,Hardee's,67144,Butler County
38.412365,-96.165039,Hardee's,66801,Lyon County
39.116165,-94.766068,Hardee's,66112,Wyandotte County
39.270470,-94.899643,Hardee's,66043,Leavenworth County
39.842186,-96.632957,Hardee's,66518,Marshall County
38.871525,-94.834625,Hardee's,66062,Johnson County
37.008333,-94.725631,Hardee's,66713,Cherokee County
38.938278,-94.667801,Hardee's,66211,Johnson County
38.854809,-94.675049,Hardee's,66223,Johnson County
37.399181,-94.704875,Hardee's,66763,Crawford County
39.019556,-95.508887,Hardee's,66542,Shawnee County
39.029007,-95.762077,Hardee's,66604,Shawnee County
39.089108,-95.664459,Hardee's,66608,Shawnee County
39.058777,-95.704659,Hardee's,66606,Shawnee County
37.820202,-85.463036,Hardee's,40004,Nelson County
37.416447,-86.878525,Hardee's,42320,Ohio County
36.926109,-88.343864,Hardee's,42025,Marshall County
36.932873,-86.415581,Hardee's,42104,Warren County
36.969055,-86.479836,Hardee's,42101,Warren County
37.034332,-86.338806,Hardee's,42159,Warren County
37.008404,-86.373901,Hardee's,42101,Warren County
37.351433,-85.332016,Hardee's,42718,Taylor County
36.915524,-84.154083,Hardee's,40701,Whitley County
36.945023,-84.095596,Hardee's,40744,Laurel County
36.976460,-82.991501,Hardee's,40823,Harlan County
38.389465,-84.297607,Hardee's,41031,Harrison County
37.088032,-88.084351,Hardee's,42055,Lyon County
37.732948,-85.886719,Hardee's,42701,Hardin County
38.170483,-84.899887,Hardee's,40601,Franklin County
38.216145,-84.841263,Hardee's,40601,Franklin County
36.710438,-86.576118,Hardee's,42134,Simpson County
37.004333,-85.925072,Hardee's,42127,Barren County
36.989304,-85.900696,Hardee's,42141,Barren County
38.341824,-82.942780,Hardee's,41143,Carter County
37.227352,-87.167679,Hardee's,42367,Muhlenberg County
37.765724,-86.441628,Hardee's,40144,Breckinridge County
36.797447,-83.264748,Hardee's,40818,Harlan County
37.290005,-83.226128,Hardee's,41701,Perry County
37.838284,-87.589058,Hardee's,42420,Henderson County
37.549995,-85.734001,Hardee's,42748,Larue County
36.838223,-87.478775,Hardee's,42240,Christian County
37.154793,-83.368073,Hardee's,41749,Leslie County
37.696411,-83.978020,Hardee's,40336,Estill County
37.558105,-83.378021,Hardee's,41339,Breathitt County
38.206287,-85.581589,Hardee's,40220,Jefferson County
37.170555,-82.637047,Hardee's,41517,Letcher County
37.581654,-84.784554,Hardee's,40422,Boyle County
37.474224,-86.294563,Hardee's,42754,Grayson County
38.042435,-84.463745,Hardee's,40505,Fayette County
38.062408,-84.467445,Hardee's,40505,Fayette County
38.005116,-84.451645,Hardee's,40502,Fayette County
37.111450,-84.097755,Hardee's,40741,Laurel County
37.123356,-84.078751,Hardee's,40741,Laurel County
38.096593,-82.615053,Hardee's,25514,Wayne County
38.158104,-85.722946,Hardee's,40209,Jefferson County
38.196911,-85.782738,Hardee's,40215,Jefferson County
37.327553,-87.484283,Hardee's,42431,Hopkins County
36.727142,-88.630074,Hardee's,42066,Graves County
38.615059,-83.809708,Hardee's,41056,Mason County
36.612614,-83.702843,Hardee's,40965,Bell County
36.848851,-84.836349,Hardee's,42633,Wayne County
38.178711,-83.439980,Hardee's,40351,Rowan County
37.226495,-86.697616,Hardee's,42261,Butler County
38.073849,-83.948471,Hardee's,40353,Montgomery County
37.353218,-84.340363,Hardee's,40456,Rockcastle County
36.617330,-88.315255,Hardee's,42071,Calloway County
37.867905,-84.578133,Hardee's,40356,Jessamine County
37.757725,-87.145912,Hardee's,42303,Daviess County
37.743439,-87.116112,Hardee's,42303,Daviess County
37.078617,-88.617722,Hardee's,42001,McCracken County
37.036232,-88.664619,Hardee's,42003,McCracken County
37.047829,-88.560684,Hardee's,42003,McCracken County
37.077152,-88.684868,Hardee's,42001,McCracken County
37.817505,-82.815514,Hardee's,41240,Johnson County
38.200817,-84.264610,Hardee's,40361,Bourbon County
37.483109,-82.519432,Hardee's,41501,Pike County
37.673767,-82.777420,Hardee's,41653,Floyd County
37.116566,-87.867645,Hardee's,42445,Caldwell County
37.860561,-85.948135,Hardee's,40160,Hardin County
37.775963,-84.319160,Hardee's,40475,Madison County
37.736195,-84.307892,Hardee's,40475,Madison County
37.173088,-84.625168,Hardee's,42553,Pulaski County
38.212734,-85.253828,Hardee's,40065,Shelby County
37.047177,-84.626044,Hardee's,42533,Pulaski County
37.088436,-84.616768,Hardee's,42503,Pulaski County
37.654610,-82.275452,Hardee's,41503,Pike County
37.693172,-85.242317,Hardee's,40069,Washington County
37.840347,-83.857788,Hardee's,40312,Powell County
36.731239,-84.166000,Hardee's,40769,Whitley County
38.005718,-84.208191,Hardee's,40391,Clark County
30.435127,-91.007505,Hardee's,70816,East Baton Rouge Parish
30.789713,-89.863930,Hardee's,70427,Washington Parish
29.952719,-89.977836,Hardee's,70032,St. Bernard Parish
30.450240,-90.956542,Hardee's,70819,East Baton Rouge Parish
30.253605,-93.013779,Hardee's,70647,Calcasieu Parish
30.189711,-92.013271,Hardee's,70508,Lafayette Parish
30.207473,-92.075503,Hardee's,70506,Lafayette Parish
30.198315,-93.223406,Hardee's,70601,Calcasieu Parish
30.365646,-90.065921,Hardee's,70448,St. Tammany Parish
29.875285,-90.093622,Hardee's,70058,Jefferson Parish
29.993019,-91.835724,Hardee's,70560,Iberia Parish
30.423259,-91.217530,Hardee's,70802,East Baton Rouge Parish
29.801783,-90.847283,Hardee's,70395,Terrebonne Parish
38.557899,-76.059998,Hardee's,21613,Dorchester County
39.048298,-76.062309,Hardee's,21617,Queen Anne's County
38.453587,-75.558228,Hardee's,19956,Sussex County
38.777828,-76.059975,Hardee's,21601,Talbot County
39.141987,-76.631874,Hardee's,21061,Anne Arundel County
39.698532,-78.175438,Hardee's,21750,Washington County
39.131657,-76.740517,Hardee's,20755,Anne Arundel County
39.224529,-76.659294,Hardee's,21090,Anne Arundel County
39.122765,-76.517044,Hardee's,21122,Anne Arundel County
38.075321,-75.568420,Hardee's,21851,Worcester County
38.213917,-75.698784,Hardee's,21853,Somerset County
38.344215,-75.603622,Hardee's,21826,Wicomico County
38.402466,-75.569153,Hardee's,21875,Wicomico County
38.975136,-76.299408,Hardee's,21619,Queen Anne's County
45.752289,-87.077530,Hardee's,49894,Delta County
42.463276,-83.103867,Hardee's,48030,Oakland County
47.120787,-88.578742,Hardee's,49931,Houghton County
45.825775,-88.062897,Hardee's,49802,Dickinson County
45.952644,-86.244339,Hardee's,49854,Schoolcraft County
46.546043,-87.419403,Hardee's,49855,Marquette County
42.277145,-84.932213,Hardee's,49068,Calhoun County
46.407219,-86.656075,Hardee's,49862,Alger County
41.820724,-86.247269,Hardee's,49120,Berrien County
42.997349,-84.164009,Hardee's,48867,Shiawassee County
42.551964,-83.048813,Hardee's,48310,Macomb County
43.638519,-93.368469,Hardee's,56007,Freeborn County
45.846065,-95.385927,Hardee's,56308,Douglas County
45.197884,-93.378326,Hardee's,55316,Hennepin County
47.490993,-94.881287,Hardee's,56601,Beltrami County
46.358231,-94.207840,Hardee's,56425,Crow Wing County
45.452477,-94.425865,Hardee's,56320,Stearns County
44.319920,-93.296585,Hardee's,55021,Rice County
44.805172,-95.542984,Hardee's,56241,Yellow Medicine County
47.420082,-92.925011,Hardee's,55746,St. Louis County
46.011882,-92.930183,Hardee's,55037,Pine County
44.896919,-94.372269,Hardee's,55350,McLeod County
48.595516,-93.428116,Hardee's,56649,Koochiching County
44.166825,-93.972152,Hardee's,56001,Blue Earth County
44.450399,-95.764449,Hardee's,56258,Lyon County
45.756686,-93.639260,Hardee's,56353,Mille Lacs County
45.875034,-93.289146,Hardee's,55051,Kanabec County
44.326613,-94.501901,Hardee's,56073,Brown County
45.209326,-93.555751,Hardee's,55374,Hennepin County
45.591990,-94.192478,Hardee's,56303,Stearns County
44.952534,-93.156944,Hardee's,55104,Ramsey County
45.724796,-94.952054,Hardee's,56378,Stearns County
44.297266,-94.726379,Hardee's,56085,Brown County
47.101753,-94.585236,Hardee's,56484,Cass County
45.104488,-95.043518,Hardee's,56201,Kandiyohi County
43.854725,-95.116173,Hardee's,56101,Cottonwood County
44.051014,-91.639408,Hardee's,55987,Winona County
43.631200,-95.588653,Hardee's,56187,Nobles County
45.443192,-93.586688,Hardee's,55398,Sherburne County
36.953072,-93.718246,Hardee's,65605,Lawrence County
37.921108,-90.527016,Hardee's,63628,St. Francois County
38.942574,-92.771194,Hardee's,65233,Cooper County
39.329128,-91.195602,Hardee's,63334,Pike County
38.734184,-90.392525,Hardee's,63074,St. Louis County
37.640663,-93.103157,Hardee's,65622,Dallas County
37.145725,-94.310211,Hardee's,64836,Jasper County
38.668198,-90.604980,Hardee's,63304,St. Charles County
38.366901,-93.776787,Hardee's,64735,Henry County
38.949467,-92.334015,Hardee's,65202,Boone County
38.967560,-92.307709,Hardee's,65202,Boone County
38.960972,-92.370247,Hardee's,65203,Boone County
38.990406,-93.568016,Hardee's,64020,Lafayette County
38.067284,-91.404846,Hardee's,65453,Crawford County
38.143074,-90.579460,Hardee's,63020,Jefferson County
38.346855,-92.579305,Hardee's,65026,Miller County
38.587959,-90.607483,Hardee's,63040,St. Louis County
38.513851,-90.437950,Hardee's,63026,St. Louis County
38.213310,-90.407974,Hardee's,63019,Jefferson County
37.568268,-90.284012,Hardee's,63645,Madison County
39.207710,-94.576492,Hardee's,64118,Clay County
39.705933,-91.389229,Hardee's,63401,Marion County
39.725651,-91.392136,Hardee's,63401,Marion County
38.663227,-94.365349,Hardee's,64701,Cass County
38.704708,-91.437843,Hardee's,65041,Gasconade County
38.231724,-90.562576,Hardee's,63050,Jefferson County
38.412209,-90.580612,Hardee's,63051,Jefferson County
37.319462,-91.958603,Hardee's,65483,Texas County
39.072262,-94.379799,Hardee's,64055,Jackson County
39.121086,-94.369087,Hardee's,64050,Jackson County
39.048218,-94.414886,Hardee's,64055,Jackson County
37.375790,-89.663673,Hardee's,63701,Cape Girardeau County
38.583538,-92.253723,Hardee's,65109,Cole County
37.084824,-94.532227,Hardee's,64801,Jasper County
37.071678,-94.514221,Hardee's,64801,Jasper County
37.034622,-94.517326,Hardee's,64804,Jasper County
37.096970,-94.476906,Hardee's,64801,Jasper County
38.885677,-94.600700,Hardee's,64145,Jackson County
39.104679,-94.508072,Hardee's,64123,Jackson County
39.209267,-94.638252,Hardee's,64151,Platte County
36.236736,-90.044930,Hardee's,63857,Dunklin County
40.184100,-92.571956,Hardee's,63501,Adair County
38.599113,-90.414116,Hardee's,63122,St. Louis County
38.802761,-90.770813,Hardee's,63367,St. Charles County
37.838924,-90.487885,Hardee's,63628,St. Francois County
37.668056,-92.649345,Hardee's,65536,Laclede County
38.911461,-94.395973,Hardee's,64081,Jackson County
38.519360,-90.305969,Hardee's,63125,St. Louis County
39.237568,-94.434051,Hardee's,64158,Clay County
39.434826,-91.069420,Hardee's,63353,Pike County
39.752247,-92.468033,Hardee's,63552,Macon County
36.568970,-89.970490,Hardee's,63863,Dunklin County
39.172367,-91.890236,Hardee's,65265,Audrain County
39.441650,-92.431580,Hardee's,65270,Randolph County
39.657730,-91.718559,Hardee's,63456,Monroe County
36.865551,-94.381218,Hardee's,64850,Newton County
37.837963,-94.378403,Hardee's,64772,Vernon County
39.012699,-94.128632,Hardee's,64011,Lafayette County
38.484310,-90.755959,Hardee's,63069,Franklin County
39.799797,-91.518227,Hardee's,63461,Marion County
37.732368,-89.863113,Hardee's,63775,Perry County
36.757072,-90.407875,Hardee's,63901,Butler County
37.936600,-90.788300,Hardee's,63660,Washington County
37.111214,-93.056877,Hardee's,65742,Webster County
37.953426,-91.777283,Hardee's,65401,Phelps County
38.781803,-90.532486,Hardee's,63303,St. Charles County
38.807487,-90.474930,Hardee's,63045,St. Louis County
39.802471,-94.815086,Hardee's,64506,Buchanan County
39.767605,-94.849297,Hardee's,64501,Buchanan County
38.765137,-90.203094,Hardee's,63137,St. Louis County
38.714401,-90.436615,Hardee's,63146,St. Louis County
38.697536,-90.440910,Hardee's,63146,St. Louis County
38.617374,-90.287140,Hardee's,63139,St. Louis city
38.578911,-90.229980,Hardee's,63111,St. Louis city
38.485874,-90.358658,Hardee's,63128,St. Louis County
38.630657,-90.285255,Hardee's,63110,St. Louis city
38.626675,-90.190865,Hardee's,63101,St. Louis city
38.713959,-90.229904,Hardee's,63147,St. Louis city
38.788296,-90.626205,Hardee's,63376,St. Charles County
37.815540,-92.141483,Hardee's,65584,Pulaski County
38.700642,-93.250732,Hardee's,65301,Pettis County
38.724571,-93.243591,Hardee's,65301,Pettis County
36.863350,-89.583092,Hardee's,63801,Scott County
37.205376,-93.276924,Hardee's,65806,Greene County
37.159386,-93.270294,Hardee's,65804,Greene County
37.116589,-93.370331,Hardee's,65619,Greene County
37.237278,-93.260941,Hardee's,65806,Greene County
37.209480,-93.227547,Hardee's,65809,Greene County
37.216000,-93.320053,Hardee's,65806,Greene County
37.222180,-93.135989,Hardee's,65809,Greene County
40.074459,-93.597832,Hardee's,64683,Grundy County
38.986404,-90.982239,Hardee's,63379,Lincoln County
38.444302,-91.000504,Hardee's,63084,Franklin County
38.566219,-90.496071,Hardee's,63021,St. Louis County
38.566715,-90.495911,Hardee's,63021,St. Louis County
38.555283,-91.011070,Hardee's,63090,Franklin County
38.814091,-90.875427,Hardee's,63348,St. Charles County
36.735966,-91.866028,Hardee's,65775,Howell County
37.302788,-89.546860,Hardee's,63703,Cape Girardeau County
38.567680,-90.396324,Hardee's,63126,St. Louis County
33.980572,-88.476555,Hardee's,38821,Monroe County
34.310158,-89.930450,Hardee's,38606,Panola County
31.982870,-89.288712,Hardee's,39422,Jasper County
34.680622,-88.560043,Hardee's,38829,Prentiss County
31.651278,-89.569901,Hardee's,39428,Covington County
31.239506,-89.817970,Hardee's,39429,Marion County
33.517311,-88.433060,Hardee's,39705,Lowndes County
33.493748,-88.371643,Hardee's,39702,Lowndes County
30.437189,-88.893219,Hardee's,39540,Harrison County
34.236881,-88.400932,Hardee's,38843,Itawamba County
30.391130,-88.647942,Hardee's,39553,Jackson County
33.376469,-91.039560,Hardee's,38701,Washington County
30.462854,-89.101723,Hardee's,39503,Harrison County
31.322639,-89.366982,Hardee's,39402,Lamar County
33.900242,-89.000107,Hardee's,38851,Chickasaw County
33.457993,-90.628328,Hardee's,38753,Sunflower County
34.803650,-88.204971,Hardee's,38852,Tishomingo County
31.663193,-89.161110,Hardee's,39440,Jones County
31.697048,-89.146912,Hardee's,39440,Jones County
31.697680,-89.115807,Hardee's,39443,Jones County
33.126122,-89.055466,Hardee's,39339,Winston County
30.910389,-88.597572,Hardee's,39452,George County
32.413601,-88.677406,Hardee's,39342,Lauderdale County
32.355164,-88.690865,Hardee's,39342,Lauderdale County
30.437820,-88.526833,Hardee's,39563,Jackson County
32.332272,-89.153107,Hardee's,39345,Newton County
30.371200,-88.541001,Hardee's,39581,Jackson County
31.346809,-89.263634,Hardee's,39401,Forrest County
32.770210,-89.128464,Hardee's,39350,Neshoba County
30.517445,-89.667007,Hardee's,70452,St. Tammany Parish
34.254200,-89.017792,Hardee's,38863,Pontotoc County
30.837961,-89.532730,Hardee's,39470,Pearl River County
32.037014,-88.728188,Hardee's,39355,Clarke County
34.373810,-88.700050,Hardee's,38866,Lee County
33.454651,-88.808029,Hardee's,39759,Oktibbeha County
34.255508,-88.744492,Hardee's,38801,Lee County
34.257626,-88.697296,Hardee's,38804,Lee County
34.194592,-88.719765,Hardee's,38801,Lee County
30.306853,-89.377390,Hardee's,39576,Hancock County
31.671318,-88.653450,Hardee's,39367,Wayne County
33.605267,-88.659195,Hardee's,39773,Clay County
45.769297,-108.576916,Hardee's,59102,Yellowstone County
45.787182,-108.509620,Hardee's,59102,Yellowstone County
45.987575,-112.508863,Hardee's,59750,Silver Bow County
47.506823,-111.305658,Hardee's,59401,Cascade County
47.494438,-111.261693,Hardee's,59401,Cascade County
46.616497,-112.004288,Hardee's,59601,Lewis and Clark County
46.598730,-112.042004,Hardee's,59601,Lewis and Clark County
45.667375,-108.771217,Hardee's,59044,Yellowstone County
35.149638,-79.418510,Hardee's,28387,Moore County
35.137500,-79.434100,Hardee's,28315,Moore County
35.343480,-80.177980,Hardee's,28001,Stanly County
35.143976,-76.789214,Hardee's,28556,Pamlico County
35.211808,-83.818598,Hardee's,28901,Cherokee County
35.903337,-79.952750,Hardee's,27263,Randolph County
35.689139,-79.809023,Hardee's,27203,Randolph County
35.503534,-82.524081,Hardee's,28803,Buncombe County
35.560446,-82.636776,Hardee's,28806,Buncombe County
35.566171,-82.543593,Hardee's,28801,Buncombe County
35.474916,-77.433583,Hardee's,28590,Pitt County
35.780267,-78.117016,Hardee's,27807,Nash County
36.061549,-77.817352,Hardee's,27891,Nash County
35.506700,-76.618200,Hardee's,27810,Beaufort County
35.255063,-81.043244,Hardee's,28101,Gaston County
34.923974,-77.774451,Hardee's,28518,Duplin County
35.360494,-79.772047,Hardee's,27356,Montgomery County
34.551445,-78.784143,Hardee's,28320,Bladen County
35.249900,-81.663700,Hardee's,28114,Rutherford County
36.216778,-81.678478,Hardee's,28607,Watauga County
36.209486,-81.673977,Hardee's,28607,Watauga County
35.118515,-77.017281,Hardee's,28560,Craven County
34.559296,-77.919287,Hardee's,28425,Pender County
36.110380,-79.467026,Hardee's,27244,Alamance County
36.066794,-79.428997,Hardee's,27215,Alamance County
36.063194,-79.469702,Hardee's,27215,Alamance County
35.915000,-82.290100,Hardee's,28714,Yancey County
35.531905,-82.865763,Hardee's,28716,Haywood County
34.035458,-77.893542,Hardee's,28428,New Hanover County
35.340782,-79.402009,Hardee's,28327,Moore County
34.352671,-77.900426,Hardee's,28429,New Hanover County
34.330971,-78.826588,Hardee's,28431,Columbus County
35.944557,-79.011868,Hardee's,27514,Orange County
35.909823,-78.983867,Hardee's,27707,Durham County
35.244153,-80.937660,Hardee's,28208,Mecklenburg County
35.258121,-80.736006,Hardee's,28213,Mecklenburg County
35.307839,-80.844242,Hardee's,28216,Mecklenburg County
35.286800,-80.736400,Hardee's,28213,Mecklenburg County
35.505000,-83.297100,Hardee's,28719,Jackson County
35.568256,-80.573907,Hardee's,28023,Rowan County
35.513300,-77.099650,Hardee's,27837,Pitt County
35.717600,-81.135000,Hardee's,28609,Catawba County
35.664889,-78.495539,Hardee's,27610,Wake County
34.991769,-78.351489,Hardee's,28328,Sampson County
35.008000,-78.336700,Hardee's,28328,Sampson County
35.414958,-78.673638,Hardee's,27521,Harnett County
35.425040,-80.594534,Hardee's,28083,Cabarrus County
35.697210,-81.222682,Hardee's,28613,Catawba County
36.161012,-78.725308,Hardee's,27509,Granville County
35.554010,-81.062539,Hardee's,28037,Lincoln County
35.270250,-78.617100,Hardee's,28334,Sampson County
35.993216,-78.869453,Hardee's,27701,Durham County
35.976376,-78.936170,Hardee's,27707,Durham County
36.053329,-78.904269,Hardee's,27712,Durham County
35.900378,-78.888743,Hardee's,27713,Durham County
36.492036,-79.746987,Hardee's,27288,Rockingham County
36.289319,-76.253497,Hardee's,27909,Pasquotank County
36.296018,-76.227196,Hardee's,27921,Camden County
36.179481,-77.664427,Hardee's,27823,Halifax County
35.083490,-79.010074,Hardee's,28314,Cumberland County
35.019135,-78.895504,Hardee's,28305,Cumberland County
35.005223,-78.966931,Hardee's,28304,Cumberland County
35.044977,-78.930830,Hardee's,28305,Cumberland County
35.097799,-78.916412,Hardee's,28301,Cumberland County
35.106913,-78.878886,Hardee's,28301,Cumberland County
35.052278,-78.864267,Hardee's,28301,Cumberland County
35.067127,-78.950917,Hardee's,28303,Cumberland County
35.044437,-78.975312,Hardee's,28304,Cumberland County
35.089208,-78.981889,Hardee's,28303,Cumberland County
35.157297,-78.869469,Hardee's,28311,Cumberland County
35.318196,-81.857696,Hardee's,28043,Rutherford County
35.187626,-83.371364,Hardee's,28734,Macon County
36.096771,-78.469254,Hardee's,27525,Franklin County
35.712807,-78.620139,Hardee's,27529,Wake County
36.500063,-77.645271,Hardee's,27832,Northampton County
35.238614,-81.194691,Hardee's,28052,Gaston County
35.287473,-81.187947,Hardee's,28054,Gaston County
35.398336,-77.967578,Hardee's,27531,Wayne County
35.401535,-78.017003,Hardee's,27531,Wayne County
35.385043,-77.993918,Hardee's,27531,Wayne County
36.239893,-75.875848,Hardee's,27939,Currituck County
35.811263,-81.436367,Hardee's,28638,Caldwell County
36.092384,-79.815572,Hardee's,27408,Guilford County
36.016139,-79.804152,Hardee's,27406,Guilford County
36.072937,-79.796269,Hardee's,27401,Guilford County
36.088079,-79.888528,Hardee's,27410,Guilford County
35.636088,-77.375461,Hardee's,27834,Pitt County
35.561822,-77.344446,Hardee's,27858,Pitt County
35.609808,-77.401321,Hardee's,27834,Pitt County
34.893160,-79.701749,Hardee's,28345,Richmond County
34.345100,-77.735900,Hardee's,28411,New Hanover County
35.312600,-80.646600,Hardee's,28075,Cabarrus County
35.042500,-83.777200,Hardee's,28904,Clay County
36.319522,-78.414783,Hardee's,27536,Vance County
35.335780,-82.446936,Hardee's,28739,Henderson County
35.401235,-82.509325,Hardee's,28791,Henderson County
36.097931,-76.537819,Hardee's,27932,Chowan County
35.732393,-81.365239,Hardee's,28602,Catawba County
35.686206,-81.369355,Hardee's,28602,Catawba County
35.995230,-80.031860,Hardee's,27265,Guilford County
36.061372,-79.962583,Hardee's,27235,Guilford County
35.707259,-81.423068,Hardee's,28637,Burke County
36.058311,-79.104012,Hardee's,27278,Orange County
35.408320,-80.854608,Hardee's,28078,Mecklenburg County
35.085904,-80.662720,Hardee's,28104,Union County
34.779462,-77.394371,Hardee's,28546,Onslow County
34.755463,-77.470807,Hardee's,28540,Onslow County
36.421837,-81.462693,Hardee's,28694,Ashe County
35.500286,-80.630933,Hardee's,28088,Rowan County
35.475540,-80.610894,Hardee's,28083,Cabarrus County
35.503313,-80.611180,Hardee's,28083,Cabarrus County
34.973200,-77.942400,Hardee's,28349,Duplin County
36.111682,-80.087062,Hardee's,27284,Forsyth County
35.241037,-81.334143,Hardee's,28016,Gaston County
35.244191,-77.586173,Hardee's,28501,Lenoir County
35.268489,-77.582962,Hardee's,28501,Lenoir County
35.262451,-77.645742,Hardee's,28504,Lenoir County
35.795484,-78.487066,Hardee's,27545,Wake County
34.805791,-79.542801,Hardee's,28352,Scotland County
34.232933,-77.995397,Hardee's,28401,New Hanover County
35.906803,-81.532216,Hardee's,28638,Caldwell County
35.832772,-80.253158,Hardee's,27295,Davidson County
35.426335,-78.729184,Hardee's,27521,Harnett County
35.475532,-81.243459,Hardee's,28092,Lincoln County
36.432750,-77.917150,Hardee's,27850,Halifax County
35.258099,-80.431453,Hardee's,28163,Stanly County
35.264484,-81.092367,Hardee's,28098,Gaston County
34.667775,-79.004038,Hardee's,28358,Robeson County
34.640774,-79.007059,Hardee's,28358,Robeson County
34.622145,-79.049219,Hardee's,28358,Robeson County
36.401675,-79.970859,Hardee's,27025,Rockingham County
35.696153,-82.024043,Hardee's,28752,McDowell County
35.670200,-81.951900,Hardee's,28752,McDowell County
35.867300,-82.515000,Hardee's,28754,Madison County
34.744698,-79.344970,Hardee's,28364,Robeson County
34.877400,-77.233200,Hardee's,28555,Onslow County
35.867200,-80.551100,Hardee's,27028,Davie County
34.987439,-80.530723,Hardee's,28112,Union County
35.594787,-80.865470,Hardee's,28117,Iredell County
34.724037,-76.744086,Hardee's,28557,Carteret County
35.725550,-81.692429,Hardee's,28655,Burke County
35.749517,-81.705322,Hardee's,28655,Burke County
36.501003,-80.637370,Hardee's,27030,Surry County
36.475137,-80.619944,Hardee's,27030,Surry County
35.410580,-80.436779,Hardee's,28124,Cabarrus County
36.530788,-76.184271,Hardee's,27958,Currituck County
35.977179,-77.971445,Hardee's,27856,Nash County
36.082782,-81.929264,Hardee's,28657,Avery County
35.244441,-78.351312,Hardee's,28366,Sampson County
33.898843,-78.487591,Hardee's,28468,Brunswick County
35.624862,-82.180930,Hardee's,28762,McDowell County
34.681104,-79.196017,Hardee's,28372,Robeson County
35.484100,-77.984800,Hardee's,27863,Wayne County
36.385773,-80.469039,Hardee's,27041,Surry County
35.789626,-77.634246,Hardee's,27864,Edgecombe County
35.720163,-79.175645,Hardee's,27312,Chatham County
35.470622,-78.156551,Hardee's,27569,Johnston County
34.993400,-79.225700,Hardee's,28376,Hoke County
35.768202,-78.694380,Hardee's,27606,Wake County
35.857931,-78.680875,Hardee's,27612,Wake County
35.786163,-78.722574,Hardee's,27607,Wake County
35.665391,-78.699738,Hardee's,27603,Wake County
35.899685,-78.651733,Hardee's,27615,Wake County
35.737902,-79.654679,Hardee's,27316,Randolph County
35.822859,-79.820091,Hardee's,27317,Randolph County
34.811248,-79.175008,Hardee's,28377,Robeson County
36.352277,-79.692629,Hardee's,27320,Rockingham County
34.865900,-77.576900,Hardee's,28574,Onslow County
36.455735,-77.655624,Hardee's,27870,Halifax County
36.432946,-77.634962,Hardee's,27890,Halifax County
34.912349,-79.790235,Hardee's,28379,Richmond County
35.554777,-80.412339,Hardee's,28146,Rowan County
35.944589,-77.776044,Hardee's,27809,Nash County
35.983599,-77.784897,Hardee's,27809,Nash County
35.963496,-77.848857,Hardee's,27804,Nash County
35.961206,-77.821315,Hardee's,27804,Nash County
35.932012,-77.811740,Hardee's,27803,Nash County
34.441817,-77.880402,Hardee's,28457,Pender County
35.917945,-78.465712,Hardee's,27571,Wake County
34.969440,-78.514060,Hardee's,28382,Sampson County
36.397520,-78.983397,Hardee's,27573,Person County
36.230200,-80.298100,Hardee's,27045,Forsyth County
35.384481,-81.967648,Hardee's,28160,Rutherford County
34.807124,-78.976523,Hardee's,28384,Bladen County
35.661674,-80.463255,Hardee's,28159,Rowan County
35.438030,-79.217853,Hardee's,27330,Lee County
35.452083,-79.136198,Hardee's,27332,Lee County
35.471280,-79.172687,Hardee's,27330,Lee County
36.123947,-77.423906,Hardee's,27874,Halifax County
35.538049,-79.787446,Hardee's,27205,Randolph County
35.866900,-77.829400,Hardee's,27803,Nash County
35.301757,-81.534980,Hardee's,28086,Cleveland County
35.519362,-78.312775,Hardee's,27577,Johnston County
34.548687,-77.434244,Hardee's,28460,Onslow County
33.940178,-78.026978,Hardee's,28461,Brunswick County
36.500509,-81.111670,Hardee's,28675,Alleghany County
35.163314,-78.973483,Hardee's,28307,Cumberland County
35.903200,-82.121100,Hardee's,28777,Mitchell County
35.355144,-81.091166,Hardee's,28164,Gaston County
35.786989,-80.889682,Hardee's,28677,Iredell County
35.035256,-78.751986,Hardee's,28391,Cumberland County
34.017549,-78.272956,Hardee's,28462,Brunswick County
34.427729,-77.546412,Hardee's,28443,Pender County
34.688879,-77.069682,Hardee's,28584,Carteret County
34.692358,-77.128678,Hardee's,28584,Carteret County
35.866765,-80.072143,Hardee's,27360,Davidson County
35.979093,-78.509032,Hardee's,27596,Franklin County
36.168821,-80.151682,Hardee's,27051,Forsyth County
34.744120,-77.996149,Hardee's,28464,Duplin County
36.308624,-80.141257,Hardee's,27019,Stokes County
36.403235,-78.159265,Hardee's,27563,Warren County
35.546389,-77.031434,Hardee's,27889,Beaufort County
35.583854,-77.093978,Hardee's,27889,Beaufort County
35.467426,-83.006039,Hardee's,28786,Haywood County
35.499331,-82.986780,Hardee's,28745,Haywood County
34.338963,-78.706892,Hardee's,28442,Columbus County
36.149115,-81.196217,Hardee's,28697,Wilkes County
34.242583,-77.889912,Hardee's,28403,New Hanover County
34.263859,-77.826251,Hardee's,28405,New Hanover County
34.215835,-77.900974,Hardee's,28403,New Hanover County
34.273396,-77.926195,Hardee's,28401,New Hanover County
34.210482,-77.925241,Hardee's,28403,New Hanover County
34.193239,-77.935548,Hardee's,28403,New Hanover County
34.231414,-77.876134,Hardee's,28403,New Hanover County
35.731039,-77.952268,Hardee's,27893,Wilson County
36.047563,-80.239014,Hardee's,27127,Forsyth County
36.093036,-80.267453,Hardee's,27104,Forsyth County
36.033512,-80.258514,Hardee's,27127,Forsyth County
36.115262,-80.659869,Hardee's,27055,Yadkin County
36.438226,-79.361967,Hardee's,27379,Caswell County
35.820165,-78.327782,Hardee's,27597,Wake County
46.822479,-100.720329,Hardee's,58501,Burleigh County
48.100910,-98.849556,Hardee's,58301,Ramsey County
46.878826,-102.788979,Hardee's,58601,Stark County
46.835115,-96.861981,Hardee's,58103,Cass County
46.876606,-96.844170,Hardee's,58103,Cass County
48.412312,-97.407608,Hardee's,58237,Walsh County
47.903488,-97.066711,Hardee's,58202,Grand Forks County
46.899899,-98.707870,Hardee's,58401,Stutsman County
46.827396,-100.883629,Hardee's,58504,Burleigh County
48.210594,-101.296219,Hardee's,58703,Ward County
48.259331,-101.296249,Hardee's,58703,Ward County
48.154446,-103.625481,Hardee's,58801,Williams County
41.212877,-96.106985,Hardee's,68137,Douglas County
41.212124,-95.961662,Hardee's,68107,Douglas County
41.166056,-96.139570,Hardee's,68138,Sarpy County
42.467072,-96.414185,Hardee's,68776,Dakota County
41.064201,-81.429512,Hardee's,44305,Summit County
39.774704,-84.080307,Hardee's,45431,Montgomery County
39.276169,-81.597290,Hardee's,26101,Wood County
40.870022,-82.877846,Hardee's,44887,Crawford County
40.995987,-81.996140,Hardee's,44254,Medina County
39.603207,-82.948975,Hardee's,43113,Pickaway County
40.270607,-81.869179,Hardee's,43812,Coshocton County
39.732500,-84.209142,Hardee's,45409,Montgomery County
39.819637,-84.186905,Hardee's,45414,Montgomery County
41.486507,-83.364899,Hardee's,43469,Sandusky County
41.486366,-83.370674,Hardee's,43469,Sandusky County
41.737034,-80.769585,Hardee's,44047,Ashtabula County
39.627388,-83.604530,Hardee's,43128,Fayette County
39.631275,-84.225929,Hardee's,45449,Montgomery County
40.733742,-81.094887,Hardee's,44657,Stark County
40.400391,-82.453964,Hardee's,43050,Knox County
40.462288,-81.407570,Hardee's,44663,Tuscarawas County
41.034832,-81.864418,Hardee's,44273,Medina County
39.895763,-83.811241,Hardee's,45502,Clark County
40.589931,-81.525337,Hardee's,44680,Tuscarawas County
41.642429,-81.423027,Hardee's,44095,Lake County
35.458775,-94.770239,Hardee's,74955,Sequoyah County
39.999531,-78.240601,Hardee's,15533,Bedford County
39.933720,-77.648651,Hardee's,17201,Franklin County
39.897064,-76.624382,Hardee's,17356,York County
40.368699,-76.937607,Hardee's,17018,Dauphin County
39.790691,-77.731247,Hardee's,17225,Franklin County
40.254875,-76.848877,Hardee's,17104,Dauphin County
39.806911,-77.012306,Hardee's,17344,Adams County
40.198261,-76.735222,Hardee's,17057,Dauphin County
40.492954,-79.975319,Hardee's,15209,Allegheny County
40.378025,-76.309189,Hardee's,17067,Lebanon County
39.884178,-76.862556,Hardee's,17362,York County
39.744534,-77.553932,Hardee's,17214,Franklin County
39.896603,-80.161179,Hardee's,15370,Greene County
39.984016,-76.734833,Hardee's,17401,York County
39.952339,-76.771248,Hardee's,17408,York County
34.172733,-82.376350,Hardee's,29620,Abbeville County
33.529423,-81.723312,Hardee's,29801,Aiken County
33.662800,-81.674149,Hardee's,29801,Aiken County
32.999832,-81.295326,Hardee's,29827,Allendale County
34.553501,-82.677767,Hardee's,29670,Anderson County
34.474148,-82.652222,Hardee's,29624,Anderson County
34.566933,-82.706879,Hardee's,29670,Anderson County
33.994225,-79.202972,Hardee's,29544,Horry County
33.289165,-81.037941,Hardee's,29003,Bamberg County
33.244740,-81.373016,Hardee's,29812,Barnwell County
33.902885,-81.548767,Hardee's,29006,Lexington County
34.516594,-82.487137,Hardee's,29627,Anderson County
34.216125,-80.251846,Hardee's,29010,Lee County
35.142021,-81.508148,Hardee's,29702,Cherokee County
34.212452,-80.980614,Hardee's,29016,Richland County
35.039612,-81.974770,Hardee's,29316,Spartanburg County
34.704227,-82.795219,Hardee's,29630,Pickens County
34.167217,-81.356606,Hardee's,29036,Lexington County
32.787304,-79.953148,Hardee's,29403,Charleston County
32.790571,-80.036235,Hardee's,29407,Charleston County
32.833462,-80.045296,Hardee's,29405,Charleston County
34.691013,-79.895309,Hardee's,29596,Marlboro County
35.138268,-81.861717,Hardee's,29323,Spartanburg County
34.705608,-81.190926,Hardee's,29706,Chester County
33.503128,-81.902374,Hardee's,29841,Aiken County
34.502728,-81.860985,Hardee's,29325,Laurens County
35.109257,-81.228226,Hardee's,29710,York County
33.975025,-80.956924,Hardee's,29205,Richland County
33.987656,-80.987480,Hardee's,29205,Richland County
34.068275,-81.138962,Hardee's,29212,Lexington County
34.063606,-81.023102,Hardee's,29203,Richland County
34.065540,-80.956978,Hardee's,29223,Richland County
33.954292,-80.923599,Hardee's,29205,Richland County
34.032261,-81.096573,Hardee's,29210,Richland County
33.845119,-79.062119,Hardee's,29526,Horry County
35.019779,-81.802368,Hardee's,29330,Spartanburg County
34.299957,-79.868729,Hardee's,29532,Darlington County
33.325928,-81.132172,Hardee's,29042,Bamberg County
34.418575,-79.369865,Hardee's,29536,Dillon County
34.916355,-82.109917,Hardee's,29334,Spartanburg County
34.828884,-82.609818,Hardee's,29640,Pickens County
34.826038,-82.563034,Hardee's,29642,Pickens County
34.698036,-81.937897,Hardee's,29335,Spartanburg County
34.164120,-79.765040,Hardee's,29501,Florence County
34.226940,-79.797073,Hardee's,29501,Florence County
34.188946,-79.806099,Hardee's,29501,Florence County
35.008392,-80.942825,Hardee's,29715,York County
35.061254,-80.962621,Hardee's,29708,York County
34.691097,-82.218231,Hardee's,29644,Greenville County
35.072968,-81.651108,Hardee's,29341,Cherokee County
35.080223,-81.632881,Hardee's,29341,Cherokee County
33.375229,-79.285614,Hardee's,29440,Georgetown County
32.969341,-80.006577,Hardee's,29445,Berkeley County
33.001324,-80.038277,Hardee's,29445,Berkeley County
34.823128,-82.289375,Hardee's,29615,Greenville County
34.860920,-82.404655,Hardee's,29601,Greenville County
34.880577,-82.454170,Hardee's,29617,Greenville County
34.859924,-82.266655,Hardee's,29615,Greenville County
34.831696,-82.404510,Hardee's,29601,Greenville County
34.771355,-82.385612,Hardee's,29605,Greenville County
34.205570,-82.191628,Hardee's,29649,Greenwood County
34.164852,-82.183311,Hardee's,29819,Greenwood County
34.942982,-82.256676,Hardee's,29650,Greenville County
34.951591,-82.184860,Hardee's,29365,Spartanburg County
32.873268,-81.116806,Hardee's,29924,Hampton County
34.360130,-80.067711,Hardee's,29550,Darlington County
33.750248,-79.447666,Hardee's,29554,Williamsburg County
33.323048,-80.413582,Hardee's,29059,Orangeburg County
34.446011,-82.389290,Hardee's,29654,Anderson County
35.041958,-82.089470,Hardee's,29322,Spartanburg County
34.124660,-81.234688,Hardee's,29063,Richland County
33.663029,-79.832939,Hardee's,29556,Williamsburg County
33.875298,-79.760513,Hardee's,29560,Florence County
34.733753,-80.768852,Hardee's,29720,Lancaster County
33.907486,-81.223389,Hardee's,29073,Lexington County
33.988392,-81.240120,Hardee's,29072,Lexington County
34.013222,-81.151382,Hardee's,29210,Richland County
34.776630,-82.673065,Hardee's,29657,Pickens County
34.055569,-78.888680,Hardee's,29569,Horry County
34.194832,-80.687256,Hardee's,29078,Kershaw County
34.955475,-82.129631,Hardee's,29385,Spartanburg County
33.690460,-80.213959,Hardee's,29102,Clarendon County
34.777618,-82.308762,Hardee's,29662,Greenville County
33.911308,-82.295334,Hardee's,29835,McCormick County
33.203835,-79.987823,Hardee's,29461,Berkeley County
32.804081,-79.890709,Hardee's,29464,Charleston County
34.187368,-79.339265,Hardee's,29574,Marion County
33.683346,-78.893684,Hardee's,29577,Horry County
33.734943,-78.832840,Hardee's,29572,Horry County
34.283504,-81.596531,Hardee's,29108,Newberry County
34.174854,-82.022659,Hardee's,29649,Greenwood County
33.529471,-81.947039,Hardee's,29841,Aiken County
32.935570,-80.043671,Hardee's,29406,Charleston County
32.873653,-80.021111,Hardee's,29405,Charleston County
32.866543,-80.019844,Hardee's,29405,Charleston County
32.914822,-80.106384,Hardee's,29420,Dorchester County
32.902203,-79.985825,Hardee's,29410,Berkeley County
33.827320,-78.681374,Hardee's,29582,Horry County
33.486286,-80.863121,Hardee's,29115,Orangeburg County
33.555416,-80.825569,Hardee's,29118,Orangeburg County
33.485779,-80.832069,Hardee's,29115,Orangeburg County
34.898144,-81.764519,Hardee's,29372,Spartanburg County
33.437653,-79.129288,Hardee's,29585,Georgetown County
34.203781,-79.533043,Hardee's,29506,Florence County
34.881874,-82.702919,Hardee's,29671,Pickens County
34.700802,-82.475273,Hardee's,29673,Greenville County
32.395035,-80.685951,Hardee's,29902,Beaufort County
32.776173,-80.249336,Hardee's,29470,Charleston County
34.956196,-81.047890,Hardee's,29732,York County
34.939121,-80.969055,Hardee's,29730,York County
34.871784,-81.959419,Hardee's,29306,Spartanburg County
33.195171,-80.600090,Hardee's,29477,Dorchester County
33.658775,-80.780098,Hardee's,29135,Calhoun County
34.614498,-82.935280,Hardee's,29678,Oconee County
34.756786,-82.268921,Hardee's,29662,Greenville County
34.982979,-81.972733,Hardee's,29303,Spartanburg County
34.966599,-81.894951,Hardee's,29307,Spartanburg County
34.919987,-81.886597,Hardee's,29306,Spartanburg County
35.013283,-81.900604,Hardee's,29303,Spartanburg County
34.919731,-81.995934,Hardee's,29301,Spartanburg County
34.968121,-81.929367,Hardee's,29303,Spartanburg County
32.952236,-80.163086,Hardee's,29485,Dorchester County
33.037331,-80.153236,Hardee's,29456,Dorchester County
33.046673,-80.107147,Hardee's,29456,Dorchester County
33.932388,-80.368774,Hardee's,29150,Sumter County
33.612217,-78.981842,Hardee's,29575,Horry County
33.638920,-78.989769,Hardee's,29575,Horry County
34.915321,-82.319473,Hardee's,29650,Greenville County
34.133766,-79.936134,Hardee's,29161,Florence County
34.964104,-82.432243,Hardee's,29617,Greenville County
34.732519,-81.639550,Hardee's,29379,Union County
34.762856,-83.056351,Hardee's,29696,Oconee County
32.907112,-80.666832,Hardee's,29488,Colleton County
33.975636,-81.075775,Hardee's,29033,Lexington County
33.982410,-81.100021,Hardee's,29169,Lexington County
33.928669,-81.077156,Hardee's,29172,Lexington County
34.659210,-83.088921,Hardee's,29693,Oconee County
34.614758,-82.500786,Hardee's,29697,Anderson County
33.400261,-81.419670,Hardee's,29853,Barnwell County
45.459213,-98.489922,Hardee's,57401,Brown County
44.649326,-103.860325,Hardee's,57779,Lawrence County
44.120436,-103.052098,Hardee's,57706,Meade County
44.311260,-96.765441,Hardee's,57006,Brookings County
45.194901,-96.606308,Hardee's,57252,Grant County
43.690070,-98.013036,Hardee's,57301,Davison County
44.368382,-100.356962,Hardee's,57532,Stanley County
44.087440,-103.194252,Hardee's,57701,Pennington County
44.107037,-103.221527,Hardee's,57701,Pennington County
44.079533,-103.225403,Hardee's,57701,Pennington County
43.546795,-96.713951,Hardee's,57103,Minnehaha County
43.518178,-96.730687,Hardee's,57105,Minnehaha County
43.543755,-96.785172,Hardee's,57105,Minnehaha County
44.889351,-97.109465,Hardee's,57201,Codington County
35.761952,-83.976504,Hardee's,37701,Blount County
36.070080,-86.685819,Hardee's,37211,Davidson County
34.994150,-86.853342,Hardee's,35739,Limestone County
36.268029,-87.059191,Hardee's,37015,Cheatham County
35.440454,-84.592667,Hardee's,37329,McMinn County
35.452320,-84.621662,Hardee's,37303,McMinn County
35.466920,-84.644113,Hardee's,37303,McMinn County
36.074520,-86.921326,Hardee's,37221,Davidson County
36.562533,-82.207899,Hardee's,24201,Bristol city
35.310700,-84.752300,Hardee's,37310,Bradley County
36.263761,-85.955611,Hardee's,37030,Smith County
35.287957,-84.812264,Hardee's,37310,Bradley County
35.026791,-85.363694,Hardee's,37350,Hamilton County
35.016802,-85.276946,Hardee's,37404,Hamilton County
35.121496,-85.293291,Hardee's,37415,Hamilton County
35.091529,-85.184219,Hardee's,37416,Hamilton County
35.053964,-85.187718,Hardee's,37421,Hamilton County
34.989819,-85.211767,Hardee's,37412,Hamilton County
35.005284,-85.152255,Hardee's,37421,Hamilton County
36.573332,-87.406916,Hardee's,37042,Montgomery County
36.514736,-87.300160,Hardee's,37040,Montgomery County
35.213073,-84.869619,Hardee's,37312,Bradley County
35.190897,-84.884210,Hardee's,37312,Bradley County
35.130702,-84.857119,Hardee's,37311,Bradley County
35.136418,-84.887833,Hardee's,37311,Bradley County
35.185300,-84.871282,Hardee's,37312,Bradley County
36.164688,-84.084467,Hardee's,37705,Anderson County
36.091472,-84.129440,Hardee's,37716,Anderson County
36.482857,-82.500349,Hardee's,37664,Sullivan County
35.617329,-87.065104,Hardee's,38401,Maury County
35.635496,-87.015935,Hardee's,38401,Maury County
36.139127,-85.527964,Hardee's,38501,Putnam County
36.157827,-85.500329,Hardee's,38501,Putnam County
35.029485,-84.384256,Hardee's,37317,Polk County
35.958217,-85.042158,Hardee's,38571,Cumberland County
35.964436,-84.981500,Hardee's,38571,Cumberland County
35.508948,-84.999093,Hardee's,37321,Rhea County
35.521104,-84.789348,Hardee's,37322,Meigs County
35.391300,-85.394500,Hardee's,37327,Sequatchie County
36.350137,-82.225110,Hardee's,37694,Carter County
36.128700,-82.427600,Hardee's,37650,Unicoi County
35.324700,-84.533000,Hardee's,37331,McMinn County
35.142329,-86.569181,Hardee's,37334,Lincoln County
35.915288,-86.828255,Hardee's,37067,Williamson County
35.905014,-86.875105,Hardee's,37067,Williamson County
36.390642,-86.437908,Hardee's,37066,Sumner County
36.321662,-86.704876,Hardee's,37115,Davidson County
36.178863,-82.776922,Hardee's,37616,Greene County
36.143802,-82.847595,Hardee's,37743,Greene County
35.913475,-84.581958,Hardee's,37748,Roane County
36.577115,-83.654772,Hardee's,40965,Bell County
36.171970,-86.601927,Hardee's,37214,Davidson County
35.145033,-85.224819,Hardee's,37343,Hamilton County
35.548853,-87.544987,Hardee's,38462,Lewis County
35.836858,-88.915065,Hardee's,38343,Gibson County
35.673412,-88.749468,Hardee's,38305,Madison County
36.435849,-84.936065,Hardee's,38556,Fentress County
35.053922,-85.627236,Hardee's,37347,Marion County
36.038963,-83.444115,Hardee's,37725,Jefferson County
36.125348,-83.470589,Hardee's,37760,Jefferson County
36.582493,-84.116029,Hardee's,37762,Campbell County
36.311549,-82.388765,Hardee's,37604,Washington County
36.354810,-82.382324,Hardee's,37604,Washington County
36.300492,-82.464903,Hardee's,37659,Washington County
36.503600,-82.558963,Hardee's,37660,Sullivan County
36.549490,-82.523449,Hardee's,37665,Sullivan County
36.573657,-82.507236,Hardee's,37665,Sullivan County
35.878978,-84.510343,Hardee's,37748,Roane County
36.024587,-83.923795,Hardee's,37917,Knox County
35.912989,-83.955398,Hardee's,37919,Knox County
35.943856,-83.911189,Hardee's,37916,Knox County
35.974436,-83.973104,Hardee's,37921,Knox County
36.001153,-83.874369,Hardee's,37917,Knox County
35.893919,-84.173609,Hardee's,37934,Knox County
36.007235,-84.025201,Hardee's,37912,Knox County
35.930671,-84.028305,Hardee's,37909,Knox County
36.088051,-83.923708,Hardee's,37918,Knox County
35.979391,-84.113311,Hardee's,37931,Knox County
35.912005,-84.085255,Hardee's,37923,Knox County
36.341706,-84.168033,Hardee's,37757,Campbell County
35.999954,-86.596456,Hardee's,37086,Rutherford County
36.520537,-86.036653,Hardee's,37083,Macon County
35.257110,-87.325293,Hardee's,38456,Lawrence County
36.211755,-86.315812,Hardee's,37087,Wilson County
36.188803,-86.295814,Hardee's,37090,Wilson County
35.822400,-84.298500,Hardee's,37771,Loudon County
36.378808,-85.332459,Hardee's,38570,Overton County
35.077400,-87.437100,Hardee's,38469,Lawrence County
35.720293,-84.365079,Hardee's,37774,Loudon County
35.512186,-84.373734,Hardee's,37354,Monroe County
35.474787,-86.079045,Hardee's,37355,Coffee County
35.755002,-83.951768,Hardee's,37701,Blount County
35.778671,-83.951791,Hardee's,37701,Blount County
35.716122,-84.016463,Hardee's,37803,Blount County
35.740838,-83.991002,Hardee's,37803,Blount County
36.227212,-83.842737,Hardee's,37779,Union County
35.682692,-85.779215,Hardee's,37110,Warren County
35.235029,-85.837446,Hardee's,37356,Grundy County
36.153323,-85.260286,Hardee's,38574,Putnam County
36.192817,-83.278842,Hardee's,37813,Hamblen County
36.233883,-83.286493,Hardee's,37813,Hamblen County
36.221397,-83.265355,Hardee's,37813,Hamblen County
36.199262,-83.340958,Hardee's,37813,Hamblen County
36.547018,-82.650397,Hardee's,37645,Hawkins County
36.231196,-86.510407,Hardee's,37122,Wilson County
36.465143,-81.801979,Hardee's,37683,Johnson County
35.849283,-86.363878,Hardee's,37130,Rutherford County
35.874706,-86.385468,Hardee's,37130,Rutherford County
35.846193,-86.441231,Hardee's,37128,Rutherford County
35.856197,-86.403540,Hardee's,37130,Rutherford County
36.151037,-86.700094,Hardee's,37210,Davidson County
36.080403,-86.726705,Hardee's,37211,Davidson County
35.951317,-83.200176,Hardee's,37821,Cocke County
36.007348,-84.260976,Hardee's,37830,Anderson County
35.123085,-84.719699,Hardee's,37362,Polk County
36.256285,-86.654920,Hardee's,37138,Davidson County
36.035498,-84.329571,Hardee's,37830,Anderson County
35.084685,-85.063286,Hardee's,37353,Bradley County
35.655848,-88.127030,Hardee's,38363,Decatur County
35.794583,-83.562987,Hardee's,37862,Sevier County
36.432992,-82.309127,Hardee's,37686,Sullivan County
36.575875,-86.514271,Hardee's,37148,Sumner County
36.046950,-84.003576,Hardee's,37912,Knox County
35.193558,-87.014837,Hardee's,38478,Giles County
35.870554,-84.680310,Hardee's,37854,Roane County
36.415719,-82.991658,Hardee's,37857,Hawkins County
36.280811,-83.515209,Hardee's,37888,Grainger County
35.225891,-88.255373,Hardee's,38327,Hardin County
35.156600,-88.579022,Hardee's,38375,McNairy County
35.843383,-83.571142,Hardee's,37862,Sevier County
35.870300,-83.570922,Hardee's,37876,Sevier County
35.871551,-83.757720,Hardee's,37865,Sevier County
35.488632,-86.456990,Hardee's,37160,Bedford County
35.957263,-85.812292,Hardee's,37166,DeKalb County
35.975761,-86.512739,Hardee's,37167,Rutherford County
36.525500,-83.258300,Hardee's,37869,Hancock County
35.236400,-85.198600,Hardee's,37379,Hamilton County
35.928657,-85.470187,Hardee's,38583,White County
35.693640,-84.860173,Hardee's,37381,Rhea County
36.494517,-86.878151,Hardee's,37172,Robertson County
35.597393,-84.503016,Hardee's,37826,McMinn County
36.469700,-83.551200,Hardee's,37752,Claiborne County
35.378445,-84.307409,Hardee's,37385,Monroe County
35.964114,-88.931764,Hardee's,38382,Gibson County
35.384465,-86.232149,Hardee's,37360,Coffee County
35.359565,-86.214400,Hardee's,37388,Coffee County
36.415363,-89.070270,Hardee's,38261,Obion County
35.591593,-84.233984,Hardee's,37742,Loudon County
36.102965,-84.578550,Hardee's,37887,Morgan County
36.559208,-86.240370,Hardee's,37186,Sumner County
36.463268,-86.684507,Hardee's,37188,Robertson County
35.183480,-85.527436,Hardee's,37397,Marion County
35.199759,-86.095133,Hardee's,37318,Franklin County
35.828293,-86.078564,Hardee's,37190,Cannon County
36.700920,-81.974269,Hardee's,24211,Washington County
37.114702,-79.281787,Hardee's,24517,Campbell County
37.612300,-79.072000,Hardee's,24521,Amherst County
37.363539,-78.848861,Hardee's,24522,Appomattox County
37.759254,-77.471673,Hardee's,23005,Hanover County
37.333363,-79.519133,Hardee's,24523,Bedford County
36.869642,-82.771569,Hardee's,24219,Wise County
37.231837,-80.433107,Hardee's,24060,Montgomery County
37.080589,-77.997584,Hardee's,23824,Nottoway County
37.242077,-81.261000,Hardee's,24613,Tazewell County
36.598360,-82.202550,Hardee's,24201,Bristol city
36.623201,-82.162538,Hardee's,24201,Bristol city
37.742137,-79.355073,Hardee's,24416,Buena Vista city
37.283716,-75.979424,Hardee's,23310,Northampton County
38.033823,-78.457325,Hardee's,22904,Albemarle County
38.012108,-78.502348,Hardee's,22902,Charlottesville city
38.081714,-78.474412,Hardee's,22904,Albemarle County
36.799265,-78.459218,Hardee's,23924,Mecklenburg County
36.854191,-79.396983,Hardee's,24531,Pittsylvania County
36.757611,-76.248884,Hardee's,23320,Chesapeake city
36.739920,-76.343760,Hardee's,23323,Chesapeake city
36.717395,-76.284247,Hardee's,23320,Chesapeake city
36.792203,-76.329236,Hardee's,23702,Portsmouth city
36.714607,-76.184594,Hardee's,23320,Chesapeake city
36.632615,-76.208016,Hardee's,23322,Chesapeake city
36.786206,-76.281987,Hardee's,23324,Chesapeake city
36.771602,-76.344231,Hardee's,23702,Portsmouth city
37.356325,-77.413594,Hardee's,23831,Chesterfield County
37.353517,-77.396818,Hardee's,23831,Chesterfield County
36.793617,-81.680008,Hardee's,24319,Smyth County
37.130425,-80.405539,Hardee's,24073,Montgomery County
37.136323,-80.361455,Hardee's,24073,Montgomery County
37.168665,-80.420612,Hardee's,24073,Montgomery County
36.621335,-78.563143,Hardee's,23927,Mecklenburg County
37.811666,-79.837790,Hardee's,24085,Botetourt County
37.149166,-82.470093,Hardee's,24228,Dickenson County
36.955000,-82.462400,Hardee's,24230,Wise County
36.720107,-79.913077,Hardee's,24078,Henry County
37.256684,-77.411437,Hardee's,23834,Colonial Heights city
37.258767,-77.398736,Hardee's,23834,Colonial Heights city
36.686675,-77.023429,Hardee's,23851,Franklin city
37.781668,-79.986396,Hardee's,24426,Alleghany County
37.174007,-78.124426,Hardee's,23930,Nottoway County
36.626640,-79.401306,Hardee's,24540,Danville city
36.580763,-79.342771,Hardee's,24540,Danville city
36.567510,-79.432198,Hardee's,24540,Danville city
36.586620,-79.422747,Hardee's,24540,Danville city
37.107762,-80.695126,Hardee's,24141,Radford city
36.711960,-82.794289,Hardee's,24244,Scott County
36.678300,-77.564100,Hardee's,23847,Greensville County
37.521661,-75.831493,Hardee's,23350,Northampton County
38.344807,-77.498577,Hardee's,22401,Fredericksburg city
36.912069,-80.316089,Hardee's,24091,Floyd County
36.678092,-76.921118,Hardee's,23851,Franklin city
38.309966,-77.465033,Hardee's,22401,Fredericksburg city
38.256184,-77.497728,Hardee's,22401,Fredericksburg city
36.664964,-80.925997,Hardee's,24333,Galax city
36.638751,-82.577354,Hardee's,24290,Scott County
37.393174,-76.528135,Hardee's,23072,Gloucester County
37.699322,-77.888603,Hardee's,23102,Goochland County
38.142278,-78.189872,Hardee's,22942,Louisa County
37.159089,-76.462833,Hardee's,23692,York County
37.281500,-82.104000,Hardee's,24614,Buchanan County
36.760581,-78.927934,Hardee's,24558,Halifax County
37.016508,-76.325170,Hardee's,23651,Hampton city
37.007248,-76.402150,Hardee's,23661,Hampton city
37.079800,-76.385200,Hardee's,23665,York County
37.043637,-76.342259,Hardee's,23669,Hampton city
37.020609,-76.438350,Hardee's,23605,Newport News city
37.042726,-76.428120,Hardee's,23666,Hampton city
38.440571,-78.857448,Hardee's,22801,Harrisonburg city
37.274980,-76.499426,Hardee's,23062,Gloucester County
37.538317,-77.320031,Hardee's,23075,Henrico County
36.763200,-80.734777,Hardee's,24343,Carroll County
37.281997,-77.304355,Hardee's,23801,Prince George County
37.306046,-77.290048,Hardee's,23836,Chesterfield County
36.754149,-77.851139,Hardee's,23868,Brunswick County
36.893800,-82.070700,Hardee's,24266,Russell County
37.775395,-79.433001,Hardee's,24450,Rockbridge County
38.020720,-77.996026,Hardee's,23117,Louisa County
38.665537,-78.449935,Hardee's,22835,Page County
37.344204,-79.235003,Hardee's,24502,Lynchburg city
37.412411,-79.172906,Hardee's,24502,Lynchburg city
37.214990,-79.102410,Hardee's,24588,Campbell County
37.457700,-79.110700,Hardee's,24503,Lynchburg city
36.835507,-81.515971,Hardee's,24354,Smyth County
36.683754,-79.878239,Hardee's,24112,Henry County
36.687965,-79.862944,Hardee's,24112,Henry County
37.436407,-76.320496,Hardee's,23109,Mathews County
37.443000,-77.584022,Hardee's,23236,Chesterfield County
37.408225,-77.656030,Hardee's,23112,Chesterfield County
37.044878,-76.473427,Hardee's,23601,Newport News city
37.056058,-76.463992,Hardee's,23601,Newport News city
37.165157,-76.541039,Hardee's,23608,Newport News city
37.130191,-76.534564,Hardee's,23602,Newport News city
36.914963,-76.220427,Hardee's,23518,Norfolk city
36.836417,-76.263853,Hardee's,23523,Norfolk city
36.866631,-76.236451,Hardee's,23504,Norfolk city
36.868972,-76.292202,Hardee's,23517,Norfolk city
36.855507,-76.204933,Hardee's,23502,Norfolk city
36.911737,-76.255316,Hardee's,23518,Norfolk city
36.929341,-76.318092,Hardee's,23511,Norfolk city
36.938405,-82.610103,Hardee's,24273,Norton city
37.700696,-75.713333,Hardee's,23418,Accomack County
38.248259,-78.112666,Hardee's,22960,Orange County
37.331500,-80.741985,Hardee's,24134,Giles County
36.761253,-83.020525,Hardee's,24277,Lee County
37.206330,-77.383445,Hardee's,23801,Prince George County
37.215786,-77.366222,Hardee's,23801,Prince George County
37.203039,-77.461065,Hardee's,23803,Petersburg city
36.819571,-76.381115,Hardee's,23701,Portsmouth city
36.860953,-76.395754,Hardee's,23703,Portsmouth city
36.837000,-76.308140,Hardee's,23708,Portsmouth city
37.048363,-80.759570,Hardee's,24301,Pulaski County
37.145950,-80.584523,Hardee's,24141,Radford city
37.098300,-81.804100,Hardee's,24609,Tazewell County
37.505883,-77.602504,Hardee's,23236,Chesterfield County
37.632914,-77.506672,Hardee's,23228,Henrico County
37.577621,-77.395401,Hardee's,23222,Richmond city
37.460272,-77.442115,Hardee's,23234,Chesterfield County
37.519807,-77.350790,Hardee's,23250,Henrico County
37.584798,-77.496998,Hardee's,23230,Henrico County
37.613814,-77.470202,Hardee's,23227,Henrico County
37.497911,-77.542507,Hardee's,23225,Richmond city
37.635541,-77.458970,Hardee's,23227,Henrico County
37.563498,-77.469180,Hardee's,23220,Richmond city
36.630846,-79.859543,Hardee's,24148,Henry County
37.290483,-79.909456,Hardee's,24013,Roanoke city
37.313022,-80.006370,Hardee's,24017,Roanoke city
37.304686,-79.979903,Hardee's,24017,Roanoke city
37.306266,-79.931649,Hardee's,24012,Roanoke city
37.235316,-80.005215,Hardee's,24015,Roanoke city
37.225100,-79.982475,Hardee's,24015,Roanoke city
37.310892,-79.950037,Hardee's,24017,Roanoke city
37.268993,-79.928989,Hardee's,24013,Roanoke city
37.347711,-79.952555,Hardee's,24019,Roanoke County
37.002654,-79.881694,Hardee's,24151,Franklin County
37.277380,-79.099614,Hardee's,24588,Campbell County
36.905511,-82.316310,Hardee's,24224,Russell County
37.275674,-80.036837,Hardee's,24017,Roanoke city
37.298003,-80.029093,Hardee's,24017,Roanoke city
37.287781,-80.092979,Hardee's,24153,Salem city
37.590500,-76.595200,Hardee's,23149,Middlesex County
36.962771,-76.605419,Hardee's,23314,Isle of Wight County
36.687263,-78.899740,Hardee's,24592,Halifax County
36.702627,-78.906042,Hardee's,24592,Halifax County
36.717828,-78.116805,Hardee's,23950,Mecklenburg County
38.234247,-77.558044,Hardee's,22407,Spotsylvania County
38.471110,-77.413047,Hardee's,22554,Stafford County
36.739102,-79.942536,Hardee's,24168,Henry County
38.152461,-79.073924,Hardee's,24401,Staunton city
36.637046,-80.270170,Hardee's,24171,Patrick County
38.033007,-79.039897,Hardee's,24477,Augusta County
36.725541,-76.634264,Hardee's,23434,Suffolk city
36.759695,-76.587312,Hardee's,23434,Suffolk city
36.732193,-76.598426,Hardee's,23434,Suffolk city
37.130449,-81.493155,Hardee's,24651,Tazewell County
38.629391,-78.777952,Hardee's,22853,Rockingham County
37.386173,-79.902778,Hardee's,24175,Botetourt County
38.193807,-79.001156,Hardee's,24482,Augusta County
36.883762,-76.183396,Hardee's,23502,Norfolk city
36.789215,-75.997307,Hardee's,23454,Virginia Beach city
36.794926,-76.117759,Hardee's,23453,Virginia Beach city
36.875939,-76.039474,Hardee's,23451,Virginia Beach city
36.842045,-76.047381,Hardee's,23451,Virginia Beach city
36.844469,-76.152243,Hardee's,23462,Virginia Beach city
36.841976,-76.088919,Hardee's,23452,Virginia Beach city
36.819697,-76.120976,Hardee's,23462,Virginia Beach city
36.811752,-76.204725,Hardee's,23464,Virginia Beach city
36.862469,-76.132519,Hardee's,23462,Virginia Beach city
36.815385,-76.164886,Hardee's,23464,Virginia Beach city
37.961495,-76.776288,Hardee's,22572,Richmond County
37.031531,-77.086180,Hardee's,23890,Sussex County
38.072039,-78.900210,Hardee's,22980,Waynesboro city
37.536921,-76.800043,Hardee's,23110,King and Queen County
37.272590,-76.680646,Hardee's,23188,James City County
37.340432,-76.754309,Hardee's,23188,James City County
36.979606,-82.583983,Hardee's,24273,Norton city
36.952089,-81.072861,Hardee's,24382,Wythe County
37.116437,-76.463933,Hardee's,23693,York County
44.294708,-88.375041,Hardee's,54911,Outagamie County
44.941914,-92.373779,Hardee's,54002,St. Croix County
44.303745,-90.844078,Hardee's,54615,Jackson County
45.099209,-91.500710,Hardee's,54724,Chippewa County
44.928549,-90.314753,Hardee's,54421,Clark County
43.054108,-88.372223,Hardee's,53018,Waukesha County
42.974682,-90.132530,Hardee's,53533,Iowa County
44.793720,-91.514061,Hardee's,54703,Eau Claire County
44.849461,-91.474579,Hardee's,54720,Eau Claire County
42.985962,-90.655396,Hardee's,53809,Grant County
43.784455,-88.473479,Hardee's,54935,Fond du Lac County
44.523579,-88.100159,Hardee's,54303,Brown County
44.465508,-87.948128,Hardee's,54311,Brown County
44.474781,-88.075127,Hardee's,54304,Brown County
42.719296,-88.995132,Hardee's,53546,Rock County
43.841648,-91.248428,Hardee's,54601,La Crosse County
43.796093,-91.217682,Hardee's,54601,La Crosse County
43.131550,-89.300003,Hardee's,53718,Dane County
44.080859,-87.695956,Hardee's,54220,Manitowoc County
45.099635,-87.636558,Hardee's,54143,Marinette County
44.653374,-90.182716,Hardee's,54441,Wood County
45.139252,-90.345039,Hardee's,54451,Taylor County
45.182793,-89.682953,Hardee's,54452,Lincoln County
43.096611,-89.516586,Hardee's,53562,Dane County
44.175720,-88.484779,Hardee's,54956,Winnebago County
44.552605,-90.595634,Hardee's,54456,Clark County
43.961234,-90.379038,Hardee's,54618,Juneau County
43.994377,-88.578918,Hardee's,54904,Winnebago County
44.020491,-88.542725,Hardee's,54902,Winnebago County
44.579029,-91.223846,Hardee's,54758,Trempealeau County
43.039787,-91.139397,Hardee's,52157,Clayton County
42.717655,-87.846359,Hardee's,53406,Racine County
45.633472,-89.381042,Hardee's,54501,Oneida County
45.482185,-91.733528,Hardee's,54868,Barron County
42.959305,-87.878990,Hardee's,53110,Milwaukee County
44.781914,-88.585686,Hardee's,54166,Shawano County
43.794353,-87.765144,Hardee's,53083,Sheboygan County
44.505054,-89.567337,Hardee's,54481,Portage County
44.529423,-89.574600,Hardee's,54481,Portage County
46.720543,-92.099731,Hardee's,55802,St. Louis County
43.193478,-88.717651,Hardee's,53094,Jefferson County
43.013969,-88.230515,Hardee's,53186,Waukesha County
44.358109,-89.096275,Hardee's,54981,Waupaca County
44.957493,-89.668037,Hardee's,54401,Marathon County
44.378061,-89.817167,Hardee's,54469,Wood County
38.413624,-82.307213,Hardee's,25504,Cabell County
37.748966,-81.134834,Hardee's,25832,Raleigh County
37.791691,-81.214684,Hardee's,25801,Raleigh County
38.406113,-81.539337,Hardee's,25302,Kanawha County
37.265106,-81.234917,Hardee's,24314,Bland County
38.978882,-80.224586,Hardee's,26201,Upshur County
37.976376,-82.018585,Hardee's,25505,Logan County
38.361225,-81.622864,Hardee's,25301,Kanawha County
39.272774,-80.322350,Hardee's,26408,Harrison County
38.922855,-79.843452,Hardee's,26241,Randolph County
39.428234,-80.188129,Hardee's,26431,Harrison County
37.614296,-81.866753,Hardee's,25621,Mingo County
38.411530,-82.484962,Hardee's,25703,Cabell County
39.469845,-79.673752,Hardee's,26537,Preston County
37.813648,-80.431030,Hardee's,24938,Greenbrier County
37.483094,-82.519172,Hardee's,41501,Pike County
38.239002,-81.557251,Hardee's,25315,Kanawha County
39.625370,-79.925385,Hardee's,26505,Monongalia County
37.698738,-81.636688,Hardee's,24870,Wyoming County
39.264885,-81.537224,Hardee's,26101,Wood County
39.232960,-81.541435,Hardee's,26101,Wood County
39.291416,-81.527412,Hardee's,26105,Wood County
39.149467,-80.036545,Hardee's,26250,Barbour County
37.361145,-81.099037,Hardee's,24740,Mercer County
37.360954,-81.055260,Hardee's,24740,Mercer County
37.967579,-80.779243,Hardee's,25962,Greenbrier County
37.728439,-81.242546,Hardee's,25827,Raleigh County
38.367615,-81.686371,Hardee's,25303,Kanawha County
38.283764,-80.844795,Hardee's,26651,Nicholas County
39.324135,-81.550339,Hardee's,26105,Wood County
39.037910,-80.467567,Hardee's,26452,Lewis County
40.076931,-80.695129,Hardee's,43935,Belmont County
37.803098,-80.285566,Hardee's,24986,Greenbrier County
44.354328,-106.694832,Hardee's,82834,Johnson County
42.850040,-106.270943,Hardee's,82609,Natrona County
42.849339,-106.335533,Hardee's,82609,Natrona County
44.293095,-105.495071,Hardee's,82727,Campbell County
