latitude,longitude,name,zipcode,county
36.393456,-78.996918,Jack in the Box,27573,Person County
34.973568,-80.511406,Jack in the Box,28112,Union County
35.015190,-80.571159,Jack in the Box,28079,Union County
35.366177,-80.711800,Jack in the Box,28027,Cabarrus County
35.323315,-80.732277,Jack in the Box,28262,Mecklenburg County
35.341965,-80.767265,Jack in the Box,28269,Mecklenburg County
35.333160,-80.793449,Jack in the Box,28269,Mecklenburg County
35.175785,-80.797997,Jack in the Box,28211,Mecklenburg County
35.347656,-80.843689,Jack in the Box,28269,Mecklenburg County
35.087532,-80.851051,Jack in the Box,28226,Mecklenburg County
35.196453,-80.851295,Jack in the Box,28203,Mecklenburg County
35.306370,-80.851540,Jack in the Box,28216,Mecklenburg County
35.790600,-80.854652,Jack in the Box,28677,Iredell County
35.593227,-80.854935,Jack in the Box,28117,Iredell County
35.815842,-80.876434,Jack in the Box,28625,Iredell County
35.266609,-80.881409,Jack in the Box,28208,Mecklenburg County
35.216259,-80.883583,Jack in the Box,28203,Mecklenburg County
35.137424,-80.903671,Jack in the Box,28273,Mecklenburg County
35.112434,-80.919067,Jack in the Box,28273,Mecklenburg County
35.118404,-80.955826,Jack in the Box,28273,Mecklenburg County
34.940323,-80.979759,Jack in the Box,29730,York County
34.974125,-80.986214,Jack in the Box,29715,York County
34.931946,-81.058220,Jack in the Box,29732,York County
35.257858,-81.115089,Jack in the Box,28098,Gaston County
35.315620,-81.189331,Jack in the Box,28034,Gaston County
35.717628,-81.226448,Jack in the Box,28613,Catawba County
35.703472,-81.311195,Jack in the Box,28602,Catawba County
35.740669,-81.366173,Jack in the Box,28637,Burke County
35.918652,-81.524361,Jack in the Box,28638,Caldwell County
35.274776,-81.531738,Jack in the Box,28073,Cleveland County
34.964550,-81.898026,Jack in the Box,29306,Spartanburg County
34.937088,-81.986832,Jack in the Box,29301,Spartanburg County
34.906620,-82.100052,Jack in the Box,29334,Spartanburg County
34.951591,-82.184860,Jack in the Box,29365,Spartanburg County
34.806473,-82.232002,Jack in the Box,29681,Greenville County
34.705799,-82.257698,Jack in the Box,29680,Greenville County
34.753323,-82.265747,Jack in the Box,29681,Greenville County
34.860291,-82.268692,Jack in the Box,29615,Greenville County
34.832092,-82.307938,Jack in the Box,29615,Greenville County
34.848251,-82.327080,Jack in the Box,29615,Greenville County
34.826332,-82.345306,Jack in the Box,29607,Greenville County
34.869026,-82.358017,Jack in the Box,29607,Greenville County
34.802414,-82.375793,Jack in the Box,29605,Greenville County
34.887463,-82.405159,Jack in the Box,29609,Greenville County
35.347450,-82.434807,Jack in the Box,28791,Henderson County
34.855106,-82.456184,Jack in the Box,29611,Greenville County
34.821278,-82.588181,Jack in the Box,29642,Pickens County
34.510273,-82.651825,Jack in the Box,29621,Anderson County
34.688744,-82.995682,Jack in the Box,29672,Oconee County
36.136467,-85.502289,Jack in the Box,38501,Putnam County
36.195309,-86.292984,Jack in the Box,37090,Wilson County
35.887215,-86.382439,Jack in the Box,37130,Rutherford County
35.846844,-86.429680,Jack in the Box,37128,Rutherford County
35.966286,-86.504379,Jack in the Box,37167,Rutherford County
36.314304,-86.591080,Jack in the Box,37075,Sumner County
36.176441,-86.603317,Jack in the Box,37214,Davidson County
36.182583,-86.640198,Jack in the Box,37214,Davidson County
36.088993,-86.650574,Jack in the Box,37217,Davidson County
36.152382,-86.683823,Jack in the Box,37214,Davidson County
36.084518,-86.703041,Jack in the Box,37211,Davidson County
36.327576,-86.707886,Jack in the Box,37115,Davidson County
36.127308,-86.711411,Jack in the Box,37210,Davidson County
36.256081,-86.714584,Jack in the Box,37115,Davidson County
36.141678,-86.741241,Jack in the Box,37210,Davidson County
36.041538,-86.748886,Jack in the Box,37211,Davidson County
36.269398,-86.755783,Jack in the Box,37207,Davidson County
36.206806,-86.778534,Jack in the Box,37228,Davidson County
36.151348,-86.799683,Jack in the Box,37203,Davidson County
35.947445,-86.819527,Jack in the Box,37067,Williamson County
35.895615,-86.829109,Jack in the Box,37067,Williamson County
36.149891,-86.858475,Jack in the Box,37209,Davidson County
36.490120,-86.869644,Jack in the Box,37172,Robertson County
36.055641,-86.945084,Jack in the Box,37221,Davidson County
36.553249,-87.396477,Jack in the Box,37042,Montgomery County
39.181137,-89.674072,Jack in the Box,62056,Montgomery County
38.732136,-89.908882,Jack in the Box,62294,Madison County
38.421803,-89.909195,Jack in the Box,62243,St. Clair County
38.592747,-89.950813,Jack in the Box,62269,St. Clair County
38.809067,-89.952141,Jack in the Box,62025,Madison County
38.776699,-89.955193,Jack in the Box,62034,Madison County
38.534336,-89.983643,Jack in the Box,62226,St. Clair County
38.659737,-90.027916,Jack in the Box,62232,St. Clair County
38.873756,-90.098183,Jack in the Box,62024,Madison County
38.723637,-90.122688,Jack in the Box,62040,Madison County
38.702232,-90.143463,Jack in the Box,62060,Madison County
38.902256,-90.149216,Jack in the Box,63386,St. Charles County
38.890312,-90.175186,Jack in the Box,63386,St. Charles County
38.765438,-90.203026,Jack in the Box,63137,St. Louis County
38.608452,-90.212723,Jack in the Box,63104,St. Louis city
38.786942,-90.233223,Jack in the Box,63033,St. Louis County
38.611855,-90.240555,Jack in the Box,63104,St. Louis city
38.640209,-90.246040,Jack in the Box,63108,St. Louis city
38.591473,-90.251671,Jack in the Box,63116,St. Louis city
38.558022,-90.262665,Jack in the Box,63116,St. Louis city
38.591393,-90.273514,Jack in the Box,63116,St. Louis city
38.771893,-90.279762,Jack in the Box,63135,St. Louis County
38.627136,-90.287354,Jack in the Box,63110,St. Louis city
38.511250,-90.291290,Jack in the Box,63125,St. Louis County
38.548717,-90.293320,Jack in the Box,63123,St. Louis County
38.468395,-90.305344,Jack in the Box,63129,St. Louis County
38.773693,-90.308357,Jack in the Box,63135,St. Louis County
38.801552,-90.313515,Jack in the Box,63033,St. Louis County
38.665115,-90.315094,Jack in the Box,63130,St. Louis County
38.612480,-90.323822,Jack in the Box,63143,St. Louis County
38.499249,-90.335068,Jack in the Box,63125,St. Louis County
38.683826,-90.336067,Jack in the Box,63130,St. Louis County
38.568192,-90.339371,Jack in the Box,63123,St. Louis County
38.729195,-90.344772,Jack in the Box,63134,St. Louis County
38.521530,-90.346848,Jack in the Box,63123,St. Louis County
38.780899,-90.355293,Jack in the Box,63042,St. Louis County
38.808250,-90.359299,Jack in the Box,63031,St. Louis County
38.700798,-90.362305,Jack in the Box,63114,St. Louis County
38.438339,-90.373726,Jack in the Box,63010,Jefferson County
38.507912,-90.376160,Jack in the Box,63128,St. Louis County
38.782372,-90.383446,Jack in the Box,63042,St. Louis County
38.369200,-90.385800,Jack in the Box,63052,Jefferson County
38.556973,-90.387573,Jack in the Box,63126,St. Louis County
38.691586,-90.390915,Jack in the Box,63132,St. Louis County
38.735752,-90.395943,Jack in the Box,63074,St. Louis County
38.255302,-90.400215,Jack in the Box,63048,Jefferson County
38.213497,-90.401382,Jack in the Box,63019,Jefferson County
38.753460,-90.428925,Jack in the Box,63044,St. Louis County
37.793037,-90.437042,Jack in the Box,63640,St. Francois County
38.761776,-90.458679,Jack in the Box,63045,St. Louis County
38.542549,-90.463509,Jack in the Box,63088,St. Louis County
38.774384,-90.490433,Jack in the Box,63045,St. Louis County
38.817558,-90.512360,Jack in the Box,63045,St. Louis County
37.880188,-90.517586,Jack in the Box,63628,St. Francois County
38.476299,-90.522209,Jack in the Box,63049,Jefferson County
38.781506,-90.532036,Jack in the Box,63303,St. Charles County
38.592678,-90.560936,Jack in the Box,63011,St. Louis County
38.791290,-90.573212,Jack in the Box,63376,St. Charles County
38.748081,-90.591560,Jack in the Box,63303,St. Charles County
38.581722,-90.616241,Jack in the Box,63040,St. Louis County
38.795074,-90.619949,Jack in the Box,63376,St. Charles County
38.744354,-90.634430,Jack in the Box,63304,St. Charles County
38.796093,-90.656921,Jack in the Box,63376,St. Charles County
38.696419,-90.666290,Jack in the Box,63304,St. Charles County
38.806587,-90.700195,Jack in the Box,63376,St. Charles County
38.744457,-90.743240,Jack in the Box,63368,St. Charles County
38.811562,-90.853912,Jack in the Box,63348,St. Charles County
30.474874,-90.863396,Jack in the Box,70785,Livingston Parish
30.247091,-90.921814,Jack in the Box,70737,Ascension Parish
30.210915,-90.944008,Jack in the Box,70737,Ascension Parish
38.537460,-91.007782,Jack in the Box,63090,Franklin County
38.432194,-91.021416,Jack in the Box,63084,Franklin County
30.542402,-91.028557,Jack in the Box,70818,East Baton Rouge Parish
30.462244,-91.034737,Jack in the Box,70819,East Baton Rouge Parish
30.410301,-91.035751,Jack in the Box,70816,East Baton Rouge Parish
30.399858,-91.055305,Jack in the Box,70809,East Baton Rouge Parish
30.433096,-91.057098,Jack in the Box,70815,East Baton Rouge Parish
30.493572,-91.060959,Jack in the Box,70814,East Baton Rouge Parish
30.368824,-91.073936,Jack in the Box,70810,East Baton Rouge Parish
30.451759,-91.104202,Jack in the Box,70806,East Baton Rouge Parish
30.470768,-91.108421,Jack in the Box,70806,East Baton Rouge Parish
30.360844,-91.125290,Jack in the Box,70836,East Baton Rouge Parish
30.552006,-91.135284,Jack in the Box,70811,East Baton Rouge Parish
30.444334,-91.138573,Jack in the Box,70806,East Baton Rouge Parish
38.821362,-91.153839,Jack in the Box,63383,Warren County
30.473217,-91.168472,Jack in the Box,70805,East Baton Rouge Parish
38.211510,-91.169456,Jack in the Box,63080,Franklin County
30.418745,-91.176628,Jack in the Box,70802,East Baton Rouge Parish
30.521238,-91.179314,Jack in the Box,70807,East Baton Rouge Parish
30.280603,-91.226936,Jack in the Box,70780,Iberville Parish
38.072006,-91.405731,Jack in the Box,65453,Crawford County
30.213142,-93.325218,Jack in the Box,70669,Calcasieu Parish
30.097317,-93.727402,Jack in the Box,77632,Orange County
30.116377,-93.747322,Jack in the Box,77632,Orange County
30.038223,-93.828468,Jack in the Box,77611,Orange County
29.933895,-93.930855,Jack in the Box,77619,Jefferson County
29.975986,-93.956337,Jack in the Box,77651,Jefferson County
30.142937,-94.016151,Jack in the Box,77662,Orange County
29.914215,-94.030792,Jack in the Box,77627,Jefferson County
30.058504,-94.087517,Jack in the Box,77701,Jefferson County
30.070374,-94.129303,Jack in the Box,77702,Jefferson County
30.040462,-94.153877,Jack in the Box,77707,Jefferson County
30.067759,-94.155663,Jack in the Box,77707,Jefferson County
30.176985,-94.185837,Jack in the Box,77708,Jefferson County
30.133261,-94.190048,Jack in the Box,77708,Jefferson County
30.254299,-94.198021,Jack in the Box,77657,Hardin County
32.169941,-94.349220,Jack in the Box,75633,Panola County
29.820450,-94.384689,Jack in the Box,77665,Chambers County
30.775459,-94.414711,Jack in the Box,75979,Tyler County
31.621923,-94.652618,Jack in the Box,75965,Nacogdoches County
29.851600,-94.691500,Jack in the Box,77597,Chambers County
31.318356,-94.698822,Jack in the Box,75901,Angelina County
32.447388,-94.721832,Jack in the Box,75602,Gregg County
32.540688,-94.731667,Jack in the Box,75601,Gregg County
32.498932,-94.749977,Jack in the Box,75601,Gregg County
31.333166,-94.756660,Jack in the Box,75904,Angelina County
29.301395,-94.775429,Jack in the Box,77550,Galveston County
31.188150,-94.781258,Jack in the Box,75941,Angelina County
30.073483,-94.783806,Jack in the Box,77575,Liberty County
30.365416,-94.785072,Jack in the Box,77327,Liberty County
29.276367,-94.831322,Jack in the Box,77551,Galveston County
32.387066,-94.868027,Jack in the Box,75662,Gregg County
30.046078,-94.887001,Jack in the Box,77535,Liberty County
29.820313,-94.899689,Jack in the Box,77523,Chambers County
29.393164,-94.926674,Jack in the Box,77590,Galveston County
30.711153,-94.930923,Jack in the Box,77335,Polk County
32.733040,-94.942749,Jack in the Box,75645,Upshur County
29.744474,-94.949898,Jack in the Box,77520,Harris County
29.761454,-94.964127,Jack in the Box,77520,Harris County
29.736252,-94.977448,Jack in the Box,77520,Harris County
29.805153,-94.981628,Jack in the Box,77521,Harris County
29.498661,-94.994820,Jack in the Box,77539,Galveston County
29.348232,-95.015129,Jack in the Box,77563,Galveston County
29.543055,-95.020836,Jack in the Box,77565,Galveston County
29.654007,-95.030602,Jack in the Box,77571,Harris County
29.427902,-95.031105,Jack in the Box,77591,Galveston County
29.648285,-95.036942,Jack in the Box,77571,Harris County
29.818935,-95.057487,Jack in the Box,77562,Harris County
29.566456,-95.057579,Jack in the Box,77586,Harris County
29.888882,-95.063110,Jack in the Box,77532,Harris County
29.446341,-95.074150,Jack in the Box,77573,Galveston County
29.520424,-95.078659,Jack in the Box,77573,Galveston County
30.340282,-95.091698,Jack in the Box,77328,San Jacinto County
29.546530,-95.106728,Jack in the Box,77058,Harris County
29.573011,-95.108856,Jack in the Box,77058,Harris County
29.380096,-95.110306,Jack in the Box,77517,Galveston County
29.501883,-95.112747,Jack in the Box,77573,Galveston County
29.710505,-95.124146,Jack in the Box,77536,Harris County
29.780010,-95.124283,Jack in the Box,77530,Harris County
29.663815,-95.124306,Jack in the Box,77505,Harris County
29.558634,-95.145287,Jack in the Box,77598,Harris County
29.522562,-95.160698,Jack in the Box,77546,Galveston County
29.790751,-95.162567,Jack in the Box,77015,Harris County
29.998402,-95.163925,Jack in the Box,77346,Harris County
30.231472,-95.164642,Jack in the Box,77372,Montgomery County
29.689976,-95.164703,Jack in the Box,77503,Harris County
29.601048,-95.177628,Jack in the Box,77034,Harris County
29.806005,-95.183144,Jack in the Box,77015,Harris County
29.775629,-95.186378,Jack in the Box,77015,Harris County
29.853903,-95.187584,Jack in the Box,77049,Harris County
29.509247,-95.188148,Jack in the Box,77546,Galveston County
29.697983,-95.200890,Jack in the Box,77506,Harris County
29.771769,-95.207123,Jack in the Box,77547,Harris County
29.587328,-95.210114,Jack in the Box,77089,Harris County
30.068394,-95.211044,Jack in the Box,77339,Harris County
29.664858,-95.212120,Jack in the Box,77587,Harris County
29.764416,-95.212860,Jack in the Box,77547,Harris County
30.154148,-95.216843,Jack in the Box,77357,Montgomery County
29.709044,-95.219765,Jack in the Box,77506,Harris County
29.588539,-95.225410,Jack in the Box,77089,Harris County
29.546434,-95.229477,Jack in the Box,77546,Galveston County
29.642994,-95.239235,Jack in the Box,77587,Harris County
29.419327,-95.243767,Jack in the Box,77517,Galveston County
29.455996,-95.244339,Jack in the Box,77546,Galveston County
29.850422,-95.262108,Jack in the Box,77078,Harris County
31.952074,-95.263985,Jack in the Box,75766,Cherokee County
30.111906,-95.264389,Jack in the Box,77365,Montgomery County
29.676491,-95.266426,Jack in the Box,77017,Harris County
29.658276,-95.269432,Jack in the Box,77061,Harris County
29.547134,-95.277298,Jack in the Box,77581,Brazoria County
29.620636,-95.285576,Jack in the Box,77075,Harris County
29.685379,-95.291840,Jack in the Box,77087,Harris County
29.778093,-95.292351,Jack in the Box,77020,Harris County
29.887188,-95.300842,Jack in the Box,77016,Harris County
29.887188,-95.300842,Jack in the Box,77016,Harris County
32.330902,-95.300842,Jack in the Box,75701,Smith County
29.847542,-95.301895,Jack in the Box,77016,Harris County
29.744570,-95.303268,Jack in the Box,77011,Harris County
32.273922,-95.306953,Jack in the Box,75701,Smith County
30.004215,-95.308655,Jack in the Box,77338,Harris County
29.715307,-95.316521,Jack in the Box,77023,Harris County
29.692902,-95.321205,Jack in the Box,77087,Harris County
29.734159,-95.329521,Jack in the Box,77023,Harris County
29.560139,-95.331184,Jack in the Box,77584,Brazoria County
29.948284,-95.331917,Jack in the Box,77032,Harris County
29.666601,-95.336380,Jack in the Box,77033,Harris County
29.846275,-95.342781,Jack in the Box,77093,Harris County
32.353645,-95.343338,Jack in the Box,75702,Smith County
29.870850,-95.351540,Jack in the Box,77093,Harris County
29.902328,-95.355835,Jack in the Box,77039,Harris County
29.702187,-95.364723,Jack in the Box,77021,Harris County
28.980623,-95.376083,Jack in the Box,77541,Brazoria County
29.828300,-95.376500,Jack in the Box,77022,Harris County
30.027271,-95.380928,Jack in the Box,77073,Harris County
29.733433,-95.382065,Jack in the Box,77006,Harris County
29.813353,-95.382568,Jack in the Box,77022,Harris County
29.863785,-95.384880,Jack in the Box,77076,Harris County
29.939182,-95.385933,Jack in the Box,77060,Harris County
29.657995,-95.386238,Jack in the Box,77051,Harris County
29.744356,-95.391418,Jack in the Box,77006,Harris County
29.757460,-95.398300,Jack in the Box,77019,Harris County
29.481848,-95.399475,Jack in the Box,77578,Brazoria County
30.297365,-95.403229,Jack in the Box,77301,Montgomery County
29.919018,-95.406158,Jack in the Box,77060,Harris County
30.071068,-95.408478,Jack in the Box,77373,Harris County
29.769880,-95.409599,Jack in the Box,77007,Harris County
29.803904,-95.410294,Jack in the Box,77008,Harris County
29.844687,-95.410820,Jack in the Box,77018,Harris County
29.950087,-95.412140,Jack in the Box,77060,Harris County
29.869398,-95.412277,Jack in the Box,77091,Harris County
29.689962,-95.417519,Jack in the Box,77054,Harris County
30.023600,-95.420100,Jack in the Box,77073,Harris County
29.019411,-95.420822,Jack in the Box,77531,Brazoria County
29.165489,-95.422569,Jack in the Box,77515,Brazoria County
29.980988,-95.423103,Jack in the Box,77073,Harris County
29.734209,-95.426476,Jack in the Box,77098,Harris County
29.897861,-95.428642,Jack in the Box,77088,Harris County
29.817892,-95.429733,Jack in the Box,77018,Harris County
29.801865,-95.429810,Jack in the Box,77008,Harris County
30.020900,-95.432000,Jack in the Box,77090,Harris County
30.053095,-95.433441,Jack in the Box,77388,Harris County
29.706205,-95.439919,Jack in the Box,77005,Harris County
30.125324,-95.442276,Jack in the Box,77380,Montgomery County
29.613546,-95.442955,Jack in the Box,77045,Harris County
29.538160,-95.448997,Jack in the Box,77545,Fort Bend County
30.208439,-95.449005,Jack in the Box,77384,Montgomery County
29.046249,-95.452766,Jack in the Box,77566,Brazoria County
30.167799,-95.453896,Jack in the Box,77380,Montgomery County
29.747108,-95.455513,Jack in the Box,77027,Harris County
29.935823,-95.458488,Jack in the Box,77067,Harris County
29.819777,-95.459206,Jack in the Box,77092,Harris County
29.670740,-95.462860,Jack in the Box,77096,Harris County
29.783535,-95.467888,Jack in the Box,77024,Harris County
29.702770,-95.467918,Jack in the Box,77401,Harris County
30.314619,-95.469711,Jack in the Box,77301,Montgomery County
29.590057,-95.470032,Jack in the Box,77053,Fort Bend County
29.841404,-95.472939,Jack in the Box,77092,Harris County
30.070667,-95.475777,Jack in the Box,77388,Harris County
29.731701,-95.476669,Jack in the Box,77056,Harris County
29.716635,-95.477623,Jack in the Box,77081,Harris County
29.961349,-95.477951,Jack in the Box,77066,Harris County
29.817945,-95.482414,Jack in the Box,77092,Harris County
29.705324,-95.482674,Jack in the Box,77081,Harris County
30.367346,-95.486572,Jack in the Box,77304,Montgomery County
29.993126,-95.487183,Jack in the Box,77068,Harris County
30.421722,-95.489655,Jack in the Box,77318,Montgomery County
29.688007,-95.492668,Jack in the Box,77096,Harris County
30.050409,-95.493210,Jack in the Box,77388,Harris County
29.802877,-95.493431,Jack in the Box,77055,Harris County
29.921425,-95.495949,Jack in the Box,77086,Harris County
29.716183,-95.498909,Jack in the Box,77081,Harris County
29.736189,-95.500664,Jack in the Box,77057,Harris County
29.850540,-95.505081,Jack in the Box,77040,Harris County
29.701862,-95.519257,Jack in the Box,77036,Harris County
29.832766,-95.522278,Jack in the Box,77080,Harris County
33.674206,-95.523010,Jack in the Box,75462,Lamar County
30.021219,-95.523849,Jack in the Box,77379,Harris County
30.208572,-95.527679,Jack in the Box,77382,Montgomery County
29.655472,-95.528191,Jack in the Box,77071,Harris County
29.633114,-95.533997,Jack in the Box,77071,Harris County
29.737101,-95.536644,Jack in the Box,77063,Harris County
29.795687,-95.544937,Jack in the Box,77080,Harris County
30.708767,-95.550438,Jack in the Box,77320,Walker County
29.955000,-95.553400,Jack in the Box,77064,Harris County
29.727829,-95.558945,Jack in the Box,77042,Harris County
29.876444,-95.560791,Jack in the Box,77041,Harris County
29.617350,-95.562874,Jack in the Box,77477,Fort Bend County
29.565399,-95.564018,Jack in the Box,77459,Fort Bend County
29.873020,-95.565598,Jack in the Box,77041,Harris County
29.979800,-95.566200,Jack in the Box,77070,Harris County
29.674347,-95.568802,Jack in the Box,77099,Harris County
30.220999,-95.569252,Jack in the Box,77382,Montgomery County
30.718193,-95.572235,Jack in the Box,77320,Walker County
30.090940,-95.574196,Jack in the Box,77375,Harris County
29.644218,-95.575035,Jack in the Box,77477,Fort Bend County
29.601755,-95.582321,Jack in the Box,77478,Fort Bend County
30.354357,-95.583878,Jack in the Box,77304,Montgomery County
29.909271,-95.584839,Jack in the Box,77065,Harris County
29.951618,-95.585167,Jack in the Box,77070,Harris County
30.091869,-95.587090,Jack in the Box,77375,Harris County
29.736670,-95.590828,Jack in the Box,77042,Harris County
30.099930,-95.591629,Jack in the Box,77375,Harris County
33.115616,-95.596718,Jack in the Box,75482,Hopkins County
29.922400,-95.602700,Jack in the Box,77065,Harris County
29.624849,-95.603157,Jack in the Box,77478,Fort Bend County
29.689167,-95.603714,Jack in the Box,77072,Harris County
29.776396,-95.606514,Jack in the Box,77079,Harris County
29.927912,-95.628372,Jack in the Box,77065,Harris County
29.703802,-95.642418,Jack in the Box,77083,Harris County
29.735792,-95.643341,Jack in the Box,77082,Harris County
29.674398,-95.643440,Jack in the Box,77083,Harris County
29.877800,-95.645300,Jack in the Box,77095,Harris County
29.834600,-95.645600,Jack in the Box,77084,Harris County
31.745331,-95.654884,Jack in the Box,75801,Anderson County
29.947865,-95.676178,Jack in the Box,77429,Harris County
29.866123,-95.683525,Jack in the Box,77084,Harris County
29.813684,-95.720261,Jack in the Box,77449,Harris County
29.880529,-95.724152,Jack in the Box,77449,Harris County
29.790186,-95.735725,Jack in the Box,77449,Harris County
30.218578,-95.738327,Jack in the Box,77354,Montgomery County
29.769461,-95.751442,Jack in the Box,77450,Harris County
29.569046,-95.778152,Jack in the Box,77406,Fort Bend County
29.782036,-95.801979,Jack in the Box,77494,Fort Bend County
29.533485,-95.808105,Jack in the Box,77406,Fort Bend County
32.211067,-95.829430,Jack in the Box,75752,Henderson County
29.740179,-95.829933,Jack in the Box,77494,Fort Bend County
30.964296,-95.885956,Jack in the Box,77864,Madison County
30.053070,-95.913132,Jack in the Box,77484,Waller County
29.786320,-95.956650,Jack in the Box,77423,Waller County
28.983183,-95.956764,Jack in the Box,77414,Matagorda County
31.258196,-95.991241,Jack in the Box,75833,Leon County
30.097469,-96.069054,Jack in the Box,77445,Waller County
29.319283,-96.099457,Jack in the Box,77488,Wharton County
33.105938,-96.109474,Jack in the Box,75402,Hunt County
32.331009,-96.137627,Jack in the Box,75156,Henderson County
29.760389,-96.150925,Jack in the Box,77474,Austin County
31.717863,-96.174484,Jack in the Box,75860,Freestone County
29.180653,-96.260757,Jack in the Box,77437,Wharton County
30.583426,-96.286827,Jack in the Box,77840,Brazos County
32.737354,-96.306442,Jack in the Box,75160,Kaufman County
30.616846,-96.321632,Jack in the Box,77840,Brazos County
32.969952,-96.331612,Jack in the Box,75189,Rockwall County
30.672401,-96.336807,Jack in the Box,77802,Brazos County
30.644159,-96.354401,Jack in the Box,77801,Brazos County
30.143187,-96.396278,Jack in the Box,77833,Washington County
33.996986,-96.401466,Jack in the Box,74701,Bryan County
32.097939,-96.439713,Jack in the Box,75110,Navarro County
32.894535,-96.471062,Jack in the Box,75087,Rockwall County
32.083195,-96.480415,Jack in the Box,75110,Navarro County
33.744896,-96.537186,Jack in the Box,75020,Grayson County
29.690445,-96.538597,Jack in the Box,78934,Colorado County
33.011513,-96.540085,Jack in the Box,75098,Collin County
32.634373,-96.542816,Jack in the Box,75159,Dallas County
32.908081,-96.569130,Jack in the Box,75088,Dallas County
32.849937,-96.569366,Jack in the Box,75043,Dallas County
33.659424,-96.600807,Jack in the Box,75020,Grayson County
32.803322,-96.609741,Jack in the Box,75150,Dallas County
32.793087,-96.611900,Jack in the Box,75149,Dallas County
32.832256,-96.612854,Jack in the Box,75150,Dallas County
32.333565,-96.616737,Jack in the Box,75119,Ellis County
32.768543,-96.623596,Jack in the Box,75149,Dallas County
32.811451,-96.630142,Jack in the Box,75150,Dallas County
32.878578,-96.631081,Jack in the Box,75041,Dallas County
33.216515,-96.634178,Jack in the Box,75069,Collin County
32.859043,-96.645432,Jack in the Box,75041,Dallas County
32.944908,-96.647705,Jack in the Box,75044,Dallas County
32.910515,-96.648262,Jack in the Box,75042,Dallas County
34.790646,-96.652527,Jack in the Box,74820,Pontotoc County
33.102108,-96.681137,Jack in the Box,75013,Collin County
32.960426,-96.682190,Jack in the Box,75044,Dallas County
32.806519,-96.682335,Jack in the Box,75228,Dallas County
33.015411,-96.682732,Jack in the Box,75074,Collin County
32.849308,-96.682777,Jack in the Box,75218,Dallas County
32.746887,-96.683121,Jack in the Box,75227,Dallas County
32.932167,-96.700287,Jack in the Box,75042,Dallas County
32.908440,-96.707642,Jack in the Box,75042,Dallas County
32.648575,-96.708076,Jack in the Box,75141,Dallas County
33.069778,-96.709740,Jack in the Box,75023,Collin County
33.019020,-96.709801,Jack in the Box,75075,Collin County
33.638840,-96.718193,Jack in the Box,75092,Grayson County
32.913120,-96.735687,Jack in the Box,75243,Dallas County
32.950668,-96.735748,Jack in the Box,75081,Dallas County
32.656578,-96.750198,Jack in the Box,75241,Dallas County
32.836708,-96.753960,Jack in the Box,75214,Dallas County
32.812523,-96.754173,Jack in the Box,75214,Dallas County
32.871719,-96.764061,Jack in the Box,75231,Dallas County
33.016102,-96.767014,Jack in the Box,75075,Collin County
32.981766,-96.767891,Jack in the Box,75252,Collin County
32.844791,-96.770317,Jack in the Box,75206,Dallas County
33.071014,-96.774811,Jack in the Box,75024,Collin County
32.917320,-96.774910,Jack in the Box,75251,Dallas County
32.794788,-96.782173,Jack in the Box,75246,Dallas County
32.815964,-96.788628,Jack in the Box,75205,Dallas County
32.687237,-96.790443,Jack in the Box,75216,Dallas County
33.099701,-96.797546,Jack in the Box,75024,Collin County
32.932278,-96.803802,Jack in the Box,75240,Dallas County
32.909702,-96.806198,Jack in the Box,75230,Dallas County
32.810410,-96.821144,Jack in the Box,75219,Dallas County
32.851368,-96.821854,Jack in the Box,75209,Dallas County
32.560635,-96.823051,Jack in the Box,75115,Dallas County
32.720222,-96.828827,Jack in the Box,75224,Dallas County
32.826298,-96.830894,Jack in the Box,75209,Dallas County
33.045815,-96.835258,Jack in the Box,75093,Collin County
32.749378,-96.839668,Jack in the Box,75208,Dallas County
32.416779,-96.840836,Jack in the Box,75165,Ellis County
33.026154,-96.843109,Jack in the Box,75287,Denton County
33.002022,-96.843117,Jack in the Box,75287,Denton County
32.691452,-96.856102,Jack in the Box,75233,Dallas County
32.883205,-96.856392,Jack in the Box,75220,Dallas County
32.762283,-96.856911,Jack in the Box,75208,Dallas County
33.025059,-96.856918,Jack in the Box,75287,Denton County
32.719978,-96.857277,Jack in the Box,75233,Dallas County
32.604378,-96.857361,Jack in the Box,75115,Dallas County
32.971832,-96.860527,Jack in the Box,75001,Dallas County
32.647774,-96.865143,Jack in the Box,75237,Dallas County
32.818413,-96.868439,Jack in the Box,75247,Dallas County
32.953194,-96.869789,Jack in the Box,75006,Dallas County
32.895355,-96.870857,Jack in the Box,75229,Dallas County
32.735203,-96.874039,Jack in the Box,75233,Dallas County
32.858112,-96.875275,Jack in the Box,75220,Dallas County
32.922024,-96.881889,Jack in the Box,75234,Dallas County
32.827080,-96.884346,Jack in the Box,75247,Dallas County
33.065907,-96.889503,Jack in the Box,75056,Denton County
32.989044,-96.889839,Jack in the Box,75007,Denton County
32.720592,-96.890083,Jack in the Box,75233,Dallas County
32.642094,-96.891296,Jack in the Box,75137,Dallas County
32.896126,-96.898422,Jack in the Box,75229,Dallas County
32.864071,-96.899200,Jack in the Box,75220,Dallas County
32.662094,-96.900719,Jack in the Box,75116,Dallas County
32.936657,-96.901733,Jack in the Box,75006,Dallas County
32.822788,-96.920898,Jack in the Box,75247,Dallas County
32.595982,-96.938408,Jack in the Box,75104,Dallas County
32.818192,-96.949333,Jack in the Box,75060,Dallas County
32.837448,-96.951767,Jack in the Box,75062,Dallas County
32.881645,-96.963669,Jack in the Box,75039,Dallas County
32.476086,-96.980614,Jack in the Box,76065,Ellis County
32.671513,-96.985382,Jack in the Box,75249,Dallas County
32.985409,-96.992012,Jack in the Box,75019,Dallas County
32.846771,-96.992073,Jack in the Box,75061,Dallas County
32.708920,-96.994019,Jack in the Box,75051,Dallas County
32.745354,-97.003387,Jack in the Box,75051,Dallas County
32.835941,-97.009911,Jack in the Box,75061,Dallas County
32.832394,-97.022667,Jack in the Box,75061,Dallas County
32.832394,-97.022667,Jack in the Box,75061,Dallas County
33.042454,-97.032059,Jack in the Box,75028,Denton County
32.972969,-97.036598,Jack in the Box,76051,Tarrant County
32.784122,-97.060371,Jack in the Box,76155,Tarrant County
33.150467,-97.061371,Jack in the Box,76210,Denton County
32.747604,-97.063187,Jack in the Box,76011,Tarrant County
32.839294,-97.082497,Jack in the Box,76039,Tarrant County
32.721069,-97.083115,Jack in the Box,76010,Tarrant County
32.741432,-97.084412,Jack in the Box,76011,Tarrant County
32.927933,-97.086433,Jack in the Box,76051,Tarrant County
33.212723,-97.090866,Jack in the Box,76208,Denton County
32.679100,-97.095600,Jack in the Box,76014,Tarrant County
32.748085,-97.097481,Jack in the Box,76011,Tarrant County
32.008545,-97.098541,Jack in the Box,76645,Hill County
31.597471,-97.108391,Jack in the Box,76705,McLennan County
32.852100,-97.112328,Jack in the Box,76021,Tarrant County
32.783535,-97.114159,Jack in the Box,76006,Tarrant County
32.738995,-97.114670,Jack in the Box,76010,Tarrant County
32.660923,-97.115280,Jack in the Box,76018,Tarrant County
32.760517,-97.115410,Jack in the Box,76006,Tarrant County
33.210041,-97.120613,Jack in the Box,76205,Denton County
31.554949,-97.122383,Jack in the Box,76701,McLennan County
32.686024,-97.131454,Jack in the Box,76015,Tarrant County
33.625237,-97.133492,Jack in the Box,76240,Cooke County
32.816532,-97.133690,Jack in the Box,76022,Tarrant County
32.651279,-97.135033,Jack in the Box,76001,Tarrant County
33.231064,-97.135094,Jack in the Box,76201,Denton County
31.524982,-97.138664,Jack in the Box,76711,McLennan County
34.174355,-97.141685,Jack in the Box,73401,Carter County
33.214794,-97.147476,Jack in the Box,76201,Denton County
32.595566,-97.148483,Jack in the Box,76063,Tarrant County
32.720741,-97.152298,Jack in the Box,76013,Tarrant County
32.762573,-97.168068,Jack in the Box,76120,Tarrant County
31.522516,-97.169014,Jack in the Box,76711,McLennan County
32.834148,-97.175156,Jack in the Box,76053,Tarrant County
33.367020,-97.179634,Jack in the Box,76266,Denton County
31.534775,-97.189896,Jack in the Box,76710,McLennan County
32.681725,-97.195007,Jack in the Box,76016,Tarrant County
32.833462,-97.197380,Jack in the Box,76180,Tarrant County
32.767242,-97.213600,Jack in the Box,76112,Tarrant County
31.500555,-97.217812,Jack in the Box,76712,McLennan County
32.859486,-97.238228,Jack in the Box,76148,Tarrant County
32.813210,-97.242241,Jack in the Box,76117,Tarrant County
32.741154,-97.245956,Jack in the Box,76112,Tarrant County
32.934944,-97.253807,Jack in the Box,76244,Tarrant County
32.795307,-97.270477,Jack in the Box,76117,Tarrant County
32.660957,-97.273125,Jack in the Box,76119,Tarrant County
32.840790,-97.290871,Jack in the Box,76137,Tarrant County
30.111219,-97.292854,Jack in the Box,78602,Bastrop County
32.773346,-97.301590,Jack in the Box,76111,Tarrant County
32.872597,-97.315491,Jack in the Box,76131,Tarrant County
32.684177,-97.319717,Jack in the Box,76115,Tarrant County
32.634148,-97.322189,Jack in the Box,76134,Tarrant County
32.541626,-97.330811,Jack in the Box,76028,Johnson County
32.739410,-97.337616,Jack in the Box,76104,Tarrant County
31.098385,-97.342896,Jack in the Box,76504,Bell County
32.795403,-97.348953,Jack in the Box,76106,Tarrant County
32.684437,-97.350815,Jack in the Box,76115,Tarrant County
32.705975,-97.357445,Jack in the Box,76110,Tarrant County
32.757023,-97.361038,Jack in the Box,76164,Tarrant County
32.730179,-97.361511,Jack in the Box,76107,Tarrant County
27.703552,-97.362709,Jack in the Box,78412,Nueces County
32.860279,-97.364136,Jack in the Box,76131,Tarrant County
32.649456,-97.366943,Jack in the Box,76133,Tarrant County
31.089222,-97.386379,Jack in the Box,76502,Bell County
32.346134,-97.393044,Jack in the Box,76059,Johnson County
32.679607,-97.394218,Jack in the Box,76109,Tarrant County
32.368919,-97.396393,Jack in the Box,76059,Johnson County
31.085245,-97.458389,Jack in the Box,76502,Bell County
32.730221,-97.412376,Jack in the Box,76107,Tarrant County
30.593218,-97.413147,Jack in the Box,76574,Williamson County
27.728481,-97.413826,Jack in the Box,78411,Nueces County
32.810333,-97.424019,Jack in the Box,76127,Tarrant County
32.745403,-97.437805,Jack in the Box,76116,Tarrant County
25.933332,-97.445076,Jack in the Box,78526,Cameron County
32.668076,-97.445404,Jack in the Box,76132,Tarrant County
32.722939,-97.451180,Jack in the Box,76116,Tarrant County
32.681789,-97.461876,Jack in the Box,76116,Tarrant County
25.911312,-97.474319,Jack in the Box,78526,Cameron County
32.757839,-97.479301,Jack in the Box,76108,Tarrant County
25.992085,-97.483192,Jack in the Box,78520,Cameron County
25.930290,-97.491875,Jack in the Box,78526,Cameron County
32.898048,-97.545036,Jack in the Box,76020,Tarrant County
33.234447,-97.596794,Jack in the Box,76234,Wise County
30.497108,-97.614792,Jack in the Box,78664,Williamson County
30.437246,-97.615204,Jack in the Box,78660,Travis County
31.052086,-97.636932,Jack in the Box,76548,Bell County
26.118946,-97.643372,Jack in the Box,78586,Cameron County
30.387255,-97.648163,Jack in the Box,78754,Travis County
30.328880,-97.658531,Jack in the Box,78752,Travis County
30.303883,-97.661087,Jack in the Box,78723,Travis County
30.518000,-97.668236,Jack in the Box,78665,Williamson County
29.864494,-97.668396,Jack in the Box,78644,Caldwell County
30.375881,-97.673019,Jack in the Box,78753,Travis County
26.157965,-97.679192,Jack in the Box,78550,Cameron County
26.190405,-97.680115,Jack in the Box,78550,Cameron County
30.502367,-97.683472,Jack in the Box,78664,Williamson County
30.357803,-97.686920,Jack in the Box,78752,Travis County
30.620728,-97.690842,Jack in the Box,78665,Williamson County
30.666031,-97.694489,Jack in the Box,78626,Williamson County
30.273745,-97.697807,Jack in the Box,78721,Travis County
30.355440,-97.702957,Jack in the Box,78752,Travis County
31.104242,-97.704895,Jack in the Box,76541,Bell County
31.074074,-97.709297,Jack in the Box,76541,Bell County
26.189726,-97.710571,Jack in the Box,78550,Cameron County
30.212364,-97.713608,Jack in the Box,78741,Travis County
30.329012,-97.715660,Jack in the Box,78752,Travis County
30.298155,-97.718781,Jack in the Box,78722,Travis County
30.381933,-97.724289,Jack in the Box,78758,Travis County
30.493979,-97.725601,Jack in the Box,78681,Williamson County
31.113119,-97.728767,Jack in the Box,76541,Bell County
31.126732,-97.729713,Jack in the Box,76541,Bell County
30.244612,-97.730576,Jack in the Box,78741,Travis County
30.356180,-97.730713,Jack in the Box,78757,Travis County
30.231220,-97.734978,Jack in the Box,78741,Travis County
30.290024,-97.741508,Jack in the Box,78705,Travis County
30.260754,-97.757141,Jack in the Box,78701,Travis County
32.737492,-97.767433,Jack in the Box,76086,Parker County
30.434877,-97.768417,Jack in the Box,78729,Williamson County
30.193153,-97.778564,Jack in the Box,78745,Travis County
30.228447,-97.786331,Jack in the Box,78745,Travis County
30.163996,-97.788452,Jack in the Box,78748,Travis County
32.433094,-97.794334,Jack in the Box,76048,Hood County
32.751251,-97.797653,Jack in the Box,76086,Parker County
31.094707,-97.816414,Jack in the Box,76541,Bell County
30.086519,-97.820839,Jack in the Box,78610,Hays County
30.512068,-97.824448,Jack in the Box,78613,Williamson County
30.198875,-97.827492,Jack in the Box,78745,Travis County
30.480888,-97.832962,Jack in the Box,78613,Williamson County
30.185497,-97.848396,Jack in the Box,78749,Travis County
30.230898,-97.864708,Jack in the Box,78749,Travis County
31.119825,-97.894806,Jack in the Box,76539,Lampasas County
29.905382,-97.902557,Jack in the Box,78656,Caldwell County
29.884939,-97.940529,Jack in the Box,78666,Hays County
29.569185,-97.950821,Jack in the Box,78155,Guadalupe County
26.293573,-97.989952,Jack in the Box,78596,Hidalgo County
26.174049,-97.990761,Jack in the Box,78596,Hidalgo County
29.582672,-97.997154,Jack in the Box,78123,Guadalupe County
32.808998,-98.096001,Jack in the Box,76067,Palo Pinto County
29.692537,-98.110603,Jack in the Box,78130,Comal County
26.206820,-98.152664,Jack in the Box,78589,Hidalgo County
26.336977,-98.155716,Jack in the Box,78539,Hidalgo County
26.303745,-98.178452,Jack in the Box,78539,Hidalgo County
26.129345,-98.194901,Jack in the Box,78503,Hidalgo County
26.192060,-98.205116,Jack in the Box,78577,Hidalgo County
26.238321,-98.216240,Jack in the Box,78501,Hidalgo County
26.270029,-98.218529,Jack in the Box,78504,Hidalgo County
26.217674,-98.227493,Jack in the Box,78501,Hidalgo County
26.240475,-98.231987,Jack in the Box,78501,Hidalgo County
32.204082,-98.238876,Jack in the Box,76446,Erath County
26.191019,-98.247391,Jack in the Box,78501,Hidalgo County
26.219458,-98.259384,Jack in the Box,78501,Hidalgo County
26.102917,-98.265511,Jack in the Box,78557,Hidalgo County
30.575193,-98.273628,Jack in the Box,78654,Burnet County
26.252279,-98.275047,Jack in the Box,78501,Hidalgo County
29.599621,-98.278587,Jack in the Box,78154,Guadalupe County
29.551453,-98.301308,Jack in the Box,78148,Bexar County
26.199406,-98.311676,Jack in the Box,78501,Hidalgo County
29.491604,-98.334068,Jack in the Box,78244,Bexar County
29.445789,-98.360580,Jack in the Box,78219,Bexar County
29.546137,-98.369095,Jack in the Box,78233,Bexar County
29.577923,-98.373154,Jack in the Box,78233,Bexar County
29.397970,-98.382339,Jack in the Box,78220,Bexar County
29.510183,-98.385201,Jack in the Box,78218,Bexar County
26.235796,-98.391380,Jack in the Box,78572,Hidalgo County
29.483919,-98.401802,Jack in the Box,78218,Bexar County
29.534437,-98.410927,Jack in the Box,78217,Bexar County
29.353659,-98.425468,Jack in the Box,78235,Bexar County
29.578733,-98.442604,Jack in the Box,78247,Bexar County
29.518127,-98.450272,Jack in the Box,78216,Bexar County
29.638329,-98.455490,Jack in the Box,78259,Bexar County
29.425196,-98.460899,Jack in the Box,78202,Bexar County
29.384277,-98.468002,Jack in the Box,78210,Bexar County
29.611853,-98.468231,Jack in the Box,78232,Bexar County
29.454449,-98.471268,Jack in the Box,78215,Bexar County
29.519312,-98.476013,Jack in the Box,78216,Bexar County
29.566532,-98.484772,Jack in the Box,78232,Bexar County
29.397444,-98.495903,Jack in the Box,78204,Bexar County
29.435854,-98.496048,Jack in the Box,78205,Bexar County
29.512743,-98.499092,Jack in the Box,78216,Bexar County
29.466082,-98.499451,Jack in the Box,78212,Bexar County
29.356567,-98.503014,Jack in the Box,78225,Bexar County
29.523804,-98.504677,Jack in the Box,78216,Bexar County
29.539610,-98.526917,Jack in the Box,78213,Bexar County
29.420973,-98.527702,Jack in the Box,78207,Bexar County
29.466476,-98.528236,Jack in the Box,78201,Bexar County
29.356770,-98.528633,Jack in the Box,78225,Bexar County
29.320004,-98.531967,Jack in the Box,78224,Bexar County
29.387909,-98.532776,Jack in the Box,78225,Bexar County
29.512903,-98.535294,Jack in the Box,78213,Bexar County
29.446533,-98.540802,Jack in the Box,78228,Bexar County
29.431458,-98.553772,Jack in the Box,78237,Bexar County
29.492979,-98.553772,Jack in the Box,78229,Bexar County
29.358412,-98.562057,Jack in the Box,78211,Bexar County
29.528711,-98.564415,Jack in the Box,78230,Bexar County
29.469200,-98.570343,Jack in the Box,78228,Bexar County
29.542454,-98.581390,Jack in the Box,78230,Bexar County
29.505972,-98.585693,Jack in the Box,78229,Bexar County
29.486090,-98.594070,Jack in the Box,78238,Bexar County
29.448372,-98.601845,Jack in the Box,78238,Bexar County
29.413239,-98.604553,Jack in the Box,78237,Bexar County
29.518490,-98.604851,Jack in the Box,78240,Bexar County
29.496838,-98.620193,Jack in the Box,78240,Bexar County
29.404209,-98.629250,Jack in the Box,78227,Bexar County
29.452633,-98.629860,Jack in the Box,78238,Bexar County
29.380531,-98.641533,Jack in the Box,78227,Bexar County
29.422976,-98.650063,Jack in the Box,78227,Bexar County
29.551640,-98.665382,Jack in the Box,78249,Bexar County
29.483637,-98.666748,Jack in the Box,78250,Bexar County
26.368773,-98.795685,Jack in the Box,78582,Starr County
26.402575,-99.008499,Jack in the Box,78584,Starr County
30.049532,-99.138428,Jack in the Box,78028,Kerr County
27.528490,-99.445541,Jack in the Box,78040,Webb County
27.503035,-99.469917,Jack in the Box,78040,Webb County
27.451912,-99.478004,Jack in the Box,78046,Webb County
27.545050,-99.482788,Jack in the Box,78040,Webb County
27.567034,-99.502327,Jack in the Box,78040,Webb County
27.531015,-99.502350,Jack in the Box,78040,Webb County
29.213625,-99.773544,Jack in the Box,78870,Uvalde County
29.393471,-100.900940,Jack in the Box,78843,Val Verde County
39.723920,-105.187880,Jack in the Box,80401,Jefferson County
31.760925,-106.266975,Jack in the Box,79936,El Paso County
31.748915,-106.318497,Jack in the Box,79936,El Paso County
31.760551,-106.355217,Jack in the Box,79915,El Paso County
31.789610,-106.395325,Jack in the Box,79925,El Paso County
31.768557,-106.424187,Jack in the Box,79905,El Paso County
31.783556,-106.425964,Jack in the Box,79903,El Paso County
31.867430,-106.429482,Jack in the Box,79904,El Paso County
31.759766,-106.489441,Jack in the Box,79901,El Paso County
31.792942,-106.508347,Jack in the Box,79902,El Paso County
31.841100,-106.578000,Jack in the Box,88063,Doa Ana County
32.315170,-106.744385,Jack in the Box,88001,Doa Ana County
32.297646,-106.771400,Jack in the Box,88001,Doa Ana County
34.209614,-110.023743,Jack in the Box,85935,Navajo County
31.527182,-110.259033,Jack in the Box,85650,Cochise County
31.554506,-110.291771,Jack in the Box,85613,Cochise County
31.973190,-110.307114,Jack in the Box,85630,Cochise County
33.395588,-110.773453,Jack in the Box,85501,Gila County
32.206196,-110.789009,Jack in the Box,85710,Pima County
32.235325,-110.823479,Jack in the Box,85710,Pima County
32.205204,-110.841202,Jack in the Box,85710,Pima County
32.250973,-110.842216,Jack in the Box,85715,Pima County
32.191826,-110.856148,Jack in the Box,85708,Pima County
32.207123,-110.874771,Jack in the Box,85711,Pima County
32.198784,-110.882645,Jack in the Box,85711,Pima County
32.134312,-110.891205,Jack in the Box,85756,Pima County
32.236015,-110.894440,Jack in the Box,85712,Pima County
32.267918,-110.898453,Jack in the Box,85712,Pima County
32.206806,-110.908424,Jack in the Box,85711,Pima County
32.250324,-110.921913,Jack in the Box,85716,Pima County
31.366188,-110.939346,Jack in the Box,85621,Santa Cruz County
31.336622,-110.939919,Jack in the Box,85621,Santa Cruz County
32.263405,-110.943947,Jack in the Box,85719,Pima County
32.235806,-110.957138,Jack in the Box,85719,Pima County
32.287491,-110.960876,Jack in the Box,85705,Pima County
32.185173,-110.968102,Jack in the Box,85713,Pima County
32.250114,-110.976669,Jack in the Box,85719,Pima County
32.134201,-110.976974,Jack in the Box,85714,Pima County
32.296051,-110.978531,Jack in the Box,85705,Pima County
32.229755,-110.989761,Jack in the Box,85701,Pima County
32.133568,-111.030479,Jack in the Box,85746,Pima County
32.294407,-111.032425,Jack in the Box,85705,Pima County
32.337799,-111.063248,Jack in the Box,85741,Pima County
34.240475,-111.319580,Jack in the Box,85541,Gila County
33.365215,-111.476006,Jack in the Box,85119,Pinal County
36.904324,-111.484444,Jack in the Box,86036,Coconino County
33.158058,-111.559914,Jack in the Box,85142,Maricopa County
33.415485,-111.574303,Jack in the Box,85120,Pinal County
35.215904,-111.595505,Jack in the Box,86001,Coconino County
33.390327,-111.615105,Jack in the Box,85208,Maricopa County
35.194366,-111.656693,Jack in the Box,86001,Coconino County
33.465481,-111.683739,Jack in the Box,85215,Maricopa County
33.381546,-111.687172,Jack in the Box,85206,Maricopa County
33.415386,-111.702538,Jack in the Box,85205,Maricopa County
32.879719,-111.735977,Jack in the Box,85122,Pinal County
33.379124,-111.740524,Jack in the Box,85234,Maricopa County
33.395218,-111.753639,Jack in the Box,85234,Maricopa County
33.301235,-111.755661,Jack in the Box,85295,Maricopa County
33.335476,-111.756470,Jack in the Box,85296,Maricopa County
33.415642,-111.769974,Jack in the Box,85204,Maricopa County
43.834385,-111.778267,Jack in the Box,83448,Madison County
33.379223,-111.786354,Jack in the Box,85204,Maricopa County
33.424614,-111.805138,Jack in the Box,85203,Maricopa County
33.317123,-111.807182,Jack in the Box,85225,Maricopa County
33.393463,-111.821983,Jack in the Box,85210,Maricopa County
33.218628,-111.824928,Jack in the Box,85249,Maricopa County
33.415253,-111.829491,Jack in the Box,85210,Maricopa County
33.451256,-111.840233,Jack in the Box,85201,Maricopa County
33.243908,-111.841209,Jack in the Box,85286,Maricopa County
33.305260,-111.841248,Jack in the Box,85225,Maricopa County
33.337166,-111.841858,Jack in the Box,85233,Maricopa County
33.422054,-111.855354,Jack in the Box,85201,Maricopa County
33.378902,-111.861229,Jack in the Box,85202,Maricopa County
33.393272,-111.871559,Jack in the Box,85202,Maricopa County
33.306194,-111.873344,Jack in the Box,85224,Maricopa County
33.414658,-111.873520,Jack in the Box,85201,Maricopa County
33.621197,-111.875191,Jack in the Box,85260,Maricopa County
33.337048,-111.876587,Jack in the Box,85224,Maricopa County
33.421940,-111.893791,Jack in the Box,85201,Maricopa County
33.495049,-111.908104,Jack in the Box,85251,Maricopa County
33.378284,-111.908470,Jack in the Box,85202,Maricopa County
33.391819,-111.908974,Jack in the Box,85282,Maricopa County
33.349319,-111.909927,Jack in the Box,85284,Maricopa County
33.465965,-111.921242,Jack in the Box,85257,Maricopa County
33.320183,-111.925034,Jack in the Box,85284,Maricopa County
33.407711,-111.925316,Jack in the Box,85282,Maricopa County
33.610100,-111.926102,Jack in the Box,85254,Maricopa County
33.440102,-111.926186,Jack in the Box,85281,Maricopa County
33.582363,-111.927612,Jack in the Box,85260,Maricopa County
33.395370,-111.939758,Jack in the Box,85282,Maricopa County
33.422844,-111.939796,Jack in the Box,85281,Maricopa County
33.364880,-111.963173,Jack in the Box,85283,Maricopa County
33.320034,-111.977249,Jack in the Box,85044,Maricopa County
33.465462,-111.979286,Jack in the Box,85008,Maricopa County
33.392616,-111.979858,Jack in the Box,85283,Maricopa County
33.509361,-111.987549,Jack in the Box,85018,Maricopa County
33.755920,-111.990234,Jack in the Box,85331,Maricopa County
33.422630,-111.995323,Jack in the Box,85034,Maricopa County
33.640915,-111.995453,Jack in the Box,85032,Maricopa County
43.493782,-111.999237,Jack in the Box,83427,Bonneville County
34.718292,-112.001686,Jack in the Box,86326,Yavapai County
33.480350,-112.004913,Jack in the Box,85008,Maricopa County
33.625420,-112.005928,Jack in the Box,85032,Maricopa County
33.597469,-112.013000,Jack in the Box,85028,Maricopa County
33.448368,-112.014008,Jack in the Box,85034,Maricopa County
33.458683,-112.030029,Jack in the Box,85006,Maricopa County
33.669693,-112.030441,Jack in the Box,85024,Maricopa County
33.377945,-112.031708,Jack in the Box,85042,Maricopa County
33.494915,-112.034424,Jack in the Box,85016,Maricopa County
33.597343,-112.039505,Jack in the Box,85022,Maricopa County
33.451283,-112.047577,Jack in the Box,85004,Maricopa County
33.058460,-112.048019,Jack in the Box,85121,Pinal County
33.465851,-112.054108,Jack in the Box,85006,Maricopa County
33.305737,-112.055176,Jack in the Box,85048,Maricopa County
43.496910,-112.056519,Jack in the Box,83404,Bonneville County
33.567928,-112.064850,Jack in the Box,85020,Maricopa County
33.530277,-112.064873,Jack in the Box,85014,Maricopa County
33.494946,-112.064880,Jack in the Box,85014,Maricopa County
33.436954,-112.066063,Jack in the Box,85004,Maricopa County
33.393696,-112.073563,Jack in the Box,85040,Maricopa County
33.485394,-112.073631,Jack in the Box,85012,Maricopa County
33.465923,-112.076675,Jack in the Box,85003,Maricopa County
33.640335,-112.097946,Jack in the Box,85023,Maricopa County
33.566582,-112.099434,Jack in the Box,85021,Maricopa County
33.451111,-112.099464,Jack in the Box,85007,Maricopa County
33.406609,-112.100029,Jack in the Box,85041,Maricopa County
33.436909,-112.100182,Jack in the Box,85007,Maricopa County
33.610947,-112.100800,Jack in the Box,85023,Maricopa County
33.683655,-112.105194,Jack in the Box,85027,Maricopa County
33.480743,-112.112167,Jack in the Box,85017,Maricopa County
33.538746,-112.113426,Jack in the Box,85021,Maricopa County
33.509338,-112.117142,Jack in the Box,85017,Maricopa County
33.666061,-112.117386,Jack in the Box,85027,Maricopa County
33.712944,-112.119705,Jack in the Box,85027,Maricopa County
33.858051,-112.130608,Jack in the Box,85086,Maricopa County
33.465839,-112.133430,Jack in the Box,85009,Maricopa County
33.390797,-112.133789,Jack in the Box,85041,Maricopa County
33.582916,-112.133919,Jack in the Box,85029,Maricopa County
33.552135,-112.134438,Jack in the Box,85051,Maricopa County
33.611053,-112.134491,Jack in the Box,85053,Maricopa County
33.437065,-112.134789,Jack in the Box,85009,Maricopa County
33.639172,-112.147820,Jack in the Box,85053,Maricopa County
33.582184,-112.151382,Jack in the Box,85302,Maricopa County
33.523827,-112.151756,Jack in the Box,85019,Maricopa County
33.480335,-112.152077,Jack in the Box,85031,Maricopa County
33.610897,-112.168701,Jack in the Box,85306,Maricopa County
33.391994,-112.169647,Jack in the Box,85041,Maricopa County
33.538380,-112.176537,Jack in the Box,85301,Maricopa County
33.567841,-112.186119,Jack in the Box,85302,Maricopa County
33.512722,-112.186188,Jack in the Box,85301,Maricopa County
33.668930,-112.186417,Jack in the Box,85308,Maricopa County
33.480377,-112.188011,Jack in the Box,85035,Maricopa County
35.258034,-112.191780,Jack in the Box,86001,Coconino County
33.595753,-112.219017,Jack in the Box,85381,Maricopa County
33.494781,-112.220917,Jack in the Box,85033,Maricopa County
33.637947,-112.232346,Jack in the Box,85382,Maricopa County
33.681824,-112.236443,Jack in the Box,85382,Maricopa County
33.508686,-112.236580,Jack in the Box,85303,Maricopa County
33.464260,-112.238319,Jack in the Box,85033,Maricopa County
33.479828,-112.253990,Jack in the Box,85037,Maricopa County
33.566444,-112.254349,Jack in the Box,85345,Maricopa County
33.609474,-112.269073,Jack in the Box,85351,Maricopa County
33.421215,-112.269516,Jack in the Box,85353,Maricopa County
33.493889,-112.272865,Jack in the Box,85037,Maricopa County
33.605118,-112.298851,Jack in the Box,85351,Maricopa County
34.585102,-112.332855,Jack in the Box,86314,Yavapai County
33.460842,-112.340240,Jack in the Box,85392,Maricopa County
33.638844,-112.354942,Jack in the Box,85375,Maricopa County
33.537022,-112.356796,Jack in the Box,85309,Maricopa County
33.639053,-112.420029,Jack in the Box,85374,Maricopa County
42.898666,-112.430283,Jack in the Box,83201,Bannock County
42.865623,-112.444450,Jack in the Box,83201,Bannock County
34.600197,-112.456406,Jack in the Box,86301,Yavapai County
34.541702,-112.464134,Jack in the Box,86303,Yavapai County
33.431889,-112.556374,Jack in the Box,85343,Maricopa County
32.950153,-112.717583,Jack in the Box,85322,Maricopa County
33.971294,-112.771667,Jack in the Box,85390,Maricopa County
37.127769,-113.521591,Jack in the Box,84770,Washington County
37.080002,-113.582878,Jack in the Box,84765,Washington County
42.547539,-113.793098,Jack in the Box,83336,Minidoka County
35.220379,-114.007599,Jack in the Box,86401,Mohave County
36.808296,-114.064262,Jack in the Box,84738,Washington County
32.672810,-114.147110,Jack in the Box,85367,Yuma County
34.474880,-114.344772,Jack in the Box,86403,Mohave County
32.674175,-114.443962,Jack in the Box,85365,Yuma County
42.588665,-114.460335,Jack in the Box,83328,Twin Falls County
32.669731,-114.581360,Jack in the Box,85364,Yuma County
35.102066,-114.596863,Jack in the Box,86429,Mohave County
33.608658,-114.605347,Jack in the Box,85328,La Paz County
34.840382,-114.610405,Jack in the Box,86440,Mohave County
32.698406,-114.621399,Jack in the Box,85364,Yuma County
32.669857,-114.621750,Jack in the Box,85364,Yuma County
32.671112,-114.624359,Jack in the Box,85364,Yuma County
32.724430,-114.624702,Jack in the Box,85365,Yuma County
32.669346,-114.642990,Jack in the Box,85364,Yuma County
32.698616,-114.652283,Jack in the Box,85364,Yuma County
32.596497,-114.707977,Jack in the Box,85364,Yuma County
32.506863,-114.786644,Jack in the Box,85350,Yuma County
35.972755,-114.848083,Jack in the Box,89002,Clark County
36.036469,-114.977669,Jack in the Box,89015,Clark County
36.011299,-114.992317,Jack in the Box,89012,Clark County
36.031231,-115.029785,Jack in the Box,89012,Clark County
36.195679,-115.030182,Jack in the Box,89110,Clark County
36.085991,-115.033699,Jack in the Box,89122,Clark County
36.056046,-115.040192,Jack in the Box,89074,Clark County
36.020462,-115.051086,Jack in the Box,89012,Clark County
36.239975,-115.055847,Jack in the Box,89115,Clark County
36.063904,-115.057465,Jack in the Box,89014,Clark County
36.174248,-115.061867,Jack in the Box,89110,Clark County
36.129280,-115.065559,Jack in the Box,89121,Clark County
36.085781,-115.071960,Jack in the Box,89120,Clark County
36.158745,-115.079277,Jack in the Box,89104,Clark County
36.188766,-115.079735,Jack in the Box,89110,Clark County
36.218834,-115.091026,Jack in the Box,89030,Clark County
36.100391,-115.092155,Jack in the Box,89121,Clark County
36.115055,-115.094749,Jack in the Box,89121,Clark County
36.240425,-115.097427,Jack in the Box,89081,Clark County
36.071785,-115.100517,Jack in the Box,89120,Clark County
36.000237,-115.106300,Jack in the Box,89052,Clark County
36.129963,-115.110130,Jack in the Box,89121,Clark County
36.173328,-115.115913,Jack in the Box,89101,Clark County
36.275360,-115.117180,Jack in the Box,89086,Clark County
36.042187,-115.120071,Jack in the Box,89123,Clark County
36.219257,-115.125839,Jack in the Box,89030,Clark County
36.197910,-115.126221,Jack in the Box,89030,Clark County
36.114952,-115.146736,Jack in the Box,89169,Clark County
36.122669,-115.148720,Jack in the Box,89169,Clark County
36.089531,-115.149612,Jack in the Box,89119,Clark County
36.013138,-115.153481,Jack in the Box,89183,Clark County
36.152355,-115.153885,Jack in the Box,89102,Clark County
36.260162,-115.154579,Jack in the Box,89031,Clark County
36.195877,-115.160515,Jack in the Box,89106,Clark County
36.239326,-115.167603,Jack in the Box,89032,Clark County
36.072002,-115.172722,Jack in the Box,89119,Clark County
36.100479,-115.183601,Jack in the Box,89103,Clark County
36.039234,-115.193314,Jack in the Box,89139,Clark County
36.261452,-115.203911,Jack in the Box,89031,Clark County
36.180191,-115.205826,Jack in the Box,89107,Clark County
36.146446,-115.207878,Jack in the Box,89146,Clark County
36.126362,-115.209190,Jack in the Box,89103,Clark County
36.217335,-115.212547,Jack in the Box,89108,Clark County
36.159344,-115.234871,Jack in the Box,89146,Clark County
36.115700,-115.242722,Jack in the Box,89146,Clark County
36.086479,-115.242989,Jack in the Box,89118,Clark County
36.043301,-115.243164,Jack in the Box,89113,Clark County
36.240391,-115.250816,Jack in the Box,89130,Clark County
36.196342,-115.257248,Jack in the Box,89128,Clark County
36.220016,-115.278488,Jack in the Box,89129,Clark County
36.114067,-115.279221,Jack in the Box,89147,Clark County
36.061825,-115.279449,Jack in the Box,89113,Clark County
36.158867,-115.282974,Jack in the Box,89145,Clark County
36.100174,-115.296059,Jack in the Box,89147,Clark County
36.149178,-115.297020,Jack in the Box,89117,Clark County
36.206234,-115.304276,Jack in the Box,89134,Clark County
32.686234,-115.379959,Jack in the Box,92249,Imperial County
36.004452,-115.434212,Jack in the Box,89161,Clark County
32.694103,-115.496117,Jack in the Box,92231,Imperial County
32.665894,-115.496460,Jack in the Box,92231,Imperial County
32.672077,-115.498878,Jack in the Box,92231,Imperial County
32.678825,-115.508018,Jack in the Box,92231,Imperial County
32.679264,-115.508286,Jack in the Box,92231,Imperial County
32.978497,-115.510078,Jack in the Box,92281,Imperial County
32.978760,-115.546822,Jack in the Box,92281,Imperial County
32.775337,-115.552422,Jack in the Box,92249,Imperial County
32.767090,-115.566055,Jack in the Box,92249,Imperial County
32.816643,-115.570686,Jack in the Box,92249,Imperial County
43.141590,-115.662361,Jack in the Box,83627,Elmore County
32.824715,-115.674530,Jack in the Box,92251,Imperial County
35.267658,-116.071648,Jack in the Box,92309,San Bernardino County
34.134472,-116.078133,Jack in the Box,92278,San Bernardino County
43.539818,-116.155434,Jack in the Box,83705,Ada County
33.709080,-116.180099,Jack in the Box,92203,Riverside County
33.669827,-116.181473,Jack in the Box,92236,Riverside County
43.578831,-116.193832,Jack in the Box,83706,Ada County
33.703400,-116.226097,Jack in the Box,92201,Riverside County
43.592422,-116.243423,Jack in the Box,83706,Ada County
33.740036,-116.269356,Jack in the Box,92201,Riverside County
33.707504,-116.273651,Jack in the Box,92201,Riverside County
43.634235,-116.274040,Jack in the Box,83704,Ada County
43.666691,-116.276222,Jack in the Box,83703,Ada County
43.606689,-116.281898,Jack in the Box,83704,Ada County
43.590435,-116.312920,Jack in the Box,83709,Ada County
43.662109,-116.354248,Jack in the Box,83713,Ada County
33.725548,-116.356384,Jack in the Box,92210,Riverside County
33.808502,-116.389503,Jack in the Box,92276,Riverside County
43.619186,-116.389565,Jack in the Box,83642,Ada County
43.599659,-116.423714,Jack in the Box,83642,Ada County
34.151871,-116.431267,Jack in the Box,92284,San Bernardino County
33.815968,-116.458229,Jack in the Box,92234,Riverside County
33.844906,-116.459572,Jack in the Box,92234,Riverside County
33.814232,-116.462807,Jack in the Box,92234,Riverside County
33.822945,-116.518250,Jack in the Box,92234,Riverside County
33.812328,-116.544502,Jack in the Box,92262,Riverside County
43.606144,-116.553169,Jack in the Box,83651,Canyon County
43.561256,-116.572746,Jack in the Box,83651,Canyon County
33.882538,-116.594803,Jack in the Box,92262,Riverside County
43.606510,-116.604187,Jack in the Box,83651,Canyon County
43.669552,-116.679314,Jack in the Box,83605,Canyon County
47.694866,-116.787460,Jack in the Box,83815,Kootenai County
33.041374,-116.869453,Jack in the Box,92065,San Diego County
32.847244,-116.870804,Jack in the Box,92021,San Diego County
33.925285,-116.885162,Jack in the Box,92220,Riverside County
34.905827,-116.886673,Jack in the Box,92327,San Bernardino County
34.239868,-116.912460,Jack in the Box,92315,San Bernardino County
32.812485,-116.918602,Jack in the Box,92021,San Diego County
32.744751,-116.929123,Jack in the Box,91978,San Diego County
32.856194,-116.929192,Jack in the Box,92021,San Diego County
32.799957,-116.935593,Jack in the Box,92020,San Diego County
32.553585,-116.942108,Jack in the Box,91915,San Diego County
33.929176,-116.946381,Jack in the Box,92223,Riverside County
33.747459,-116.955467,Jack in the Box,92543,Riverside County
32.780533,-116.958168,Jack in the Box,92020,San Diego County
32.807922,-116.961182,Jack in the Box,92020,San Diego County
32.829575,-116.962540,Jack in the Box,92071,San Diego County
32.794834,-116.965950,Jack in the Box,92020,San Diego County
32.743912,-116.971870,Jack in the Box,91941,San Diego County
32.855312,-116.972588,Jack in the Box,92071,San Diego County
33.802139,-116.974197,Jack in the Box,92583,Riverside County
44.024906,-116.985748,Jack in the Box,83619,Payette County
32.838474,-116.994606,Jack in the Box,92071,San Diego County
33.772953,-116.997772,Jack in the Box,92582,Riverside County
32.801823,-117.002525,Jack in the Box,92119,San Diego County
46.415611,-117.004051,Jack in the Box,99179,Whitman County
33.747238,-117.004509,Jack in the Box,92545,Riverside County
34.895329,-117.006142,Jack in the Box,92311,San Bernardino County
32.772633,-117.009941,Jack in the Box,91942,San Diego County
46.733562,-117.010178,Jack in the Box,83843,Latah County
32.714027,-117.012566,Jack in the Box,91977,San Diego County
32.791012,-117.020782,Jack in the Box,91942,San Diego County
32.742615,-117.026825,Jack in the Box,91945,San Diego County
32.545158,-117.030052,Jack in the Box,92173,San Diego County
32.675991,-117.040062,Jack in the Box,92139,San Diego County
32.658310,-117.040627,Jack in the Box,92139,San Diego County
32.742313,-117.045982,Jack in the Box,91945,San Diego County
32.755039,-117.047508,Jack in the Box,92115,San Diego County
32.640076,-117.048615,Jack in the Box,91910,San Diego County
34.034016,-117.051720,Jack in the Box,92373,San Bernardino County
32.555351,-117.051849,Jack in the Box,92173,San Diego County
33.992546,-117.059372,Jack in the Box,92320,Riverside County
32.952015,-117.061752,Jack in the Box,92128,San Diego County
33.132645,-117.062645,Jack in the Box,92025,San Diego County
32.603035,-117.064972,Jack in the Box,91911,San Diego County
33.106667,-117.069313,Jack in the Box,92025,San Diego County
32.771923,-117.069778,Jack in the Box,92115,San Diego County
32.623817,-117.073151,Jack in the Box,91910,San Diego County
32.681862,-117.073357,Jack in the Box,91950,San Diego County
33.017670,-117.075539,Jack in the Box,92128,San Diego County
32.603481,-117.077789,Jack in the Box,91911,San Diego County
32.806862,-117.078354,Jack in the Box,92120,San Diego County
34.855312,-117.082916,Jack in the Box,92311,San Bernardino County
32.721893,-117.085098,Jack in the Box,92105,San Diego County
32.650784,-117.087898,Jack in the Box,91950,San Diego County
32.631413,-117.089775,Jack in the Box,91910,San Diego County
32.977516,-117.089874,Jack in the Box,92128,San Diego County
32.755928,-117.092056,Jack in the Box,92105,San Diego County
33.128178,-117.092690,Jack in the Box,92025,San Diego County
32.576653,-117.093155,Jack in the Box,91932,San Diego County
32.670067,-117.095375,Jack in the Box,91950,San Diego County
32.784538,-117.097931,Jack in the Box,92120,San Diego County
32.821465,-117.098289,Jack in the Box,92124,San Diego County
33.480572,-117.099915,Jack in the Box,92591,Riverside County
32.749779,-117.101303,Jack in the Box,92105,San Diego County
32.692574,-117.102592,Jack in the Box,92113,San Diego County
33.223480,-117.106819,Jack in the Box,92026,San Diego County
32.676445,-117.108437,Jack in the Box,92113,San Diego County
32.584148,-117.114540,Jack in the Box,91932,San Diego County
34.472000,-117.115280,Jack in the Box,92308,San Bernardino County
32.917374,-117.123421,Jack in the Box,92126,San Diego County
32.958401,-117.126823,Jack in the Box,92129,San Diego County
32.740952,-117.130257,Jack in the Box,92104,San Diego County
32.831207,-117.130592,Jack in the Box,92111,San Diego County
32.755535,-117.131775,Jack in the Box,92116,San Diego County
32.711716,-117.142242,Jack in the Box,92102,San Diego County
33.935516,-117.143509,Jack in the Box,92555,Riverside County
34.244110,-117.147507,Jack in the Box,92404,San Bernardino County
33.530518,-117.151535,Jack in the Box,92591,Riverside County
32.716888,-117.154495,Jack in the Box,92101,San Diego County
32.821976,-117.155449,Jack in the Box,92111,San Diego County
32.770962,-117.155495,Jack in the Box,92108,San Diego County
33.556358,-117.156914,Jack in the Box,92563,Riverside County
32.748528,-117.157288,Jack in the Box,92103,San Diego County
33.142155,-117.160568,Jack in the Box,92078,San Diego County
33.520813,-117.164749,Jack in the Box,92591,Riverside County
32.750092,-117.165283,Jack in the Box,92103,San Diego County
33.684277,-117.167397,Jack in the Box,92584,Riverside County
32.789566,-117.168129,Jack in the Box,92108,San Diego County
32.722176,-117.170898,Jack in the Box,92101,San Diego County
46.739460,-117.171638,Jack in the Box,99163,Whitman County
34.055489,-117.175476,Jack in the Box,92374,San Bernardino County
33.571350,-117.183434,Jack in the Box,92563,Riverside County
32.822643,-117.183495,Jack in the Box,92117,San Diego County
32.834682,-117.187149,Jack in the Box,92117,San Diego County
34.471615,-117.191086,Jack in the Box,92395,San Bernardino County
33.151390,-117.196396,Jack in the Box,92078,San Diego County
47.663525,-117.196686,Jack in the Box,99216,Spokane County
34.070061,-117.198219,Jack in the Box,92374,San Bernardino County
32.755074,-117.205162,Jack in the Box,92110,San Diego County
32.789719,-117.205719,Jack in the Box,92037,San Diego County
33.684906,-117.205788,Jack in the Box,92586,Riverside County
34.135662,-117.207054,Jack in the Box,92346,San Bernardino County
33.563766,-117.207512,Jack in the Box,92563,Riverside County
33.890076,-117.209862,Jack in the Box,92551,Riverside County
33.163784,-117.217651,Jack in the Box,92081,San Diego County
32.754353,-117.218437,Jack in the Box,92110,San Diego County
33.782520,-117.218872,Jack in the Box,92585,Riverside County
33.293697,-117.223122,Jack in the Box,92003,San Diego County
34.063263,-117.224533,Jack in the Box,92354,San Bernardino County
33.902267,-117.226151,Jack in the Box,92551,Riverside County
33.818687,-117.226357,Jack in the Box,92571,Riverside County
33.132572,-117.228508,Jack in the Box,92081,San Diego County
32.724277,-117.229691,Jack in the Box,92106,San Diego County
33.112671,-117.234909,Jack in the Box,92009,San Diego County
32.800938,-117.235085,Jack in the Box,92109,San Diego County
47.670845,-117.239899,Jack in the Box,99216,Spokane County
32.750053,-117.243584,Jack in the Box,92107,San Diego County
33.939407,-117.243950,Jack in the Box,92553,Riverside County
33.220623,-117.244728,Jack in the Box,92083,San Diego County
32.949467,-117.245491,Jack in the Box,92014,San Diego County
33.595085,-117.247276,Jack in the Box,92595,Riverside County
33.366802,-117.250237,Jack in the Box,92028,San Diego County
32.772121,-117.251060,Jack in the Box,92109,San Diego County
33.968010,-117.251709,Jack in the Box,92557,Riverside County
34.135754,-117.252205,Jack in the Box,92405,San Bernardino County
33.192558,-117.253326,Jack in the Box,92083,San Diego County
33.841034,-117.254494,Jack in the Box,92551,Riverside County
33.045761,-117.258308,Jack in the Box,92024,San Diego County
33.194607,-117.258812,Jack in the Box,92083,San Diego County
34.068836,-117.260292,Jack in the Box,92408,San Bernardino County
33.668476,-117.264275,Jack in the Box,92587,Riverside County
33.916798,-117.270287,Jack in the Box,92553,Riverside County
33.627045,-117.276222,Jack in the Box,92595,Riverside County
32.839390,-117.277809,Jack in the Box,92109,San Diego County
34.121208,-117.278656,Jack in the Box,92401,San Bernardino County
47.676975,-117.282997,Jack in the Box,99217,Spokane County
34.164768,-117.283096,Jack in the Box,92405,San Bernardino County
33.023022,-117.283546,Jack in the Box,92007,San Diego County
34.419106,-117.283623,Jack in the Box,92345,San Bernardino County
33.207146,-117.284332,Jack in the Box,92056,San Diego County
34.108131,-117.291740,Jack in the Box,92401,San Bernardino County
34.471684,-117.292030,Jack in the Box,92395,San Bernardino County
33.182636,-117.292351,Jack in the Box,92056,San Diego County
34.092300,-117.293968,Jack in the Box,92401,San Bernardino County
33.947304,-117.302147,Jack in the Box,92507,Riverside County
34.135941,-117.308914,Jack in the Box,92405,San Bernardino County
34.048508,-117.309341,Jack in the Box,92313,San Bernardino County
34.077461,-117.314011,Jack in the Box,92401,San Bernardino County
33.889256,-117.320747,Jack in the Box,92508,Riverside County
33.227806,-117.325562,Jack in the Box,92057,San Diego County
33.183384,-117.333908,Jack in the Box,92054,San Diego County
34.068295,-117.334885,Jack in the Box,92313,San Bernardino County
34.020756,-117.337784,Jack in the Box,92313,San Bernardino County
33.983128,-117.341164,Jack in the Box,92507,Riverside County
34.475662,-117.342743,Jack in the Box,92392,San Bernardino County
33.161839,-117.344376,Jack in the Box,92008,San Diego County
47.657196,-117.348335,Jack in the Box,99202,Spokane County
33.974880,-117.348351,Jack in the Box,92507,Riverside County
47.694340,-117.365257,Jack in the Box,99207,Spokane County
33.882557,-117.365746,Jack in the Box,92508,Riverside County
47.628082,-117.366615,Jack in the Box,99203,Spokane County
33.202908,-117.367111,Jack in the Box,92054,San Diego County
34.074184,-117.370338,Jack in the Box,92316,San Bernardino County
34.133556,-117.370560,Jack in the Box,92377,San Bernardino County
33.679272,-117.371140,Jack in the Box,92532,Riverside County
34.106903,-117.375137,Jack in the Box,92376,San Bernardino County
33.974625,-117.375298,Jack in the Box,92501,Riverside County
34.426556,-117.376625,Jack in the Box,92344,San Bernardino County
33.953728,-117.388641,Jack in the Box,92506,Riverside County
34.092720,-117.396362,Jack in the Box,92376,San Bernardino County
34.005894,-117.400688,Jack in the Box,92501,Riverside County
47.715336,-117.410896,Jack in the Box,99207,Spokane County
47.683521,-117.410973,Jack in the Box,99207,Spokane County
47.751087,-117.411072,Jack in the Box,99218,Spokane County
33.945980,-117.415146,Jack in the Box,92504,Riverside County
47.653370,-117.419731,Jack in the Box,99204,Spokane County
34.048576,-117.435287,Jack in the Box,92337,San Bernardino County
34.070087,-117.435913,Jack in the Box,92335,San Bernardino County
34.105961,-117.435936,Jack in the Box,92335,San Bernardino County
34.183472,-117.437943,Jack in the Box,92407,San Bernardino County
33.926941,-117.451355,Jack in the Box,92503,Riverside County
34.466499,-117.452141,Jack in the Box,92392,San Bernardino County
33.978291,-117.454269,Jack in the Box,92509,Riverside County
33.914494,-117.463303,Jack in the Box,92503,Riverside County
33.897682,-117.471619,Jack in the Box,92503,Riverside County
34.150517,-117.471718,Jack in the Box,92336,San Bernardino County
33.997540,-117.484001,Jack in the Box,92509,Riverside County
33.918594,-117.488487,Jack in the Box,92505,Riverside County
34.070969,-117.489006,Jack in the Box,92337,San Bernardino County
34.106441,-117.489197,Jack in the Box,91739,San Bernardino County
34.017918,-117.505402,Jack in the Box,91752,Riverside County
34.121227,-117.512001,Jack in the Box,91739,San Bernardino County
33.889595,-117.517349,Jack in the Box,92879,Riverside County
34.133492,-117.519295,Jack in the Box,91739,San Bernardino County
33.975307,-117.522690,Jack in the Box,91752,Riverside County
33.822029,-117.524094,Jack in the Box,92881,Riverside County
33.867832,-117.539169,Jack in the Box,92879,Riverside County
33.847870,-117.542526,Jack in the Box,92881,Riverside County
34.047009,-117.547005,Jack in the Box,91761,San Bernardino County
34.106155,-117.547852,Jack in the Box,91730,San Bernardino County
33.892500,-117.563000,Jack in the Box,92879,Riverside County
34.033447,-117.570457,Jack in the Box,91761,San Bernardino County
34.137512,-117.576797,Jack in the Box,91701,San Bernardino County
33.648922,-117.577217,Jack in the Box,92688,Orange County
34.019024,-117.592751,Jack in the Box,91761,San Bernardino County
34.098789,-117.593323,Jack in the Box,91730,San Bernardino County
33.878574,-117.594688,Jack in the Box,92882,Riverside County
33.412189,-117.600845,Jack in the Box,92673,Orange County
33.622978,-117.608276,Jack in the Box,92688,Orange County
34.028934,-117.611160,Jack in the Box,91762,San Bernardino County
34.106876,-117.612488,Jack in the Box,91730,San Bernardino County
34.063358,-117.613213,Jack in the Box,91764,San Bernardino County
34.077774,-117.620972,Jack in the Box,91764,San Bernardino County
33.870983,-117.622910,Jack in the Box,92882,Riverside County
34.077980,-117.625969,Jack in the Box,91764,San Bernardino County
34.041569,-117.628700,Jack in the Box,91762,San Bernardino County
33.604130,-117.646683,Jack in the Box,92692,Orange County
34.033180,-117.651207,Jack in the Box,91762,San Bernardino County
34.107304,-117.658493,Jack in the Box,91786,San Bernardino County
33.501740,-117.660309,Jack in the Box,92624,Orange County
33.878922,-117.660324,Jack in the Box,92882,Riverside County
33.930134,-117.662292,Jack in the Box,91708,San Bernardino County
34.075794,-117.669937,Jack in the Box,91786,San Bernardino County
34.055805,-117.670029,Jack in the Box,91763,San Bernardino County
35.607548,-117.670845,Jack in the Box,93555,Kern County
33.583950,-117.673050,Jack in the Box,92692,Orange County
33.616634,-117.679405,Jack in the Box,92691,Orange County
33.465038,-117.687836,Jack in the Box,92624,Orange County
34.026047,-117.689133,Jack in the Box,91710,San Bernardino County
34.081078,-117.689316,Jack in the Box,91763,San Bernardino County
33.616219,-117.705475,Jack in the Box,92637,Orange County
34.062996,-117.706032,Jack in the Box,91763,San Bernardino County
33.635571,-117.707428,Jack in the Box,92630,Orange County
33.593910,-117.709991,Jack in the Box,92653,Orange County
33.633636,-117.710945,Jack in the Box,92637,Orange County
33.983204,-117.715164,Jack in the Box,91710,San Bernardino County
33.557762,-117.723892,Jack in the Box,92656,Orange County
34.023621,-117.731552,Jack in the Box,91766,Los Angeles County
34.001331,-117.732857,Jack in the Box,91710,San Bernardino County
40.972023,-117.736977,Jack in the Box,89445,Humboldt County
34.079102,-117.741371,Jack in the Box,91767,Los Angeles County
34.108124,-117.748604,Jack in the Box,91767,Los Angeles County
34.033405,-117.749016,Jack in the Box,91766,Los Angeles County
34.062260,-117.750198,Jack in the Box,91766,Los Angeles County
33.877510,-117.753922,Jack in the Box,92887,Orange County
33.675968,-117.757660,Jack in the Box,92618,Orange County
33.722282,-117.771729,Jack in the Box,92620,Orange County
33.533150,-117.776421,Jack in the Box,92651,Orange County
34.053654,-117.778145,Jack in the Box,91768,Los Angeles County
34.071037,-117.778976,Jack in the Box,91768,Los Angeles County
33.705715,-117.806473,Jack in the Box,92606,Orange County
34.001743,-117.810944,Jack in the Box,91765,Los Angeles County
34.011875,-117.814247,Jack in the Box,91765,Los Angeles County
33.866970,-117.818634,Jack in the Box,92870,Orange County
33.787933,-117.820404,Jack in the Box,92866,Orange County
33.737869,-117.822121,Jack in the Box,92780,Orange County
33.760025,-117.827950,Jack in the Box,92780,Orange County
34.106865,-117.829559,Jack in the Box,91773,Los Angeles County
33.648510,-117.838127,Jack in the Box,92617,Orange County
33.726578,-117.843941,Jack in the Box,92780,Orange County
33.905525,-117.844330,Jack in the Box,92870,Orange County
34.044762,-117.849052,Jack in the Box,91789,Los Angeles County
33.829762,-117.850304,Jack in the Box,92865,Orange County
33.708416,-117.855835,Jack in the Box,92707,Orange County
33.809162,-117.856544,Jack in the Box,92865,Orange County
33.749825,-117.867447,Jack in the Box,92701,Orange County
33.727039,-117.867958,Jack in the Box,92707,Orange County
34.098934,-117.872337,Jack in the Box,91723,Los Angeles County
33.876518,-117.878403,Jack in the Box,92831,Orange County
33.859879,-117.883041,Jack in the Box,92831,Orange County
33.750820,-117.884941,Jack in the Box,92706,Orange County
33.727047,-117.885231,Jack in the Box,92707,Orange County
33.698296,-117.885735,Jack in the Box,92707,Orange County
33.841061,-117.889069,Jack in the Box,92806,Orange County
34.078789,-117.889900,Jack in the Box,91723,Los Angeles County
33.987484,-117.890388,Jack in the Box,91748,Los Angeles County
34.129139,-117.890900,Jack in the Box,91722,Los Angeles County
33.662926,-117.896820,Jack in the Box,92626,Orange County
33.916222,-117.900696,Jack in the Box,92821,Orange County
33.996223,-117.905838,Jack in the Box,91748,Los Angeles County
33.803410,-117.906624,Jack in the Box,92802,Orange County
34.121929,-117.907387,Jack in the Box,91722,Los Angeles County
34.096062,-117.907547,Jack in the Box,91722,Los Angeles County
33.679977,-117.908440,Jack in the Box,92626,Orange County
33.631088,-117.912720,Jack in the Box,92663,Orange County
33.792393,-117.914742,Jack in the Box,92840,Orange County
34.030525,-117.914963,Jack in the Box,91744,Los Angeles County
33.835083,-117.917259,Jack in the Box,92805,Orange County
33.678452,-117.919022,Jack in the Box,92626,Orange County
33.655502,-117.919266,Jack in the Box,92627,Orange County
33.713718,-117.919975,Jack in the Box,92704,Orange County
33.770077,-117.920143,Jack in the Box,92843,Orange County
33.759808,-117.920181,Jack in the Box,92843,Orange County
33.859684,-117.921234,Jack in the Box,92832,Orange County
33.879436,-117.924141,Jack in the Box,92832,Orange County
33.917595,-117.926399,Jack in the Box,92835,Orange County
34.106785,-117.934013,Jack in the Box,91722,Los Angeles County
33.787094,-117.941399,Jack in the Box,92840,Orange County
33.848988,-117.941833,Jack in the Box,92801,Orange County
34.050804,-117.943817,Jack in the Box,91790,Los Angeles County
33.893623,-117.944572,Jack in the Box,92833,Orange County
33.685635,-117.953789,Jack in the Box,92646,Orange County
33.737381,-117.955002,Jack in the Box,92655,Orange County
33.844398,-117.957802,Jack in the Box,92801,Orange County
33.939320,-117.959763,Jack in the Box,90631,Orange County
34.069729,-117.960121,Jack in the Box,91790,Los Angeles County
34.009220,-117.963753,Jack in the Box,91745,Los Angeles County
34.048615,-117.967766,Jack in the Box,91746,Los Angeles County
33.859291,-117.968330,Jack in the Box,92801,Orange County
33.774124,-117.975761,Jack in the Box,92844,Orange County
33.846962,-117.976303,Jack in the Box,92801,Orange County
33.908813,-117.977943,Jack in the Box,90638,Los Angeles County
34.070938,-117.977966,Jack in the Box,91706,Los Angeles County
33.817638,-117.984215,Jack in the Box,92804,Orange County
33.694462,-117.988586,Jack in the Box,92648,Orange County
33.741280,-117.989182,Jack in the Box,92655,Orange County
33.942719,-117.989311,Jack in the Box,90603,Los Angeles County
33.725346,-117.989456,Jack in the Box,92647,Orange County
33.788246,-117.991928,Jack in the Box,92841,Orange County
34.043152,-117.993553,Jack in the Box,91746,Los Angeles County
33.882824,-117.996506,Jack in the Box,90621,Orange County
34.040852,-117.998093,Jack in the Box,91746,Los Angeles County
34.132057,-118.000954,Jack in the Box,91006,Los Angeles County
33.802620,-118.002296,Jack in the Box,90680,Orange County
33.762825,-118.007370,Jack in the Box,92683,Orange County
33.846680,-118.013893,Jack in the Box,90620,Orange County
33.744205,-118.015854,Jack in the Box,92647,Orange County
34.074600,-118.017189,Jack in the Box,91732,Los Angeles County
33.729843,-118.023323,Jack in the Box,92647,Orange County
33.924858,-118.023933,Jack in the Box,90604,Los Angeles County
34.107906,-118.025490,Jack in the Box,91780,Los Angeles County
33.831566,-118.028130,Jack in the Box,90630,Orange County
33.858620,-118.028931,Jack in the Box,90623,Orange County
33.961761,-118.029968,Jack in the Box,90602,Los Angeles County
34.044964,-118.031044,Jack in the Box,91733,Los Angeles County
34.076744,-118.039757,Jack in the Box,91731,Los Angeles County
34.555180,-118.045105,Jack in the Box,93552,Los Angeles County
33.831894,-118.045502,Jack in the Box,90630,Orange County
33.940044,-118.046387,Jack in the Box,90670,Los Angeles County
33.916817,-118.046501,Jack in the Box,90670,Los Angeles County
33.894272,-118.046844,Jack in the Box,90703,Los Angeles County
34.090721,-118.049675,Jack in the Box,91780,Los Angeles County
34.071758,-118.067543,Jack in the Box,91770,Los Angeles County
33.971909,-118.070656,Jack in the Box,90606,Los Angeles County
33.717388,-118.071152,Jack in the Box,92649,Orange County
33.799221,-118.071678,Jack in the Box,90720,Orange County
33.916912,-118.072853,Jack in the Box,90650,Los Angeles County
34.083103,-118.073036,Jack in the Box,91731,Los Angeles County
33.831276,-118.073105,Jack in the Box,90716,Los Angeles County
34.146755,-118.073227,Jack in the Box,91007,Los Angeles County
33.902046,-118.076126,Jack in the Box,90650,Los Angeles County
34.040714,-118.081497,Jack in the Box,91770,Los Angeles County
33.865765,-118.082367,Jack in the Box,90701,Los Angeles County
33.831657,-118.088501,Jack in the Box,90715,Los Angeles County
33.948486,-118.089325,Jack in the Box,90240,Los Angeles County
34.063374,-118.090347,Jack in the Box,91770,Los Angeles County
33.917831,-118.090988,Jack in the Box,90650,Los Angeles County
33.983692,-118.096451,Jack in the Box,90660,Los Angeles County
34.689720,-118.097740,Jack in the Box,93534,Los Angeles County
33.744686,-118.103508,Jack in the Box,90740,Orange County
34.017151,-118.105011,Jack in the Box,90640,Los Angeles County
33.811344,-118.107735,Jack in the Box,90815,Los Angeles County
34.102116,-118.112350,Jack in the Box,91776,Los Angeles County
33.967632,-118.116440,Jack in the Box,90240,Los Angeles County
33.902138,-118.116478,Jack in the Box,90706,Los Angeles County
33.948967,-118.116638,Jack in the Box,90240,Los Angeles County
33.846855,-118.117302,Jack in the Box,90713,Los Angeles County
33.994492,-118.117943,Jack in the Box,90640,Los Angeles County
33.933178,-118.118652,Jack in the Box,90241,Los Angeles County
34.579479,-118.119072,Jack in the Box,93551,Los Angeles County
34.146095,-118.121216,Jack in the Box,91106,Los Angeles County
33.775494,-118.122681,Jack in the Box,90804,Los Angeles County
33.872944,-118.125023,Jack in the Box,90706,Los Angeles County
33.917164,-118.125290,Jack in the Box,90242,Los Angeles County
34.032444,-118.129723,Jack in the Box,90022,Los Angeles County
34.014851,-118.129791,Jack in the Box,90640,Los Angeles County
33.977432,-118.130051,Jack in the Box,90240,Los Angeles County
34.177055,-118.131897,Jack in the Box,91104,Los Angeles County
33.759663,-118.133896,Jack in the Box,90814,Los Angeles County
34.601578,-118.140625,Jack in the Box,93551,Los Angeles County
33.833485,-118.142303,Jack in the Box,90712,Los Angeles County
33.859715,-118.142738,Jack in the Box,90712,Los Angeles County
33.759758,-118.146339,Jack in the Box,90803,Los Angeles County
34.675385,-118.147728,Jack in the Box,93534,Los Angeles County
34.077068,-118.151184,Jack in the Box,91803,Los Angeles County
33.889412,-118.152748,Jack in the Box,90723,Los Angeles County
33.925323,-118.154175,Jack in the Box,90242,Los Angeles County
34.000385,-118.159416,Jack in the Box,90040,Los Angeles County
34.021152,-118.160072,Jack in the Box,90022,Los Angeles County
33.903488,-118.161491,Jack in the Box,90723,Los Angeles County
33.782757,-118.166443,Jack in the Box,90755,Los Angeles County
34.674866,-118.166458,Jack in the Box,93534,Los Angeles County
33.874855,-118.168556,Jack in the Box,90805,Los Angeles County
34.182144,-118.168961,Jack in the Box,91103,Los Angeles County
33.961979,-118.169487,Jack in the Box,90201,Los Angeles County
35.046783,-118.171661,Jack in the Box,93501,Kern County
34.040703,-118.174629,Jack in the Box,90063,Los Angeles County
34.704189,-118.174660,Jack in the Box,93534,Los Angeles County
34.087700,-118.175217,Jack in the Box,90032,Los Angeles County
34.864605,-118.176125,Jack in the Box,93560,Kern County
33.789738,-118.176590,Jack in the Box,90755,Los Angeles County
34.018772,-118.180481,Jack in the Box,90023,Los Angeles County
33.889305,-118.182281,Jack in the Box,90723,Los Angeles County
33.951355,-118.182770,Jack in the Box,90280,Los Angeles County
34.114960,-118.183296,Jack in the Box,90042,Los Angeles County
33.849758,-118.184700,Jack in the Box,90805,Los Angeles County
33.774918,-118.184891,Jack in the Box,90831,Los Angeles County
33.822323,-118.185188,Jack in the Box,90807,Los Angeles County
33.970364,-118.187180,Jack in the Box,90201,Los Angeles County
33.921314,-118.187202,Jack in the Box,90262,Los Angeles County
34.033112,-118.192268,Jack in the Box,90063,Los Angeles County
33.988358,-118.198654,Jack in the Box,90270,Los Angeles County
34.492683,-118.199631,Jack in the Box,93510,Los Angeles County
33.865101,-118.200119,Jack in the Box,90221,Los Angeles County
34.045273,-118.203865,Jack in the Box,90033,Los Angeles County
33.954094,-118.205963,Jack in the Box,90280,Los Angeles County
34.093838,-118.208878,Jack in the Box,90031,Los Angeles County
33.929375,-118.211487,Jack in the Box,90262,Los Angeles County
34.061317,-118.213669,Jack in the Box,90033,Los Angeles County
33.789726,-118.215805,Jack in the Box,90813,Los Angeles County
33.903576,-118.216194,Jack in the Box,90222,Los Angeles County
34.079121,-118.218109,Jack in the Box,90031,Los Angeles County
34.125427,-118.219307,Jack in the Box,90041,Los Angeles County
34.025703,-118.219887,Jack in the Box,90021,Los Angeles County
33.989330,-118.225067,Jack in the Box,90255,Los Angeles County
34.216610,-118.225792,Jack in the Box,91020,Los Angeles County
33.790894,-118.228500,Jack in the Box,90813,Los Angeles County
34.025345,-118.239365,Jack in the Box,90021,Los Angeles County
34.142799,-118.241089,Jack in the Box,91205,Los Angeles County
33.825142,-118.241684,Jack in the Box,90745,Los Angeles County
34.064301,-118.249931,Jack in the Box,90012,Los Angeles County
33.974892,-118.250328,Jack in the Box,90001,Los Angeles County
33.896004,-118.252014,Jack in the Box,90222,Los Angeles County
33.943012,-118.254280,Jack in the Box,90002,Los Angeles County
34.003811,-118.256653,Jack in the Box,90011,Los Angeles County
33.831882,-118.258759,Jack in the Box,90745,Los Angeles County
34.086117,-118.259712,Jack in the Box,90026,Los Angeles County
34.034065,-118.263840,Jack in the Box,90015,Los Angeles County
34.157562,-118.264236,Jack in the Box,91203,Los Angeles County
33.809387,-118.264290,Jack in the Box,90745,Los Angeles County
33.846119,-118.264847,Jack in the Box,90746,Los Angeles County
33.871544,-118.271767,Jack in the Box,90746,Los Angeles County
34.058502,-118.272736,Jack in the Box,90057,Los Angeles County
33.917206,-118.274162,Jack in the Box,90061,Los Angeles County
33.790405,-118.275322,Jack in the Box,90744,Los Angeles County
33.824394,-118.275726,Jack in the Box,90502,Los Angeles County
34.025631,-118.277809,Jack in the Box,90007,Los Angeles County
33.975346,-118.278168,Jack in the Box,90003,Los Angeles County
34.164948,-118.281586,Jack in the Box,91201,Los Angeles County
33.930920,-118.282448,Jack in the Box,90061,Los Angeles County
34.004372,-118.282898,Jack in the Box,90037,Los Angeles County
34.047192,-118.283035,Jack in the Box,90006,Los Angeles County
33.960175,-118.287262,Jack in the Box,90044,Los Angeles County
33.831726,-118.289482,Jack in the Box,90502,Los Angeles County
34.086330,-118.291565,Jack in the Box,90029,Los Angeles County
34.033413,-118.291702,Jack in the Box,90007,Los Angeles County
34.066204,-118.291801,Jack in the Box,90010,Los Angeles County
33.901787,-118.292114,Jack in the Box,90247,Los Angeles County
33.738632,-118.292183,Jack in the Box,90731,Los Angeles County
33.873104,-118.292877,Jack in the Box,90248,Los Angeles County
34.010994,-118.301704,Jack in the Box,90062,Los Angeles County
33.789333,-118.308273,Jack in the Box,90717,Los Angeles County
33.908989,-118.308960,Jack in the Box,90249,Los Angeles County
33.751923,-118.309105,Jack in the Box,90732,Los Angeles County
33.974506,-118.309151,Jack in the Box,90305,Los Angeles County
33.819927,-118.315575,Jack in the Box,90501,Los Angeles County
34.259846,-118.316040,Jack in the Box,91040,Los Angeles County
33.776165,-118.316216,Jack in the Box,90717,Los Angeles County
33.885685,-118.317436,Jack in the Box,90506,Los Angeles County
33.988979,-118.317917,Jack in the Box,90062,Los Angeles County
33.931793,-118.326263,Jack in the Box,90303,Los Angeles County
34.098148,-118.329086,Jack in the Box,90028,Los Angeles County
34.039639,-118.331009,Jack in the Box,90019,Los Angeles County
33.792370,-118.333244,Jack in the Box,90717,Los Angeles County
34.197922,-118.338120,Jack in the Box,91504,Los Angeles County
34.093357,-118.338745,Jack in the Box,90038,Los Angeles County
33.877651,-118.342354,Jack in the Box,90506,Los Angeles County
34.062344,-118.343056,Jack in the Box,90036,Los Angeles County
33.945576,-118.345802,Jack in the Box,90304,Los Angeles County
46.061169,-118.347069,Jack in the Box,99324,Walla Walla County
33.804760,-118.350967,Jack in the Box,90505,Los Angeles County
33.867882,-118.352333,Jack in the Box,90278,Los Angeles County
33.895248,-118.352898,Jack in the Box,90260,Los Angeles County
34.025650,-118.355019,Jack in the Box,90016,Los Angeles County
33.931080,-118.360306,Jack in the Box,90304,Los Angeles County
34.068073,-118.361580,Jack in the Box,90036,Los Angeles County
33.916260,-118.365875,Jack in the Box,90250,Los Angeles County
33.837711,-118.365952,Jack in the Box,90503,Los Angeles County
33.984760,-118.369400,Jack in the Box,90056,Los Angeles County
34.214901,-118.370499,Jack in the Box,91605,Los Angeles County
33.959900,-118.377342,Jack in the Box,90301,Los Angeles County
34.053982,-118.378700,Jack in the Box,90035,Los Angeles County
33.865093,-118.386887,Jack in the Box,90254,Los Angeles County
33.995014,-118.395241,Jack in the Box,90230,Los Angeles County
37.355934,-118.395439,Jack in the Box,93514,Inyo County
33.883953,-118.396240,Jack in the Box,90266,Los Angeles County
34.018826,-118.407227,Jack in the Box,90034,Los Angeles County
34.260075,-118.430130,Jack in the Box,91331,Los Angeles County
34.307240,-118.430153,Jack in the Box,91340,Los Angeles County
33.999454,-118.430573,Jack in the Box,90066,Los Angeles County
34.187084,-118.431053,Jack in the Box,91401,Los Angeles County
34.038044,-118.432610,Jack in the Box,90064,Los Angeles County
34.233589,-118.438866,Jack in the Box,91402,Los Angeles County
34.049000,-118.440308,Jack in the Box,90025,Los Angeles County
34.283466,-118.443672,Jack in the Box,91340,Los Angeles County
34.195274,-118.448898,Jack in the Box,91405,Los Angeles County
34.403465,-118.457863,Jack in the Box,91351,Los Angeles County
34.415985,-118.462418,Jack in the Box,91351,Los Angeles County
34.185688,-118.466347,Jack in the Box,91411,Los Angeles County
34.221260,-118.466896,Jack in the Box,91343,Los Angeles County
35.124168,-118.467918,Jack in the Box,93561,Kern County
34.235714,-118.473625,Jack in the Box,91343,Los Angeles County
34.034607,-118.479416,Jack in the Box,90404,Los Angeles County
34.011505,-118.481735,Jack in the Box,90405,Los Angeles County
34.019505,-118.491219,Jack in the Box,90403,Los Angeles County
34.193783,-118.500313,Jack in the Box,91406,Los Angeles County
34.272202,-118.501106,Jack in the Box,91344,Los Angeles County
34.221710,-118.502449,Jack in the Box,91325,Los Angeles County
34.264778,-118.520599,Jack in the Box,91344,Los Angeles County
34.380024,-118.533195,Jack in the Box,91321,Los Angeles County
34.194283,-118.535881,Jack in the Box,91335,Los Angeles County
34.428398,-118.536552,Jack in the Box,91350,Los Angeles County
34.040207,-118.553749,Jack in the Box,90272,Los Angeles County
34.220329,-118.554276,Jack in the Box,91324,Los Angeles County
34.273762,-118.556229,Jack in the Box,91326,Los Angeles County
34.380322,-118.569382,Jack in the Box,91381,Los Angeles County
34.171650,-118.569443,Jack in the Box,91356,Los Angeles County
34.442471,-118.575119,Jack in the Box,91354,Los Angeles County
34.219841,-118.587242,Jack in the Box,91306,Los Angeles County
34.193909,-118.588226,Jack in the Box,91303,Los Angeles County
34.432255,-118.591072,Jack in the Box,91355,Los Angeles County
34.197380,-118.601540,Jack in the Box,91303,Los Angeles County
34.166931,-118.620003,Jack in the Box,91367,Los Angeles County
34.186314,-118.621796,Jack in the Box,91367,Los Angeles County
34.495483,-118.624832,Jack in the Box,91354,Los Angeles County
34.456715,-118.636154,Jack in the Box,91355,Los Angeles County
34.037010,-118.677811,Jack in the Box,90263,Los Angeles County
34.271629,-118.678513,Jack in the Box,93063,Ventura County
34.143795,-118.698822,Jack in the Box,91302,Los Angeles County
34.134544,-118.757187,Jack in the Box,91301,Los Angeles County
34.271942,-118.768707,Jack in the Box,93065,Ventura County
39.474380,-118.781708,Jack in the Box,89408,Lyon County
34.281395,-118.794518,Jack in the Box,93065,Ventura County
45.667110,-118.805206,Jack in the Box,97801,Umatilla County
34.282902,-118.861832,Jack in the Box,93021,Ventura County
34.185081,-118.874954,Jack in the Box,91360,Ventura County
35.356079,-118.914398,Jack in the Box,93305,Kern County
34.941025,-118.928932,Jack in the Box,93243,Kern County
35.392944,-118.949471,Jack in the Box,93305,Kern County
35.393089,-118.967232,Jack in the Box,93305,Kern County
34.815350,-119.000847,Jack in the Box,93225,Kern County
35.354107,-119.002724,Jack in the Box,93304,Kern County
34.216576,-119.005943,Jack in the Box,93012,Ventura County
34.242847,-119.011223,Jack in the Box,93010,Ventura County
35.398266,-119.018425,Jack in the Box,93301,Kern County
35.379368,-119.018532,Jack in the Box,93301,Kern County
36.065979,-119.025696,Jack in the Box,93267,Tulare County
35.266743,-119.026299,Jack in the Box,93304,Kern County
35.295757,-119.026619,Jack in the Box,93304,Kern County
35.339653,-119.036179,Jack in the Box,93304,Kern County
35.368439,-119.038902,Jack in the Box,93309,Kern County
36.080269,-119.041100,Jack in the Box,93267,Tulare County
34.218483,-119.049438,Jack in the Box,93010,Ventura County
35.324341,-119.056419,Jack in the Box,93309,Kern County
35.412544,-119.059563,Jack in the Box,93301,Kern County
35.355717,-119.061378,Jack in the Box,93309,Kern County
34.346722,-119.069832,Jack in the Box,93066,Ventura County
35.451805,-119.074722,Jack in the Box,93312,Kern County
35.311401,-119.091904,Jack in the Box,93309,Kern County
35.383694,-119.094429,Jack in the Box,93312,Kern County
46.241703,-119.132301,Jack in the Box,99336,Benton County
34.291752,-119.157089,Jack in the Box,93004,Ventura County
46.198742,-119.157234,Jack in the Box,99336,Benton County
34.174427,-119.159843,Jack in the Box,93041,Ventura County
46.212563,-119.183754,Jack in the Box,99336,Benton County
35.528954,-119.187088,Jack in the Box,93263,Kern County
34.211102,-119.194473,Jack in the Box,93036,Ventura County
34.228374,-119.204651,Jack in the Box,93036,Ventura County
36.311893,-119.206841,Jack in the Box,93223,Tulare County
34.254539,-119.210312,Jack in the Box,93003,Ventura County
34.205822,-119.220840,Jack in the Box,93036,Ventura County
46.230598,-119.227463,Jack in the Box,99352,Benton County
35.790573,-119.249321,Jack in the Box,93250,Kern County
39.604721,-119.251221,Jack in the Box,89408,Lyon County
46.264431,-119.265556,Jack in the Box,99352,Benton County
34.273346,-119.265686,Jack in the Box,93003,Ventura County
47.131203,-119.270203,Jack in the Box,98837,Grant County
36.341949,-119.278618,Jack in the Box,93235,Tulare County
45.849758,-119.290352,Jack in the Box,97838,Umatilla County
36.320957,-119.314163,Jack in the Box,93277,Tulare County
35.354225,-119.332405,Jack in the Box,93206,Kern County
36.220753,-119.342430,Jack in the Box,93274,Tulare County
36.324570,-119.350349,Jack in the Box,93277,Tulare County
36.545353,-119.372192,Jack in the Box,93618,Tulare County
36.593395,-119.451523,Jack in the Box,93654,Fresno County
36.707954,-119.556320,Jack in the Box,93616,Fresno County
36.517475,-119.563171,Jack in the Box,93631,Fresno County
39.264347,-119.580086,Jack in the Box,89706,Carson City
36.578850,-119.628838,Jack in the Box,93662,Fresno County
36.341236,-119.655312,Jack in the Box,93202,Kings County
35.616253,-119.658279,Jack in the Box,93280,Kern County
37.332645,-119.658966,Jack in the Box,93601,Madera County
39.644779,-119.665176,Jack in the Box,89436,Washoe County
36.328224,-119.671730,Jack in the Box,93202,Kings County
34.426388,-119.685509,Jack in the Box,93103,Santa Barbara County
36.837265,-119.686234,Jack in the Box,93611,Fresno County
36.816700,-119.700417,Jack in the Box,93611,Fresno County
36.735725,-119.728821,Jack in the Box,93702,Fresno County
36.750420,-119.734131,Jack in the Box,93702,Fresno County
36.677811,-119.735252,Jack in the Box,93702,Fresno County
39.541817,-119.735451,Jack in the Box,89431,Washoe County
36.808327,-119.736031,Jack in the Box,93612,Fresno County
38.937469,-119.741417,Jack in the Box,89460,Douglas County
34.440285,-119.744308,Jack in the Box,93110,Santa Barbara County
39.489826,-119.748177,Jack in the Box,89502,Washoe County
39.420200,-119.754097,Jack in the Box,89521,Washoe County
36.852222,-119.756470,Jack in the Box,93720,Fresno County
39.189720,-119.758659,Jack in the Box,89706,Carson City
39.170284,-119.765106,Jack in the Box,89706,Carson City
39.133682,-119.769608,Jack in the Box,89701,Carson City
36.743023,-119.772217,Jack in the Box,93701,Fresno County
39.545345,-119.775673,Jack in the Box,89512,Washoe County
36.313305,-119.780502,Jack in the Box,93245,Kings County
39.503914,-119.789429,Jack in the Box,89502,Washoe County
36.836102,-119.790031,Jack in the Box,93650,Fresno County
36.769814,-119.790283,Jack in the Box,93701,Fresno County
39.527908,-119.827606,Jack in the Box,89501,Washoe County
36.808037,-119.830521,Jack in the Box,93705,Fresno County
36.772049,-119.845703,Jack in the Box,93705,Fresno County
39.613174,-119.849701,Jack in the Box,89433,Washoe County
36.794277,-119.862930,Jack in the Box,93722,Fresno County
39.534378,-119.864464,Jack in the Box,89503,Washoe County
34.430000,-119.868263,Jack in the Box,93111,Santa Barbara County
36.835213,-119.879150,Jack in the Box,93722,Fresno County
35.988262,-119.959312,Jack in the Box,93239,Kings County
39.502625,-119.998840,Jack in the Box,89523,Washoe County
46.309464,-120.020340,Jack in the Box,98930,Yakima County
36.923538,-120.024223,Jack in the Box,93638,Madera County
36.972965,-120.072586,Jack in the Box,93638,Madera County
37.098141,-120.221527,Jack in the Box,93610,Madera County
37.975822,-120.343895,Jack in the Box,95370,Tuolumne County
34.953182,-120.419281,Jack in the Box,93458,Santa Barbara County
34.864941,-120.435501,Jack in the Box,93455,Santa Barbara County
34.944035,-120.435814,Jack in the Box,93458,Santa Barbara County
34.918648,-120.435875,Jack in the Box,93458,Santa Barbara County
34.646523,-120.457954,Jack in the Box,93436,Santa Barbara County
37.319485,-120.478226,Jack in the Box,95348,Merced County
46.568275,-120.485031,Jack in the Box,98902,Yakima County
37.302296,-120.500931,Jack in the Box,95348,Merced County
46.614574,-120.512169,Jack in the Box,98902,Yakima County
46.999760,-120.549065,Jack in the Box,98926,Kittitas County
46.592819,-120.560707,Jack in the Box,98902,Yakima County
35.120644,-120.599754,Jack in the Box,93433,San Luis Obispo County
37.360256,-120.613754,Jack in the Box,95301,Merced County
35.136768,-120.629013,Jack in the Box,93433,San Luis Obispo County
40.411404,-120.637062,Jack in the Box,96130,Lassen County
35.615829,-120.658951,Jack in the Box,93422,San Luis Obispo County
35.287716,-120.664276,Jack in the Box,93405,San Luis Obispo County
35.488781,-120.669472,Jack in the Box,93422,San Luis Obispo County
35.638268,-120.692192,Jack in the Box,93422,San Luis Obispo County
35.588413,-120.694862,Jack in the Box,93422,San Luis Obispo County
37.388065,-120.736969,Jack in the Box,95315,Merced County
38.370316,-120.801933,Jack in the Box,95642,Amador County
37.057076,-120.833626,Jack in the Box,93635,Merced County
38.713791,-120.842361,Jack in the Box,95619,El Dorado County
37.767929,-120.844315,Jack in the Box,95367,Stanislaus County
37.494812,-120.845901,Jack in the Box,95382,Stanislaus County
37.516529,-120.849136,Jack in the Box,95382,Stanislaus County
37.475811,-120.849190,Jack in the Box,95380,Stanislaus County
37.638371,-120.928604,Jack in the Box,95354,Stanislaus County
37.609470,-120.939827,Jack in the Box,95351,Stanislaus County
37.654800,-120.957230,Jack in the Box,95354,Stanislaus County
37.732540,-120.957565,Jack in the Box,95367,Stanislaus County
37.638348,-120.975166,Jack in the Box,95354,Stanislaus County
37.678257,-120.975616,Jack in the Box,95350,Stanislaus County
37.670681,-120.993835,Jack in the Box,95350,Stanislaus County
37.644909,-120.994255,Jack in the Box,95351,Stanislaus County
37.687641,-121.012245,Jack in the Box,95350,Stanislaus County
37.625866,-121.014717,Jack in the Box,95351,Stanislaus County
37.103561,-121.015625,Jack in the Box,95322,Merced County
37.646130,-121.018219,Jack in the Box,95350,Stanislaus County
37.666004,-121.029816,Jack in the Box,95350,Stanislaus County
39.235615,-121.039467,Jack in the Box,95975,Nevada County
38.924435,-121.056076,Jack in the Box,95603,Placer County
38.654427,-121.070282,Jack in the Box,95762,El Dorado County
38.938889,-121.095955,Jack in the Box,95603,Placer County
37.754105,-121.139839,Jack in the Box,95366,San Joaquin County
38.669422,-121.153427,Jack in the Box,95630,Sacramento County
38.742737,-121.170761,Jack in the Box,95746,Placer County
37.465561,-121.175438,Jack in the Box,95313,Stanislaus County
38.655003,-121.178177,Jack in the Box,95630,Sacramento County
38.677780,-121.196114,Jack in the Box,95662,Sacramento County
37.797337,-121.197212,Jack in the Box,95336,San Joaquin County
37.787983,-121.216209,Jack in the Box,95336,San Joaquin County
37.812107,-121.217171,Jack in the Box,95336,San Joaquin County
37.903717,-121.220787,Jack in the Box,95231,San Joaquin County
38.788342,-121.225922,Jack in the Box,95677,Placer County
38.744366,-121.255333,Jack in the Box,95661,Placer County
38.678467,-121.262108,Jack in the Box,95610,Sacramento County
38.782051,-121.265518,Jack in the Box,95678,Placer County
38.593792,-121.265839,Jack in the Box,95670,Sacramento County
38.707893,-121.271889,Jack in the Box,95610,Sacramento County
38.743847,-121.275360,Jack in the Box,95661,Placer County
38.130150,-121.278183,Jack in the Box,95258,San Joaquin County
38.596081,-121.289093,Jack in the Box,95670,Sacramento County
38.721989,-121.290611,Jack in the Box,95661,Placer County
37.811707,-121.292694,Jack in the Box,95330,San Joaquin County
38.876591,-121.296379,Jack in the Box,95648,Placer County
37.966976,-121.297852,Jack in the Box,95202,San Joaquin County
37.936634,-121.298882,Jack in the Box,95203,San Joaquin County
38.020756,-121.300240,Jack in the Box,95210,San Joaquin County
38.115623,-121.305092,Jack in the Box,95258,San Joaquin County
38.290916,-121.306786,Jack in the Box,95632,Sacramento County
38.006470,-121.318489,Jack in the Box,95207,San Joaquin County
38.679295,-121.320801,Jack in the Box,95621,Sacramento County
38.617268,-121.329430,Jack in the Box,95608,Sacramento County
38.568783,-121.333542,Jack in the Box,95827,Sacramento County
37.984627,-121.339622,Jack in the Box,95204,San Joaquin County
38.661163,-121.351715,Jack in the Box,95841,Sacramento County
38.021168,-121.360664,Jack in the Box,95209,San Joaquin County
38.660885,-121.364288,Jack in the Box,95841,Sacramento County
38.424915,-121.371414,Jack in the Box,95829,Sacramento County
38.564140,-121.378342,Jack in the Box,95826,Sacramento County
38.029072,-121.381798,Jack in the Box,95219,San Joaquin County
38.617702,-121.382767,Jack in the Box,95821,Sacramento County
38.595005,-121.383194,Jack in the Box,95864,Sacramento County
38.713158,-121.392365,Jack in the Box,95843,Sacramento County
36.852596,-121.398819,Jack in the Box,95045,San Benito County
38.511738,-121.409218,Jack in the Box,95828,Sacramento County
38.596272,-121.411026,Jack in the Box,95825,Sacramento County
37.739990,-121.412636,Jack in the Box,95376,San Joaquin County
38.584183,-121.415565,Jack in the Box,95825,Sacramento County
38.475224,-121.419174,Jack in the Box,95823,Sacramento County
37.754303,-121.435371,Jack in the Box,95376,San Joaquin County
38.526451,-121.443375,Jack in the Box,95824,Sacramento County
38.422977,-121.449104,Jack in the Box,95758,Sacramento County
37.739555,-121.451363,Jack in the Box,95376,San Joaquin County
38.546906,-121.453682,Jack in the Box,95817,Sacramento County
38.496235,-121.454895,Jack in the Box,95824,Sacramento County
38.643650,-121.456711,Jack in the Box,95838,Sacramento County
38.520359,-121.498894,Jack in the Box,95822,Sacramento County
38.614025,-121.518791,Jack in the Box,95834,Sacramento County
38.655685,-121.522903,Jack in the Box,95835,Sacramento County
37.006630,-121.552216,Jack in the Box,95020,Santa Clara County
38.590981,-121.555489,Jack in the Box,95605,Yolo County
36.984966,-121.556953,Jack in the Box,95020,Santa Clara County
37.014500,-121.572449,Jack in the Box,95020,Santa Clara County
39.143726,-121.591179,Jack in the Box,95901,Yuba County
36.693802,-121.597214,Jack in the Box,93905,Monterey County
39.497932,-121.604439,Jack in the Box,95968,Butte County
36.660515,-121.622192,Jack in the Box,93905,Monterey County
39.762413,-121.622383,Jack in the Box,95969,Butte County
37.133572,-121.630981,Jack in the Box,95046,Santa Clara County
39.141949,-121.632233,Jack in the Box,95993,Sutter County
37.110538,-121.640152,Jack in the Box,95046,Santa Clara County
39.142433,-121.648636,Jack in the Box,95993,Sutter County
36.719231,-121.651627,Jack in the Box,93906,Monterey County
36.668198,-121.655586,Jack in the Box,93901,Monterey County
37.944736,-121.697212,Jack in the Box,94513,Contra Costa County
37.705120,-121.721390,Jack in the Box,95377,San Joaquin County
38.676937,-121.727982,Jack in the Box,95776,Yolo County
38.002384,-121.732521,Jack in the Box,94561,Contra Costa County
38.545414,-121.739517,Jack in the Box,95618,Yolo County
38.677288,-121.765251,Jack in the Box,95776,Yolo County
37.963272,-121.769035,Jack in the Box,94531,Contra Costa County
36.933002,-121.770744,Jack in the Box,95019,Santa Cruz County
37.232803,-121.772301,Jack in the Box,95119,Santa Clara County
37.680119,-121.773384,Jack in the Box,94566,Alameda County
37.698009,-121.773796,Jack in the Box,94566,Alameda County
37.994869,-121.784454,Jack in the Box,94509,Contra Costa County
36.917168,-121.784546,Jack in the Box,95019,Santa Cruz County
36.687260,-121.798500,Jack in the Box,93933,Monterey County
37.236877,-121.801300,Jack in the Box,95119,Santa Clara County
39.727146,-121.804199,Jack in the Box,95928,Butte County
37.999382,-121.805756,Jack in the Box,94509,Contra Costa County
38.469406,-121.823326,Jack in the Box,95620,Solano County
37.381115,-121.826767,Jack in the Box,95133,Santa Clara County
37.320885,-121.827805,Jack in the Box,95122,Santa Clara County
36.581951,-121.828255,Jack in the Box,93940,Monterey County
37.251534,-121.829437,Jack in the Box,95123,Santa Clara County
37.291321,-121.834541,Jack in the Box,95111,Santa Clara County
37.362034,-121.835228,Jack in the Box,95116,Santa Clara County
39.727509,-121.838959,Jack in the Box,95926,Butte County
37.341698,-121.840660,Jack in the Box,95116,Santa Clara County
36.608166,-121.846344,Jack in the Box,93943,Monterey County
39.863831,-121.869698,Jack in the Box,95973,Butte County
38.013031,-121.869873,Jack in the Box,94565,Contra Costa County
37.415878,-121.875137,Jack in the Box,95035,Santa Clara County
37.676853,-121.875992,Jack in the Box,94566,Alameda County
37.292786,-121.876030,Jack in the Box,95125,Santa Clara County
37.262882,-121.876404,Jack in the Box,95118,Santa Clara County
37.332657,-121.884216,Jack in the Box,95113,Santa Clara County
38.015152,-121.889877,Jack in the Box,94565,Contra Costa County
36.592850,-121.893227,Jack in the Box,93943,Monterey County
37.657856,-121.896744,Jack in the Box,94566,Alameda County
37.308815,-121.900635,Jack in the Box,95125,Santa Clara County
37.406498,-121.902763,Jack in the Box,95131,Santa Clara County
37.323330,-121.919205,Jack in the Box,95126,Santa Clara County
37.711651,-121.927177,Jack in the Box,94568,Alameda County
37.491287,-121.928055,Jack in the Box,94539,Alameda County
37.292168,-121.931847,Jack in the Box,95008,Santa Clara County
38.385681,-121.933937,Jack in the Box,95687,Solano County
37.512699,-121.941963,Jack in the Box,94539,Alameda County
37.269085,-121.944969,Jack in the Box,95008,Santa Clara County
37.354862,-121.946259,Jack in the Box,95050,Santa Clara County
37.557228,-121.951752,Jack in the Box,94536,Alameda County
38.367466,-121.955162,Jack in the Box,95688,Solano County
37.323387,-121.958206,Jack in the Box,95117,Santa Clara County
37.530998,-121.958954,Jack in the Box,94538,Alameda County
37.294113,-121.959244,Jack in the Box,95130,Santa Clara County
37.239315,-121.961479,Jack in the Box,95030,Santa Clara County
47.858002,-121.963936,Jack in the Box,98290,Snohomish County
38.882065,-121.970917,Jack in the Box,95695,Yolo County
37.285995,-121.975830,Jack in the Box,95130,Santa Clara County
37.382492,-121.978531,Jack in the Box,95054,Santa Clara County
47.199718,-121.981369,Jack in the Box,98321,Pierce County
37.960674,-121.981712,Jack in the Box,94521,Contra Costa County
37.525146,-121.985916,Jack in the Box,94538,Alameda County
37.352482,-121.988258,Jack in the Box,95051,Santa Clara County
38.358898,-121.990082,Jack in the Box,95688,Solano County
37.337963,-121.991928,Jack in the Box,95051,Santa Clara County
37.291786,-121.992966,Jack in the Box,95130,Santa Clara County
38.342999,-121.994667,Jack in the Box,95688,Solano County
37.561581,-122.013191,Jack in the Box,94536,Alameda County
38.243404,-122.020111,Jack in the Box,94533,Solano County
37.297726,-122.032486,Jack in the Box,95129,Santa Clara County
38.265175,-122.034012,Jack in the Box,94533,Solano County
38.265076,-122.034348,Jack in the Box,94533,Solano County
47.614712,-122.035301,Jack in the Box,98074,King County
37.620632,-122.036674,Jack in the Box,94544,Alameda County
39.936707,-122.039047,Jack in the Box,96035,Tehama County
37.006767,-122.040642,Jack in the Box,95064,Santa Cruz County
37.954674,-122.041168,Jack in the Box,94520,Contra Costa County
37.370476,-122.041328,Jack in the Box,94086,Santa Clara County
47.544559,-122.049988,Jack in the Box,98029,King County
37.552547,-122.057838,Jack in the Box,94555,Alameda County
37.951420,-122.060394,Jack in the Box,94523,Contra Costa County
37.911461,-122.065498,Jack in the Box,94597,Contra Costa County
37.631432,-122.075279,Jack in the Box,94544,Alameda County
37.665260,-122.078041,Jack in the Box,94541,Alameda County
37.401993,-122.078682,Jack in the Box,94043,Santa Clara County
37.695385,-122.081635,Jack in the Box,94546,Alameda County
47.921715,-122.093277,Jack in the Box,98296,Snohomish County
37.396156,-122.102531,Jack in the Box,94043,Santa Clara County
37.687820,-122.103958,Jack in the Box,94541,Alameda County
37.643890,-122.104347,Jack in the Box,94545,Alameda County
37.398457,-122.108467,Jack in the Box,94043,Santa Clara County
37.893513,-122.109726,Jack in the Box,94549,Contra Costa County
38.085377,-122.110741,Jack in the Box,94510,Solano County
47.358009,-122.117615,Jack in the Box,98042,King County
37.652996,-122.120079,Jack in the Box,94541,Alameda County
47.679924,-122.123192,Jack in the Box,98052,King County
37.674538,-122.123329,Jack in the Box,94541,Alameda County
37.834522,-122.128769,Jack in the Box,94556,Contra Costa County
37.417145,-122.130234,Jack in the Box,94306,Santa Clara County
38.219963,-122.130707,Jack in the Box,94534,Solano County
37.995068,-122.131805,Jack in the Box,94553,Contra Costa County
47.581291,-122.135498,Jack in the Box,98006,King County
37.686752,-122.138939,Jack in the Box,94580,Alameda County
47.626617,-122.142921,Jack in the Box,98007,King County
37.425632,-122.147148,Jack in the Box,94304,Santa Clara County
37.479771,-122.151100,Jack in the Box,94025,San Mateo County
47.488670,-122.154808,Jack in the Box,98056,King County
37.714378,-122.157692,Jack in the Box,94577,Alameda County
38.202400,-122.157761,Jack in the Box,94534,Solano County
47.753086,-122.165512,Jack in the Box,98011,King County
47.169827,-122.168800,Jack in the Box,98391,Pierce County
48.082676,-122.173264,Jack in the Box,98270,Snohomish County
47.703846,-122.175194,Jack in the Box,98034,King County
48.152325,-122.179230,Jack in the Box,98271,Snohomish County
48.051994,-122.183167,Jack in the Box,98270,Snohomish County
47.491158,-122.190491,Jack in the Box,98056,King County
37.744221,-122.195839,Jack in the Box,94621,Alameda County
47.416248,-122.196854,Jack in the Box,98031,King County
47.981796,-122.201271,Jack in the Box,98201,Snohomish County
47.609970,-122.201302,Jack in the Box,98004,King County
47.388134,-122.202408,Jack in the Box,98030,King County
37.467422,-122.208946,Jack in the Box,94027,San Mateo County
47.878334,-122.212807,Jack in the Box,98208,Snohomish County
47.954994,-122.212952,Jack in the Box,98203,Snohomish County
47.912586,-122.213562,Jack in the Box,98208,Snohomish County
37.486961,-122.214348,Jack in the Box,94063,San Mateo County
47.476772,-122.215599,Jack in the Box,98057,King County
47.791710,-122.216568,Jack in the Box,98021,Snohomish County
47.441063,-122.224770,Jack in the Box,98055,King County
37.462826,-122.225197,Jack in the Box,94061,San Mateo County
47.320686,-122.225647,Jack in the Box,98002,King County
40.161304,-122.227570,Jack in the Box,96035,Tehama County
38.110123,-122.228378,Jack in the Box,94590,Solano County
47.307617,-122.228493,Jack in the Box,98002,King County
47.920933,-122.229118,Jack in the Box,98203,Snohomish County
47.201374,-122.229294,Jack in the Box,98390,Pierce County
47.382622,-122.231277,Jack in the Box,98030,King County
37.782497,-122.234123,Jack in the Box,94606,Alameda County
47.456795,-122.243629,Jack in the Box,98057,King County
37.762127,-122.244751,Jack in the Box,94601,Alameda County
38.110016,-122.248428,Jack in the Box,94590,Solano County
47.849648,-122.250206,Jack in the Box,98087,Snohomish County
37.500557,-122.252464,Jack in the Box,94070,San Mateo County
38.138649,-122.252792,Jack in the Box,94589,Solano County
47.273060,-122.255630,Jack in the Box,98047,King County
47.890656,-122.257469,Jack in the Box,98204,Snohomish County
38.165890,-122.258430,Jack in the Box,94589,Solano County
37.851215,-122.260239,Jack in the Box,94705,Alameda County
47.758484,-122.262238,Jack in the Box,98028,King County
37.832478,-122.263725,Jack in the Box,94609,Alameda County
47.522110,-122.269791,Jack in the Box,98118,King County
47.485737,-122.273804,Jack in the Box,98168,King County
38.012287,-122.275513,Jack in the Box,94547,Contra Costa County
37.777531,-122.276443,Jack in the Box,94501,Alameda County
38.280964,-122.277153,Jack in the Box,94559,Napa County
37.995758,-122.285484,Jack in the Box,94564,Contra Costa County
47.474434,-122.285568,Jack in the Box,98168,King County
47.891388,-122.286293,Jack in the Box,98204,Snohomish County
37.866550,-122.291153,Jack in the Box,94702,Alameda County
47.821136,-122.291306,Jack in the Box,98037,Snohomish County
47.723957,-122.292961,Jack in the Box,98125,King County
47.156246,-122.293175,Jack in the Box,98373,Pierce County
47.186069,-122.293472,Jack in the Box,98372,Pierce County
47.110939,-122.293610,Jack in the Box,98375,Pierce County
47.434761,-122.296989,Jack in the Box,98158,King County
40.450531,-122.301277,Jack in the Box,96007,Shasta County
38.321857,-122.304787,Jack in the Box,94599,Napa County
37.908028,-122.306564,Jack in the Box,94530,Contra Costa County
37.966064,-122.309723,Jack in the Box,94806,Contra Costa County
47.358105,-122.311211,Jack in the Box,98198,King County
47.323048,-122.313164,Jack in the Box,98003,King County
47.290524,-122.313263,Jack in the Box,98003,King County
47.663952,-122.313278,Jack in the Box,98105,King County
37.925278,-122.319160,Jack in the Box,94804,Contra Costa County
37.566986,-122.320518,Jack in the Box,94401,San Mateo County
47.624340,-122.322021,Jack in the Box,98109,King County
47.398792,-122.324585,Jack in the Box,98198,King County
47.807293,-122.326477,Jack in the Box,98043,Snohomish County
47.586033,-122.329285,Jack in the Box,98104,King County
37.954174,-122.332214,Jack in the Box,94801,Contra Costa County
47.475900,-122.334000,Jack in the Box,98148,King County
45.578106,-122.334351,Jack in the Box,97060,Multnomah County
47.550362,-122.334351,Jack in the Box,98106,King County
48.471535,-122.335510,Jack in the Box,98233,Skagit County
48.435726,-122.336685,Jack in the Box,98273,Skagit County
48.509056,-122.337425,Jack in the Box,98233,Skagit County
47.690662,-122.344322,Jack in the Box,98103,King County
37.965931,-122.344849,Jack in the Box,94806,Contra Costa County
47.719875,-122.345146,Jack in the Box,98133,King County
47.761208,-122.346291,Jack in the Box,98133,King County
47.488327,-122.348938,Jack in the Box,98146,King County
40.586163,-122.352379,Jack in the Box,96002,Shasta County
47.155685,-122.357323,Jack in the Box,98373,Pierce County
48.240726,-122.357635,Jack in the Box,98282,Island County
40.571194,-122.357925,Jack in the Box,96002,Shasta County
47.300842,-122.362938,Jack in the Box,98023,King County
47.663525,-122.370636,Jack in the Box,98107,King County
47.243046,-122.383408,Jack in the Box,98421,Pierce County
47.581104,-122.385384,Jack in the Box,98116,King County
40.556004,-122.388496,Jack in the Box,96002,Shasta County
37.790401,-122.398567,Jack in the Box,94104,San Francisco County
45.518929,-122.399185,Jack in the Box,97060,Multnomah County
37.784428,-122.404610,Jack in the Box,94103,San Francisco County
37.614044,-122.404770,Jack in the Box,94030,San Mateo County
37.742054,-122.406181,Jack in the Box,94110,San Francisco County
37.787270,-122.409981,Jack in the Box,94108,San Francisco County
45.541744,-122.418045,Jack in the Box,97024,Multnomah County
37.648029,-122.418961,Jack in the Box,94080,San Mateo County
47.206829,-122.433792,Jack in the Box,98408,Pierce County
47.160252,-122.434387,Jack in the Box,98444,Pierce County
47.120045,-122.435043,Jack in the Box,98445,Pierce County
47.239735,-122.435707,Jack in the Box,98418,Pierce County
37.666286,-122.451416,Jack in the Box,94014,San Mateo County
48.772064,-122.461075,Jack in the Box,98226,Whatcom County
47.188137,-122.462067,Jack in the Box,98408,Pierce County
47.210014,-122.463730,Jack in the Box,98409,Pierce County
47.255371,-122.464478,Jack in the Box,98405,Pierce County
37.693264,-122.464798,Jack in the Box,94015,San Mateo County
45.519001,-122.466362,Jack in the Box,97233,Multnomah County
37.780617,-122.469086,Jack in the Box,94118,San Francisco County
38.293331,-122.470535,Jack in the Box,95476,Sonoma County
47.177303,-122.484001,Jack in the Box,98499,Pierce County
48.934528,-122.485649,Jack in the Box,98264,Whatcom County
47.234295,-122.500061,Jack in the Box,98465,Pierce County
45.611973,-122.504944,Jack in the Box,98683,Clark County
47.168156,-122.520157,Jack in the Box,98499,Pierce County
47.255375,-122.526543,Jack in the Box,98465,Pierce County
45.565609,-122.533951,Jack in the Box,97220,Multnomah County
37.895790,-122.535500,Jack in the Box,94941,Marin County
47.220898,-122.537285,Jack in the Box,98466,Pierce County
45.293446,-122.537743,Jack in the Box,97045,Clackamas County
37.973301,-122.538605,Jack in the Box,94904,Marin County
38.070377,-122.539421,Jack in the Box,94949,Marin County
47.179756,-122.547920,Jack in the Box,98467,Pierce County
45.780949,-122.549728,Jack in the Box,98604,Clark County
45.675335,-122.552361,Jack in the Box,98662,Clark County
45.518925,-122.555412,Jack in the Box,97216,Multnomah County
37.979630,-122.564529,Jack in the Box,94960,Marin County
45.622246,-122.565186,Jack in the Box,98664,Clark County
38.100838,-122.568573,Jack in the Box,94945,Marin County
45.491776,-122.578621,Jack in the Box,97266,Multnomah County
45.447151,-122.578735,Jack in the Box,97222,Clackamas County
45.646317,-122.594849,Jack in the Box,98661,Clark County
46.935555,-122.594994,Jack in the Box,98576,Thurston County
45.542416,-122.604401,Jack in the Box,97213,Multnomah County
47.534821,-122.609406,Jack in the Box,98366,Kitsap County
48.499397,-122.612984,Jack in the Box,98221,Skagit County
38.931198,-122.617920,Jack in the Box,95422,Lake County
47.604069,-122.629288,Jack in the Box,98310,Kitsap County
38.243221,-122.631584,Jack in the Box,94954,Sonoma County
45.415619,-122.631729,Jack in the Box,97267,Clackamas County
45.498051,-122.640129,Jack in the Box,97214,Multnomah County
47.093555,-122.644379,Jack in the Box,98327,Pierce County
45.715553,-122.651352,Jack in the Box,98665,Clark County
48.298431,-122.653130,Jack in the Box,98277,Island County
45.349884,-122.653870,Jack in the Box,97068,Clackamas County
45.580433,-122.661507,Jack in the Box,97211,Multnomah County
45.678741,-122.666016,Jack in the Box,98665,Clark County
38.275528,-122.669472,Jack in the Box,94951,Sonoma County
47.568092,-122.671532,Jack in the Box,98337,Kitsap County
47.660721,-122.685478,Jack in the Box,98383,Kitsap County
38.435196,-122.686890,Jack in the Box,95405,Sonoma County
45.537514,-122.698090,Jack in the Box,97227,Multnomah County
38.348503,-122.709717,Jack in the Box,94928,Sonoma County
38.410378,-122.713547,Jack in the Box,95407,Sonoma County
38.430672,-122.725601,Jack in the Box,95405,Sonoma County
38.459728,-122.727440,Jack in the Box,95401,Sonoma County
38.465885,-122.750946,Jack in the Box,95401,Sonoma County
45.382599,-122.756493,Jack in the Box,97062,Washington County
47.056168,-122.766747,Jack in the Box,98503,Thurston County
45.425274,-122.780418,Jack in the Box,97224,Washington County
45.496449,-122.799973,Jack in the Box,97005,Washington County
45.498707,-122.807320,Jack in the Box,97005,Washington County
42.280846,-122.823555,Jack in the Box,97535,Jackson County
47.048027,-122.835373,Jack in the Box,98503,Thurston County
42.315910,-122.860832,Jack in the Box,97501,Jackson County
45.534760,-122.865349,Jack in the Box,97006,Washington County
45.151264,-122.883919,Jack in the Box,97026,Marion County
42.346916,-122.884903,Jack in the Box,97501,Jackson County
47.044464,-122.892487,Jack in the Box,98501,Thurston County
45.550316,-122.902023,Jack in the Box,97006,Washington County
45.497746,-122.903152,Jack in the Box,97006,Washington County
39.014618,-122.910240,Jack in the Box,95453,Lake County
47.024582,-122.922012,Jack in the Box,98501,Thurston County
46.139488,-122.936409,Jack in the Box,98632,Cowlitz County
47.001682,-122.955009,Jack in the Box,98501,Thurston County
46.646290,-122.955742,Jack in the Box,98532,Lewis County
45.508007,-122.961220,Jack in the Box,97113,Washington County
44.045712,-122.964096,Jack in the Box,97477,Lane County
46.728756,-122.980164,Jack in the Box,98532,Lewis County
44.953106,-122.983498,Jack in the Box,97301,Marion County
44.979424,-122.997131,Jack in the Box,97301,Marion County
44.043900,-123.011703,Jack in the Box,97403,Lane County
44.968342,-123.028709,Jack in the Box,97301,Marion County
44.886211,-123.032433,Jack in the Box,97302,Marion County
44.083920,-123.039330,Jack in the Box,97477,Lane County
44.933285,-123.044563,Jack in the Box,97302,Marion County
44.634327,-123.083199,Jack in the Box,97322,Linn County
44.053158,-123.119751,Jack in the Box,97401,Lane County
47.230366,-123.126938,Jack in the Box,98584,Mason County
48.077831,-123.133781,Jack in the Box,98382,Clallam County
44.048355,-123.168633,Jack in the Box,97402,Lane County
45.228775,-123.173347,Jack in the Box,97127,Yamhill County
39.135410,-123.198433,Jack in the Box,95482,Mendocino County
44.588749,-123.251053,Jack in the Box,97331,Benton County
42.458141,-123.323181,Jack in the Box,97526,Josephine County
43.226856,-123.349243,Jack in the Box,97495,Douglas County
39.404240,-123.351913,Jack in the Box,95490,Mendocino County
43.214397,-123.365669,Jack in the Box,97495,Douglas County
48.113781,-123.418060,Jack in the Box,98362,Clallam County
46.975426,-123.813484,Jack in the Box,98520,Grays Harbor County
40.792419,-124.177986,Jack in the Box,95564,Humboldt County
41.756123,-124.195747,Jack in the Box,95531,Del Norte County
19.694828,-155.066483,Jack in the Box,96749,Hawaii County
20.782120,-156.463120,Jack in the Box,96753,Maui County
20.888975,-156.464401,Jack in the Box,96793,Maui County
20.902141,-156.483019,Jack in the Box,96793,Maui County
21.348110,-157.721695,Jack in the Box,96795,Honolulu County
21.396145,-157.744858,Jack in the Box,96734,Honolulu County
21.421089,-157.803650,Jack in the Box,96744,Honolulu County
21.279297,-157.813797,Jack in the Box,96815,Honolulu County
21.279440,-157.825958,Jack in the Box,96815,Honolulu County
21.295116,-157.830399,Jack in the Box,96826,Honolulu County
21.297409,-157.837540,Jack in the Box,96814,Honolulu County
21.300114,-157.844421,Jack in the Box,96813,Honolulu County
21.299118,-157.852997,Jack in the Box,96850,Honolulu County
21.308416,-157.861343,Jack in the Box,96850,Honolulu County
21.318233,-157.865295,Jack in the Box,96850,Honolulu County
21.340992,-157.874634,Jack in the Box,96819,Honolulu County
21.334635,-157.880707,Jack in the Box,96819,Honolulu County
21.343597,-157.895676,Jack in the Box,96819,Honolulu County
21.364389,-157.928329,Jack in the Box,96818,Honolulu County
21.346777,-157.929535,Jack in the Box,96818,Honolulu County
21.388357,-157.956253,Jack in the Box,96782,Honolulu County
21.412422,-158.000916,Jack in the Box,96797,Honolulu County
21.384655,-158.002640,Jack in the Box,96797,Honolulu County
21.458393,-158.015915,Jack in the Box,96789,Honolulu County
21.495607,-158.029907,Jack in the Box,96786,Honolulu County
21.383631,-158.031921,Jack in the Box,96797,Honolulu County
21.339252,-158.076797,Jack in the Box,96707,Honolulu County
39.792176,-105.109589,Jack in the Box,80002,Jefferson County
