latitude,longitude,name,zipcode,county
61.231089,-149.741060,Panda Express,99504,Anchorage Municipality
61.194770,-149.917940,Panda Express,99503,Anchorage Municipality
61.578541,-149.412476,Panda Express,99654,Matanuska-Susitna Borough
33.225359,-86.802934,Panda Express,35007,Shelby County
32.605047,-85.485147,Panda Express,36832,Lee County
34.206494,-86.867093,Panda Express,35058,Cullman County
31.334111,-85.859154,Panda Express,36330,Coffee County
30.382612,-87.683413,Panda Express,36535,Baldwin County
34.008996,-85.986417,Panda Express,35901,Etowah County
34.743313,-86.674882,Panda Express,35806,Madison County
34.747854,-86.773356,Panda Express,35757,Madison County
30.675253,-88.141144,Panda Express,36609,Mobile County
33.607664,-85.787123,Panda Express,36203,Calhoun County
32.460173,-86.414898,Panda Express,36066,Autauga County
33.197590,-87.527710,Panda Express,35404,Tuscaloosa County
33.215099,-87.546356,Panda Express,35476,Tuscaloosa County
36.369545,-94.220665,Panda Express,72719,Benton County
36.055316,-94.189894,Panda Express,72730,Washington County
34.468708,-93.069290,Panda Express,71913,Garland County
36.297180,-94.121407,Panda Express,72758,Benton County
35.248482,-91.728950,Panda Express,72082,White County
36.181534,-94.513519,Panda Express,72761,Benton County
36.195126,-94.181930,Panda Express,72762,Washington County
33.464841,-112.277602,Panda Express,85037,Maricopa County
33.449595,-112.307085,Panda Express,85323,Maricopa County
33.436873,-112.556435,Panda Express,85395,Maricopa County
35.082660,-114.596871,Panda Express,86442,Mohave County
35.169171,-114.565900,Panda Express,86429,Mohave County
32.879468,-111.711995,Panda Express,85122,Pinal County
33.291809,-111.823847,Panda Express,85225,Maricopa County
33.291780,-111.945744,Panda Express,85284,Maricopa County
33.320281,-111.891613,Panda Express,85224,Maricopa County
33.305578,-111.896525,Panda Express,85224,Maricopa County
33.246765,-111.841434,Panda Express,85286,Maricopa County
33.225281,-111.798001,Panda Express,85249,Maricopa County
34.721403,-112.001291,Panda Express,86326,Yavapai County
35.188866,-111.662479,Panda Express,86001,Coconino County
33.304936,-111.743762,Panda Express,85295,Maricopa County
33.281258,-111.789583,Panda Express,85297,Maricopa County
33.336054,-111.790196,Panda Express,85233,Maricopa County
33.666647,-112.186881,Panda Express,85308,Maricopa County
33.523779,-112.151923,Panda Express,85019,Maricopa County
33.639759,-112.224781,Panda Express,85382,Maricopa County
33.568835,-112.186111,Panda Express,85302,Maricopa County
33.508680,-112.264549,Panda Express,85305,Maricopa County
33.463395,-112.341217,Panda Express,85392,Maricopa County
33.453978,-112.392755,Panda Express,85395,Maricopa County
33.349771,-111.721175,Panda Express,85296,Maricopa County
35.221280,-114.035726,Panda Express,86413,Mohave County
34.479770,-114.347856,Panda Express,86403,Mohave County
33.313824,-112.161366,Panda Express,85339,Maricopa County
33.508353,-112.357431,Panda Express,85340,Maricopa County
33.069963,-112.045763,Panda Express,85121,Pinal County
33.393456,-111.805103,Panda Express,85204,Maricopa County
33.377879,-111.640845,Panda Express,85209,Maricopa County
33.422759,-111.789565,Panda Express,85204,Maricopa County
33.380736,-111.687645,Panda Express,85206,Maricopa County
33.452296,-111.683873,Panda Express,85205,Maricopa County
33.387278,-111.861147,Panda Express,85202,Maricopa County
33.378986,-111.839699,Panda Express,85210,Maricopa County
33.379302,-111.757209,Panda Express,85234,Maricopa County
33.451707,-111.735177,Panda Express,85213,Maricopa County
33.393755,-111.690064,Panda Express,85206,Maricopa County
33.378989,-111.637745,Panda Express,85209,Maricopa County
33.433109,-111.871090,Panda Express,85201,Maricopa County
31.366596,-110.938275,Panda Express,85621,Santa Cruz County
32.349117,-110.975348,Panda Express,85704,Pima County
33.672787,-112.238220,Panda Express,85382,Maricopa County
33.638006,-112.216954,Panda Express,85382,Maricopa County
33.595707,-112.221069,Panda Express,85381,Maricopa County
33.532100,-112.256663,Panda Express,85305,Maricopa County
33.710620,-112.269353,Panda Express,85373,Maricopa County
33.583392,-111.977653,Panda Express,85028,Maricopa County
33.677189,-111.977184,Panda Express,85050,Maricopa County
33.655082,-112.031170,Panda Express,85032,Maricopa County
33.377966,-112.029440,Panda Express,85042,Maricopa County
33.712779,-112.112398,Panda Express,85027,Maricopa County
33.667970,-112.123345,Panda Express,85027,Maricopa County
33.437431,-112.028084,Panda Express,85034,Maricopa County
33.498869,-111.986703,Panda Express,85018,Maricopa County
33.611853,-111.996666,Panda Express,85032,Maricopa County
33.452597,-112.069819,Panda Express,85004,Maricopa County
33.305112,-111.996392,Panda Express,85048,Maricopa County
33.625350,-112.003348,Panda Express,85032,Maricopa County
33.407320,-111.978279,Panda Express,85034,Maricopa County
33.377670,-112.166163,Panda Express,85041,Maricopa County
33.494975,-112.171839,Panda Express,85031,Maricopa County
33.538610,-112.047653,Panda Express,85014,Maricopa County
33.676240,-111.960075,Panda Express,85054,Maricopa County
33.480318,-112.220970,Panda Express,85033,Maricopa County
33.423091,-112.224303,Panda Express,85043,Maricopa County
33.640141,-112.061053,Panda Express,85022,Maricopa County
33.494708,-112.060743,Panda Express,85014,Maricopa County
33.509472,-112.129951,Panda Express,85017,Maricopa County
34.545783,-112.467531,Panda Express,86303,Yavapai County
34.588006,-112.339635,Panda Express,86314,Yavapai County
33.248749,-111.626882,Panda Express,85142,Maricopa County
33.234200,-111.649612,Panda Express,85142,Maricopa County
33.149652,-111.552793,Panda Express,85142,Maricopa County
33.621160,-111.875182,Panda Express,85260,Maricopa County
33.481468,-111.925659,Panda Express,85251,Maricopa County
33.625552,-111.940639,Panda Express,85254,Maricopa County
33.494800,-111.921412,Panda Express,85251,Maricopa County
34.201630,-110.016853,Panda Express,85935,Navajo County
31.558818,-110.257337,Panda Express,85635,Cochise County
33.638846,-112.354688,Panda Express,85375,Maricopa County
33.609899,-112.419740,Panda Express,85388,Maricopa County
33.336838,-111.927089,Panda Express,85284,Maricopa County
33.363921,-111.912883,Panda Express,85283,Maricopa County
33.422306,-111.934771,Panda Express,85281,Maricopa County
33.407841,-111.925903,Panda Express,85282,Maricopa County
32.234930,-111.004015,Panda Express,85701,Pima County
32.170220,-110.956134,Panda Express,85714,Pima County
32.232179,-110.950785,Panda Express,85719,Pima County
32.133930,-110.999640,Panda Express,85746,Pima County
32.305347,-111.009507,Panda Express,85705,Pima County
32.252898,-110.892809,Panda Express,85712,Pima County
32.257698,-110.943801,Panda Express,85719,Pima County
32.185226,-110.968337,Panda Express,85713,Pima County
32.221678,-110.916321,Panda Express,85716,Pima County
32.288954,-110.977984,Panda Express,85705,Pima County
32.221501,-110.866916,Panda Express,85711,Pima County
32.191790,-110.856267,Panda Express,85708,Pima County
32.250858,-110.840291,Panda Express,85715,Pima County
32.341700,-111.013012,Panda Express,85704,Pima County
32.354643,-111.093961,Panda Express,85741,Pima County
32.118951,-110.772696,Panda Express,85730,Pima County
32.206460,-110.788460,Panda Express,85710,Pima County
32.698823,-114.601110,Panda Express,85364,Yuma County
32.682006,-114.650213,Panda Express,85364,Yuma County
32.719600,-114.701729,Panda Express,85364,Yuma County
34.147212,-118.759784,Panda Express,91301,Los Angeles County
37.693249,-122.137558,Panda Express,94579,Alameda County
34.095382,-118.126759,Panda Express,91801,Los Angeles County
33.572806,-117.723534,Panda Express,92656,Orange County
34.184082,-118.159564,Panda Express,91103,Los Angeles County
38.179684,-122.253592,Panda Express,94503,Napa County
33.832760,-117.915719,Panda Express,92805,Orange County
33.799436,-117.888812,Panda Express,92868,Orange County
33.799436,-117.888812,Panda Express,92868,Orange County
33.803592,-117.888075,Panda Express,92868,Orange County
33.868288,-117.751721,Panda Express,92808,Orange County
33.819653,-117.941437,Panda Express,92802,Orange County
40.432449,-122.287556,Panda Express,96007,Shasta County
38.714044,-121.368488,Panda Express,95843,Sacramento County
38.005935,-121.834939,Panda Express,94509,Contra Costa County
37.961881,-121.737605,Panda Express,94531,Contra Costa County
34.470937,-117.244154,Panda Express,92395,San Bernardino County
34.527220,-117.221828,Panda Express,92395,San Bernardino County
34.135364,-118.054197,Panda Express,91007,Los Angeles County
34.123991,-118.056420,Panda Express,91007,Los Angeles County
35.120656,-120.605394,Panda Express,93433,San Luis Obispo County
37.342873,-120.614701,Panda Express,95301,Merced County
34.129041,-117.891612,Panda Express,91722,Los Angeles County
35.354145,-119.017897,Panda Express,93304,Kern County
35.296019,-119.026377,Panda Express,93304,Kern County
35.393559,-118.967264,Panda Express,93305,Kern County
35.339239,-119.033125,Panda Express,93304,Kern County
35.353860,-118.949370,Panda Express,93305,Kern County
35.308090,-119.092424,Panda Express,93309,Kern County
35.354419,-119.058166,Panda Express,93309,Kern County
35.383692,-119.103604,Panda Express,93312,Kern County
34.071984,-117.960711,Panda Express,91790,Los Angeles County
34.891204,-116.999331,Panda Express,92311,San Bernardino County
34.848845,-117.082773,Panda Express,92311,San Bernardino County
33.923577,-116.947822,Panda Express,92223,Riverside County
33.971008,-118.188270,Panda Express,90201,Los Angeles County
33.970375,-118.171663,Panda Express,90201,Los Angeles County
33.889229,-118.125422,Panda Express,90706,Los Angeles County
37.520037,-122.275566,Panda Express,94070,San Mateo County
38.066587,-122.164592,Panda Express,94525,Contra Costa County
33.916669,-117.900430,Panda Express,92821,Orange County
33.912932,-117.885972,Panda Express,92821,Orange County
37.925133,-121.722490,Panda Express,94513,Contra Costa County
33.967419,-118.033274,Panda Express,90602,Los Angeles County
33.845450,-117.998113,Panda Express,90620,Orange County
33.846926,-117.988844,Panda Express,90620,Orange County
34.162800,-118.314012,Panda Express,91506,Los Angeles County
34.190025,-118.326642,Panda Express,91502,Los Angeles County
34.183210,-118.311691,Panda Express,91502,Los Angeles County
34.195381,-118.349083,Panda Express,91505,Los Angeles County
37.577003,-122.349045,Panda Express,94010,San Mateo County
33.930286,-116.818409,Panda Express,92220,Riverside County
33.919685,-116.799900,Panda Express,92220,Riverside County
34.216082,-119.073084,Panda Express,93010,Ventura County
34.236976,-119.036534,Panda Express,93010,Ventura County
34.190391,-118.605764,Panda Express,91303,Los Angeles County
34.194810,-118.606086,Panda Express,91303,Los Angeles County
34.217810,-118.606153,Panda Express,91303,Los Angeles County
33.178675,-117.326449,Panda Express,92056,San Diego County
33.150831,-117.324645,Panda Express,92008,San Diego County
33.103805,-117.266999,Panda Express,92009,San Diego County
33.867198,-118.257354,Panda Express,90746,Los Angeles County
33.844034,-118.263245,Panda Express,90745,Los Angeles County
33.871844,-118.266807,Panda Express,90746,Los Angeles County
34.499091,-118.624580,Panda Express,91354,Los Angeles County
37.694351,-122.058695,Panda Express,94546,Alameda County
33.816132,-116.459487,Panda Express,92234,Riverside County
37.608977,-120.938755,Panda Express,95351,Stanislaus County
33.858629,-118.089789,Panda Express,90701,Los Angeles County
33.863990,-118.093082,Panda Express,90701,Los Angeles County
34.257391,-118.580536,Panda Express,91324,Los Angeles County
39.759070,-121.843500,Panda Express,95926,Butte County
33.982872,-117.712831,Panda Express,91710,San Bernardino County
32.609252,-117.081214,Panda Express,91910,San Diego County
32.594149,-117.033805,Panda Express,91911,San Diego County
32.621269,-116.966146,Panda Express,91915,San Diego County
32.648186,-116.966118,Panda Express,91914,San Diego County
38.672428,-121.271694,Panda Express,95628,Sacramento County
34.004969,-118.152713,Panda Express,90040,Los Angeles County
36.837676,-119.683632,Panda Express,93611,Fresno County
36.794745,-119.682409,Panda Express,93611,Fresno County
33.880524,-118.218248,Panda Express,90221,Los Angeles County
33.902757,-118.252685,Panda Express,90222,Los Angeles County
37.950995,-121.958780,Panda Express,94521,Contra Costa County
33.854103,-117.562819,Panda Express,92879,Riverside County
33.657573,-117.918890,Panda Express,92627,Orange County
33.670748,-117.919492,Panda Express,92626,Orange County
34.085968,-117.870818,Panda Express,91723,Los Angeles County
33.997358,-118.395240,Panda Express,90230,Los Angeles County
34.017182,-118.408388,Panda Express,90034,Los Angeles County
33.983862,-118.395147,Panda Express,90230,Los Angeles County
37.322706,-122.041349,Panda Express,94087,Santa Clara County
33.803198,-118.039364,Panda Express,90630,Orange County
37.701839,-122.483482,Panda Express,94132,San Francisco County
37.669370,-122.469747,Panda Express,94015,San Mateo County
37.817719,-121.996741,Panda Express,94526,Contra Costa County
38.561096,-121.766706,Panda Express,95616,Yolo County
35.746881,-119.243432,Panda Express,93250,Kern County
36.545942,-119.400850,Panda Express,93618,Tulare County
33.937929,-118.129364,Panda Express,90241,Los Angeles County
34.133091,-117.985829,Panda Express,91016,Los Angeles County
37.705528,-121.927750,Panda Express,94568,Alameda County
34.922032,-117.892532,Panda Express,93505,Kern County
32.745160,-116.935379,Panda Express,91978,San Diego County
32.807472,-116.961271,Panda Express,92020,San Diego County
32.825162,-116.901552,Panda Express,92021,San Diego County
32.796496,-116.962443,Panda Express,92020,San Diego County
32.807400,-116.971287,Panda Express,92020,San Diego County
32.775722,-115.552370,Panda Express,92249,Imperial County
37.902562,-122.299139,Panda Express,94530,Contra Costa County
38.408500,-121.447227,Panda Express,95758,Sacramento County
38.437545,-121.405570,Panda Express,95758,Sacramento County
38.452530,-121.371109,Panda Express,95829,Sacramento County
38.423398,-121.360239,Panda Express,95829,Sacramento County
38.420356,-121.371756,Panda Express,95829,Sacramento County
37.830799,-122.280927,Panda Express,94608,Alameda County
33.067302,-117.262553,Panda Express,92024,San Diego County
34.163185,-118.521563,Panda Express,91316,Los Angeles County
33.132826,-117.061614,Panda Express,92025,San Diego County
33.069159,-117.068678,Panda Express,92025,San Diego County
33.103855,-117.074379,Panda Express,92025,San Diego County
33.127847,-117.093783,Panda Express,92025,San Diego County
38.663999,-121.222908,Panda Express,95662,Sacramento County
38.258196,-122.052710,Panda Express,94533,Solano County
38.271317,-122.024781,Panda Express,94533,Solano County
38.290176,-122.033732,Panda Express,94533,Solano County
38.649797,-121.163514,Panda Express,95630,Sacramento County
34.138864,-117.439589,Panda Express,92336,San Bernardino County
34.119984,-117.488798,Panda Express,91739,San Bernardino County
37.562709,-122.281130,Panda Express,94404,San Mateo County
33.710158,-117.953679,Panda Express,92708,Orange County
37.545232,-121.981823,Panda Express,94536,Alameda County
37.502562,-121.974999,Panda Express,94538,Alameda County
36.729802,-119.801057,Panda Express,93721,Fresno County
36.779846,-119.787328,Panda Express,93704,Fresno County
36.852322,-119.730423,Panda Express,93720,Fresno County
36.808465,-119.859401,Panda Express,93722,Fresno County
36.789630,-119.754069,Panda Express,93726,Fresno County
36.735783,-119.719229,Panda Express,93702,Fresno County
36.808464,-119.778546,Panda Express,93710,Fresno County
36.741970,-119.784729,Panda Express,93701,Fresno County
36.822995,-119.764057,Panda Express,93710,Fresno County
36.735714,-119.698133,Panda Express,93727,Fresno County
36.802078,-119.878487,Panda Express,93722,Fresno County
36.847614,-119.791028,Panda Express,93650,Fresno County
36.865782,-119.757031,Panda Express,93720,Fresno County
36.872672,-119.777762,Panda Express,93720,Fresno County
33.859298,-117.923179,Panda Express,92832,Orange County
33.877097,-117.960449,Panda Express,92833,Orange County
33.874780,-117.890200,Panda Express,92831,Orange County
33.877830,-117.889573,Panda Express,92831,Orange County
33.790180,-118.028725,Panda Express,92845,Orange County
33.872902,-118.306669,Panda Express,90248,Los Angeles County
37.003790,-121.551025,Panda Express,95020,Santa Clara County
34.146291,-118.259074,Panda Express,91210,Los Angeles County
34.149083,-118.246244,Panda Express,91210,Los Angeles County
34.143191,-118.258986,Panda Express,91210,Los Angeles County
34.154134,-118.243464,Panda Express,91203,Los Angeles County
34.442177,-119.830764,Panda Express,93111,Santa Barbara County
34.271883,-118.498483,Panda Express,91344,Los Angeles County
34.264536,-118.525775,Panda Express,91324,Los Angeles County
39.219267,-121.061503,Panda Express,95975,Nevada County
37.100004,-121.015790,Panda Express,95322,Merced County
36.328220,-119.672203,Panda Express,93202,Kings County
33.789452,-118.304579,Panda Express,90710,Los Angeles County
37.639340,-122.102592,Panda Express,94545,Alameda County
37.658969,-122.062396,Panda Express,94544,Alameda County
37.609730,-122.066414,Panda Express,94544,Alameda County
37.672272,-122.086293,Panda Express,94541,Alameda County
33.747532,-116.996323,Panda Express,92545,Riverside County
34.426621,-117.370914,Panda Express,92344,San Bernardino County
34.470335,-117.340799,Panda Express,92392,San Bernardino County
36.836544,-121.389847,Panda Express,95045,San Benito County
34.104279,-118.330284,Panda Express,90028,Los Angeles County
33.692969,-117.989047,Panda Express,92648,Orange County
33.741068,-116.216398,Panda Express,92201,Riverside County
33.714650,-116.226146,Panda Express,92201,Riverside County
33.932665,-118.326284,Panda Express,90303,Los Angeles County
33.944270,-118.325369,Panda Express,90047,Los Angeles County
33.945268,-118.364476,Panda Express,90304,Los Angeles County
33.977114,-118.370074,Panda Express,90056,Los Angeles County
33.728876,-117.788124,Panda Express,92782,Orange County
33.688204,-117.788837,Panda Express,92604,Orange County
33.699736,-117.835244,Panda Express,92606,Orange County
33.651185,-117.746747,Panda Express,92618,Orange County
33.648260,-117.840644,Panda Express,92617,Orange County
36.734950,-120.058097,Panda Express,93630,Fresno County
34.201324,-118.193775,Panda Express,91011,Los Angeles County
33.915326,-117.969220,Panda Express,90631,Orange County
32.872709,-117.237682,Panda Express,92122,San Diego County
32.779810,-117.009753,Panda Express,91942,San Diego County
32.765542,-117.025239,Panda Express,91942,San Diego County
33.707262,-116.271727,Panda Express,92201,Riverside County
34.111917,-117.760189,Panda Express,91767,Los Angeles County
33.561800,-117.631799,Panda Express,92694,Orange County
37.891441,-122.124366,Panda Express,94549,Contra Costa County
33.492069,-117.697067,Panda Express,92629,Orange County
33.696672,-117.332584,Panda Express,92532,Riverside County
33.668630,-117.264359,Panda Express,92587,Riverside County
33.620178,-117.700620,Panda Express,92637,Orange County
34.276573,-118.397531,Panda Express,91342,Los Angeles County
33.850442,-118.141546,Panda Express,90712,Los Angeles County
34.704177,-118.165172,Panda Express,93534,Los Angeles County
34.689890,-118.172348,Panda Express,93534,Los Angeles County
34.690732,-118.094826,Panda Express,93534,Los Angeles County
34.660176,-118.146542,Panda Express,93534,Los Angeles County
33.893436,-118.352874,Panda Express,90260,Los Angeles County
34.985032,-118.947419,Panda Express,93243,Kern County
36.258433,-119.871985,Panda Express,93245,Kings County
38.875039,-121.303395,Panda Express,95648,Placer County
38.839163,-121.313154,Panda Express,95765,Placer County
37.691242,-121.773969,Panda Express,94566,Alameda County
37.694731,-121.746487,Panda Express,94566,Alameda County
34.661208,-120.457778,Panda Express,93436,Santa Barbara County
33.791737,-118.139056,Panda Express,90804,Los Angeles County
33.841512,-118.184560,Panda Express,90807,Los Angeles County
33.772837,-118.189615,Panda Express,90831,Los Angeles County
33.810752,-118.115897,Panda Express,90815,Los Angeles County
33.775440,-118.117122,Panda Express,90804,Los Angeles County
33.831200,-118.086889,Panda Express,90715,Los Angeles County
34.059995,-118.419764,Panda Express,90067,Los Angeles County
34.040455,-118.427607,Panda Express,90064,Los Angeles County
34.038049,-118.440908,Panda Express,90064,Los Angeles County
34.026020,-118.277342,Panda Express,90007,Los Angeles County
34.126330,-118.263414,Panda Express,91204,Los Angeles County
34.063862,-118.440526,Panda Express,90024,Los Angeles County
34.052241,-118.251706,Panda Express,90071,Los Angeles County
34.020629,-118.285059,Panda Express,90007,Los Angeles County
34.011624,-118.336770,Panda Express,90008,Los Angeles County
34.048496,-118.338396,Panda Express,90019,Los Angeles County
34.136252,-118.215126,Panda Express,90041,Los Angeles County
34.098262,-118.310780,Panda Express,90028,Los Angeles County
33.987677,-118.256514,Panda Express,90001,Los Angeles County
34.050324,-118.254381,Panda Express,90071,Los Angeles County
34.084261,-118.326739,Panda Express,90038,Los Angeles County
33.953125,-118.291969,Panda Express,90044,Los Angeles County
34.018459,-118.283401,Panda Express,90007,Los Angeles County
37.057184,-120.821827,Panda Express,93635,Merced County
33.931910,-118.183302,Panda Express,90280,Los Angeles County
36.974532,-120.080404,Panda Express,93638,Madera County
33.878867,-118.396096,Panda Express,90266,Los Angeles County
37.796408,-121.191966,Panda Express,95336,San Joaquin County
37.786215,-121.253891,Panda Express,95336,San Joaquin County
37.871617,-122.509228,Panda Express,94920,Marin County
33.981351,-118.453430,Panda Express,90292,Los Angeles County
37.994970,-122.106620,Panda Express,94553,Contra Costa County
39.144747,-121.591194,Panda Express,95901,Yuba County
33.684021,-117.175524,Panda Express,92584,Riverside County
37.318921,-120.499148,Panda Express,95348,Merced County
37.317256,-120.456034,Panda Express,95348,Merced County
37.433329,-121.899847,Panda Express,95035,Santa Clara County
33.975123,-117.556281,Panda Express,91752,Riverside County
33.585289,-117.659959,Panda Express,92692,Orange County
33.561408,-117.669686,Panda Express,92694,Orange County
33.653277,-117.647200,Panda Express,92630,Orange County
37.667908,-121.029704,Panda Express,95350,Stanislaus County
37.677947,-120.938791,Panda Express,95355,Stanislaus County
37.688308,-121.049917,Panda Express,95356,Stanislaus County
37.699935,-121.021566,Panda Express,95356,Stanislaus County
37.653297,-120.957524,Panda Express,95354,Stanislaus County
34.140361,-117.991426,Panda Express,91016,Los Angeles County
26.216726,-98.370937,Panda Express,78572,Hidalgo County
34.088449,-117.693897,Panda Express,91763,San Bernardino County
34.036971,-118.086304,Panda Express,91755,Los Angeles County
34.039467,-118.143272,Panda Express,90022,Los Angeles County
34.278841,-118.894468,Panda Express,91360,Ventura County
33.937085,-117.278568,Panda Express,92553,Riverside County
33.890276,-117.209392,Panda Express,92551,Riverside County
33.937310,-117.178509,Panda Express,92553,Riverside County
37.114264,-121.639019,Panda Express,95046,Santa Clara County
37.150632,-121.655092,Panda Express,95037,Santa Clara County
37.391204,-122.095291,Panda Express,94040,Santa Clara County
33.555231,-117.197974,Panda Express,92563,Riverside County
33.551448,-117.140411,Panda Express,92563,Riverside County
38.283893,-122.274749,Panda Express,94559,Napa County
32.675313,-117.097504,Panda Express,91950,San Diego County
32.687883,-117.077098,Panda Express,91950,San Diego County
37.552548,-122.047737,Panda Express,94555,Alameda County
34.189940,-118.933249,Panda Express,91320,Ventura County
33.614172,-117.873021,Panda Express,92625,Orange County
38.643660,-121.383229,Panda Express,95821,Sacramento County
34.239400,-118.482316,Panda Express,91343,Los Angeles County
34.167136,-118.375981,Panda Express,91601,Los Angeles County
34.257367,-118.504159,Panda Express,91343,Los Angeles County
34.235663,-118.527963,Panda Express,91325,Los Angeles County
34.235613,-118.534516,Panda Express,91325,Los Angeles County
33.919718,-118.072835,Panda Express,90650,Los Angeles County
38.104458,-122.572350,Panda Express,94945,Marin County
37.803533,-122.273198,Panda Express,94612,Alameda County
37.739932,-122.199571,Panda Express,94621,Alameda County
33.198901,-117.374665,Panda Express,92054,San Diego County
33.206148,-117.288362,Panda Express,92056,San Diego County
33.227617,-117.326057,Panda Express,92057,San Diego County
34.076170,-117.596698,Panda Express,91764,San Bernardino County
34.033825,-117.630267,Panda Express,91762,San Bernardino County
33.828406,-117.836165,Panda Express,92865,Orange County
34.173500,-119.160857,Panda Express,93041,Ventura County
34.221128,-119.158449,Panda Express,93036,Ventura County
34.046277,-118.524470,Panda Express,90402,Los Angeles County
34.273087,-118.426993,Panda Express,91331,Los Angeles County
33.798310,-116.301139,Panda Express,92211,Riverside County
33.721742,-116.393785,Panda Express,92260,Riverside County
33.721572,-116.364290,Panda Express,92210,Riverside County
33.866928,-116.582451,Panda Express,92262,Riverside County
33.798661,-116.519521,Panda Express,92234,Riverside County
34.556589,-118.045146,Panda Express,93552,Los Angeles County
34.598381,-118.147481,Panda Express,93551,Los Angeles County
34.607933,-118.147491,Panda Express,93551,Los Angeles County
34.630861,-118.219371,Panda Express,93551,Los Angeles County
37.425412,-122.146676,Panda Express,94304,Santa Clara County
34.146139,-118.115184,Panda Express,91106,Los Angeles County
34.142101,-118.132105,Panda Express,91106,Los Angeles County
34.150323,-118.068816,Panda Express,91024,Los Angeles County
35.615037,-120.685864,Panda Express,93422,San Luis Obispo County
37.464296,-121.145075,Panda Express,95313,Stanislaus County
38.239671,-122.670969,Panda Express,94954,Sonoma County
34.002909,-118.088022,Panda Express,90660,Los Angeles County
33.983716,-118.097774,Panda Express,90660,Los Angeles County
37.990954,-122.308245,Panda Express,94806,Contra Costa County
38.015593,-121.890169,Panda Express,94565,Contra Costa County
38.706796,-120.831356,Panda Express,95619,El Dorado County
37.945277,-122.056257,Panda Express,94523,Contra Costa County
37.695820,-121.876815,Panda Express,94588,Alameda County
37.654080,-121.907799,Panda Express,94566,Alameda County
37.693589,-121.931216,Panda Express,94588,Alameda County
34.050451,-117.816769,Panda Express,91768,Los Angeles County
34.029596,-117.760185,Panda Express,91766,Los Angeles County
34.176068,-119.219186,Panda Express,93041,Ventura County
34.147967,-119.200398,Panda Express,93041,Ventura County
36.052326,-119.032235,Panda Express,93267,Tulare County
32.976591,-117.038517,Panda Express,92064,San Diego County
38.594139,-121.285072,Panda Express,95670,Sacramento County
34.112253,-117.534169,Panda Express,91739,San Bernardino County
34.106079,-117.528681,Panda Express,91739,San Bernardino County
34.106903,-117.611679,Panda Express,91730,San Bernardino County
34.078039,-117.558193,Panda Express,91764,San Bernardino County
33.800822,-116.388417,Panda Express,92276,Riverside County
33.785667,-116.406194,Panda Express,92270,Riverside County
33.636473,-117.590678,Panda Express,92688,Orange County
40.585946,-122.353962,Panda Express,96002,Shasta County
34.062831,-117.222417,Panda Express,92354,San Bernardino County
33.870758,-118.352844,Panda Express,90278,Los Angeles County
33.847451,-118.388202,Panda Express,90254,Los Angeles County
37.484226,-122.232477,Panda Express,94063,San Mateo County
34.072287,-117.370203,Panda Express,92316,San Bernardino County
37.933091,-122.329500,Panda Express,94804,Contra Costa County
33.903466,-117.475753,Panda Express,92503,Riverside County
33.907717,-117.457841,Panda Express,92503,Riverside County
33.889078,-117.324064,Panda Express,92508,Riverside County
33.979250,-117.371699,Panda Express,92501,Riverside County
33.916698,-117.453426,Panda Express,92503,Riverside County
38.804171,-121.272668,Panda Express,95765,Placer County
38.800571,-121.205147,Panda Express,95677,Placer County
38.348543,-122.719625,Panda Express,94928,Sonoma County
33.775247,-118.375742,Panda Express,90275,Los Angeles County
34.048077,-118.081849,Panda Express,91770,Los Angeles County
38.760228,-121.288699,Panda Express,95678,Placer County
38.748130,-121.255729,Panda Express,95661,Placer County
38.751305,-121.309169,Panda Express,95678,Placer County
38.730566,-121.272248,Panda Express,95661,Placer County
38.591933,-121.415538,Panda Express,95825,Sacramento County
38.599683,-121.427008,Panda Express,95825,Sacramento County
38.599272,-121.425879,Panda Express,95825,Sacramento County
38.568151,-121.485234,Panda Express,95818,Sacramento County
38.655688,-121.527249,Panda Express,95835,Sacramento County
38.640106,-121.500298,Panda Express,95834,Sacramento County
38.617623,-121.365074,Panda Express,95821,Sacramento County
38.662650,-121.344554,Panda Express,95841,Sacramento County
38.580077,-121.494858,Panda Express,95811,Sacramento County
38.567131,-121.427478,Panda Express,95819,Sacramento County
38.567131,-121.427478,Panda Express,95819,Sacramento County
38.496153,-121.435570,Panda Express,95824,Sacramento County
38.458347,-121.417245,Panda Express,95823,Sacramento County
36.716523,-121.656643,Panda Express,93906,Monterey County
36.699839,-121.618708,Panda Express,93905,Monterey County
36.759977,-121.665076,Panda Express,93907,Monterey County
34.092113,-117.294190,Panda Express,92401,San Bernardino County
34.065680,-117.293449,Panda Express,92408,San Bernardino County
37.636267,-122.420724,Panda Express,94066,San Mateo County
33.443344,-117.614503,Panda Express,92673,Orange County
33.020281,-117.074173,Panda Express,92128,San Diego County
32.750107,-117.163612,Panda Express,92103,San Diego County
32.937828,-117.100866,Panda Express,92129,San Diego County
32.987446,-117.076073,Panda Express,92128,San Diego County
32.770473,-117.148110,Panda Express,92108,San Diego County
32.800379,-117.238783,Panda Express,92109,San Diego County
32.697359,-117.117748,Panda Express,92113,San Diego County
32.752128,-117.206066,Panda Express,92110,San Diego County
32.730246,-117.191892,Panda Express,92101,San Diego County
32.676842,-117.159244,Panda Express,92118,San Diego County
32.954803,-117.231378,Panda Express,92014,San Diego County
32.807679,-117.115067,Panda Express,92123,San Diego County
32.937900,-117.231356,Panda Express,92130,San Diego County
32.760540,-117.069559,Panda Express,92115,San Diego County
32.714339,-117.161230,Panda Express,92101,San Diego County
32.873422,-117.210081,Panda Express,92122,San Diego County
32.715685,-117.161724,Panda Express,92101,San Diego County
32.749143,-117.072235,Panda Express,92115,San Diego County
32.769473,-117.169346,Panda Express,92108,San Diego County
32.912742,-117.148696,Panda Express,92126,San Diego County
32.831210,-117.130381,Panda Express,92111,San Diego County
32.869862,-117.115936,Panda Express,92126,San Diego County
32.701600,-117.205449,Panda Express,92135,San Diego County
34.112036,-117.828822,Panda Express,91773,Los Angeles County
37.783070,-122.432493,Panda Express,94115,San Francisco County
37.728458,-122.475603,Panda Express,94132,San Francisco County
37.763362,-122.458140,Panda Express,94114,San Francisco County
37.784161,-122.407607,Panda Express,94103,San Francisco County
33.803964,-116.972226,Panda Express,92583,Riverside County
37.334371,-121.880567,Panda Express,95112,Santa Clara County
37.290149,-121.991470,Panda Express,95130,Santa Clara County
37.383238,-121.896034,Panda Express,95131,Santa Clara County
37.266209,-121.833415,Panda Express,95136,Santa Clara County
37.340183,-121.842436,Panda Express,95122,Santa Clara County
37.304657,-121.862452,Panda Express,95125,Santa Clara County
37.330311,-121.811795,Panda Express,95122,Santa Clara County
37.270247,-121.905785,Panda Express,95118,Santa Clara County
37.397876,-121.873392,Panda Express,95131,Santa Clara County
37.415910,-121.955086,Panda Express,95134,Santa Clara County
37.299727,-121.771512,Panda Express,95148,Santa Clara County
37.322901,-121.993531,Panda Express,95129,Santa Clara County
37.331987,-121.900747,Panda Express,95113,Santa Clara County
37.340801,-121.906645,Panda Express,95110,Santa Clara County
37.248908,-121.804089,Panda Express,95119,Santa Clara County
37.250621,-121.863312,Panda Express,95123,Santa Clara County
37.711923,-122.162780,Panda Express,94577,Alameda County
37.702664,-122.124887,Panda Express,94578,Alameda County
35.252363,-120.688215,Panda Express,93405,San Luis Obispo County
35.293977,-120.672000,Panda Express,93405,San Luis Obispo County
33.135137,-117.164031,Panda Express,92078,San Diego County
33.137533,-117.178463,Panda Express,92078,San Diego County
33.140862,-117.158827,Panda Express,92078,San Diego County
37.538449,-122.300412,Panda Express,94403,San Mateo County
38.002900,-122.543872,Panda Express,94903,Marin County
37.777690,-121.971317,Panda Express,94583,Contra Costa County
32.545365,-117.039218,Panda Express,92173,San Diego County
36.706795,-119.572320,Panda Express,93616,Fresno County
33.760930,-117.890220,Panda Express,92706,Orange County
33.718703,-117.885448,Panda Express,92707,Orange County
33.759648,-117.834699,Panda Express,92866,Orange County
33.776664,-117.867517,Panda Express,92706,Orange County
34.454476,-119.746414,Panda Express,93110,Santa Barbara County
34.418863,-119.698925,Panda Express,93101,Santa Barbara County
34.411566,-119.844109,Panda Express,93111,Santa Barbara County
37.390416,-121.969036,Panda Express,95054,Santa Clara County
37.323413,-121.945895,Panda Express,95128,Santa Clara County
37.388177,-121.983480,Panda Express,94089,Santa Clara County
34.371185,-118.515124,Panda Express,91321,Los Angeles County
34.403302,-118.551803,Panda Express,91381,Los Angeles County
34.426104,-118.538335,Panda Express,91350,Los Angeles County
34.414502,-118.502402,Panda Express,91350,Los Angeles County
34.405132,-118.465834,Panda Express,91351,Los Angeles County
34.442588,-118.574007,Panda Express,91354,Los Angeles County
36.962479,-122.044049,Panda Express,95064,Santa Cruz County
34.921658,-120.432788,Panda Express,93458,Santa Barbara County
34.027630,-118.500626,Panda Express,90403,Los Angeles County
34.343335,-119.079976,Panda Express,93066,Ventura County
38.419176,-122.713347,Panda Express,95405,Sonoma County
38.439826,-122.717398,Panda Express,95405,Sonoma County
38.461967,-122.717428,Panda Express,95405,Sonoma County
38.429105,-122.741397,Panda Express,95401,Sonoma County
32.838920,-116.982421,Panda Express,92071,San Diego County
36.618971,-121.842172,Panda Express,93955,Monterey County
36.576302,-119.625682,Panda Express,93662,Fresno County
34.157447,-118.437903,Panda Express,91423,Los Angeles County
34.151264,-118.449985,Panda Express,91403,Los Angeles County
34.281390,-118.793855,Panda Express,93065,Ventura County
34.284767,-118.717921,Panda Express,93063,Ventura County
34.271487,-118.784634,Panda Express,93065,Ventura County
32.995900,-117.259690,Panda Express,92075,San Diego County
37.973809,-120.367695,Panda Express,95370,Tuolumne County
36.985738,-121.964745,Panda Express,95010,Santa Cruz County
34.043550,-118.032532,Panda Express,91733,Los Angeles County
33.952236,-118.185469,Panda Express,90280,Los Angeles County
33.952842,-118.163966,Panda Express,90280,Los Angeles County
34.111574,-118.150262,Panda Express,91030,Los Angeles County
37.423202,-122.170192,Panda Express,94305,Santa Clara County
38.048062,-121.372685,Panda Express,95209,San Joaquin County
38.037231,-121.261576,Panda Express,95210,San Joaquin County
37.998112,-121.315129,Panda Express,95207,San Joaquin County
38.020744,-121.319952,Panda Express,95210,San Joaquin County
34.135761,-118.361727,Panda Express,91608,Los Angeles County
38.243015,-122.017584,Panda Express,94533,Solano County
34.259684,-118.312211,Panda Express,91040,Los Angeles County
37.356609,-122.018885,Panda Express,94087,Santa Clara County
33.481455,-117.096505,Panda Express,92591,Riverside County
33.526231,-117.157768,Panda Express,92591,Riverside County
34.201276,-118.868084,Panda Express,91360,Ventura County
34.185003,-118.894256,Panda Express,91360,Ventura County
34.187529,-118.888544,Panda Express,91360,Ventura County
33.804945,-118.328021,Panda Express,90717,Los Angeles County
33.831153,-118.347415,Panda Express,90503,Los Angeles County
33.811241,-118.349504,Panda Express,90505,Los Angeles County
33.837732,-118.354045,Panda Express,90503,Los Angeles County
37.754930,-121.466662,Panda Express,95376,San Joaquin County
39.326219,-120.206505,Panda Express,96146,Placer County
36.226167,-119.329272,Panda Express,93274,Tulare County
37.522634,-120.881088,Panda Express,95382,Stanislaus County
34.136091,-118.353993,Panda Express,91608,Los Angeles County
34.136091,-118.353993,Panda Express,91608,Los Angeles County
34.137400,-118.356819,Panda Express,91608,Los Angeles County
34.138895,-118.361919,Panda Express,91608,Los Angeles County
34.093011,-117.670026,Panda Express,91786,San Bernardino County
38.363152,-121.968441,Panda Express,95688,Solano County
34.413338,-118.557084,Panda Express,91355,Los Angeles County
34.421720,-118.585548,Panda Express,91355,Los Angeles County
34.418050,-118.581439,Panda Express,91355,Los Angeles County
38.138928,-122.234283,Panda Express,94589,Solano County
38.134790,-122.220947,Panda Express,94591,Solano County
34.172273,-118.447780,Panda Express,91411,Los Angeles County
34.221550,-118.466412,Panda Express,91343,Los Angeles County
34.208412,-118.509125,Panda Express,91406,Los Angeles County
34.258878,-119.210296,Panda Express,93003,Ventura County
34.267019,-119.250036,Panda Express,93003,Ventura County
34.511389,-117.399397,Panda Express,92392,San Bernardino County
34.470573,-117.349083,Panda Express,92392,San Bernardino County
34.521520,-117.323799,Panda Express,92395,San Bernardino County
36.346792,-119.296907,Panda Express,93235,Tulare County
36.292763,-119.313374,Panda Express,93277,Tulare County
33.200125,-117.244932,Panda Express,92083,San Diego County
33.169957,-117.212116,Panda Express,92081,San Diego County
34.028231,-117.836141,Panda Express,91789,Los Angeles County
37.929364,-122.016211,Panda Express,94518,Contra Costa County
33.974651,-118.233727,Panda Express,90001,Los Angeles County
36.916851,-121.777295,Panda Express,95019,Santa Cruz County
34.034402,-117.912950,Panda Express,91744,Los Angeles County
34.069988,-117.927752,Panda Express,91790,Los Angeles County
34.193580,-118.626132,Panda Express,91303,Los Angeles County
34.188661,-118.642527,Panda Express,91367,Los Angeles County
38.555965,-121.551920,Panda Express,95605,Yolo County
38.590898,-121.555338,Panda Express,95605,Yolo County
34.146585,-118.838272,Panda Express,91362,Ventura County
33.746869,-118.015189,Panda Express,92647,Orange County
33.939001,-118.044536,Panda Express,90670,Los Angeles County
33.945607,-117.996924,Panda Express,90603,Los Angeles County
33.596862,-117.243414,Panda Express,92595,Riverside County
38.526458,-122.787847,Panda Express,95492,Sonoma County
38.670035,-121.727963,Panda Express,95776,Yolo County
34.158346,-118.635751,Panda Express,91367,Los Angeles County
33.888755,-117.810457,Panda Express,92886,Orange County
34.033847,-117.073622,Panda Express,92373,San Bernardino County
34.172943,-116.469505,Panda Express,92284,San Bernardino County
39.791698,-105.109438,Panda Express,80002,Jefferson County
39.739925,-104.852032,Panda Express,80010,Arapahoe County
39.712834,-104.821314,Panda Express,80012,Arapahoe County
39.638755,-104.792013,Panda Express,80015,Arapahoe County
39.769897,-104.783665,Panda Express,80011,Arapahoe County
39.617711,-104.812607,Panda Express,80015,Arapahoe County
40.047480,-105.220838,Panda Express,80301,Boulder County
40.013101,-105.268623,Panda Express,80305,Boulder County
39.942905,-104.799541,Panda Express,80601,Adams County
38.904118,-104.774040,Panda Express,80918,El Paso County
38.896761,-104.852748,Panda Express,80907,El Paso County
38.803783,-104.818633,Panda Express,80903,El Paso County
38.872423,-104.717326,Panda Express,80922,El Paso County
38.792382,-104.757805,Panda Express,80910,El Paso County
38.937802,-104.760410,Panda Express,80920,El Paso County
38.904197,-104.773743,Panda Express,80918,El Paso County
38.852009,-104.775641,Panda Express,80909,El Paso County
39.749384,-105.009575,Panda Express,80202,Denver County
39.717958,-104.952114,Panda Express,80206,Denver County
39.759270,-104.919774,Panda Express,80207,Denver County
39.838286,-104.676118,Panda Express,80249,Denver County
39.838848,-104.671815,Panda Express,80249,Denver County
39.652920,-104.877696,Panda Express,80231,Denver County
39.662561,-104.987372,Panda Express,80110,Arapahoe County
39.884890,-105.020212,Panda Express,80031,Adams County
40.571720,-105.082779,Panda Express,80526,Larimer County
40.523285,-105.078861,Panda Express,80525,Larimer County
38.739943,-104.733874,Panda Express,80911,El Paso County
40.394683,-104.752833,Panda Express,80620,Weld County
39.542615,-104.938918,Panda Express,80126,Douglas County
39.734984,-105.159162,Panda Express,80215,Jefferson County
39.740649,-105.081549,Panda Express,80214,Jefferson County
39.706795,-105.082030,Panda Express,80226,Jefferson County
39.619444,-105.017057,Panda Express,80120,Arapahoe County
39.638670,-105.084227,Panda Express,80235,Jefferson County
39.546247,-104.888311,Panda Express,80124,Douglas County
39.546247,-104.888311,Panda Express,80124,Douglas County
40.151858,-105.095852,Panda Express,80501,Boulder County
40.204316,-105.102551,Panda Express,80501,Boulder County
40.153714,-105.130864,Panda Express,80501,Boulder County
40.406949,-105.044836,Panda Express,80528,Larimer County
39.514872,-104.764629,Panda Express,80134,Douglas County
38.232742,-104.662446,Panda Express,81003,Pueblo County
39.957701,-105.169244,Panda Express,80027,Boulder County
39.914265,-104.975665,Panda Express,80241,Adams County
39.826619,-105.053569,Panda Express,80003,Jefferson County
39.879215,-105.092329,Panda Express,80021,Jefferson County
41.247180,-73.009992,Panda Express,06477,New Haven County
41.392682,-73.453592,Panda Express,06810,Fairfield County
41.476226,-71.960640,Panda Express,06339,New London County
41.053236,-73.536242,Panda Express,06901,Fairfield County
41.801025,-72.241209,Panda Express,06268,Tolland County
41.230061,-73.220014,Panda Express,06606,Fairfield County
38.890320,-77.031959,Panda Express,20004,District of Columbia
38.928920,-77.032670,Panda Express,20010,District of Columbia
38.884180,-77.026004,Panda Express,20004,District of Columbia
39.630210,-75.662930,Panda Express,19701,New Castle County
39.446590,-75.735250,Panda Express,19709,New Castle County
28.665910,-81.359764,Panda Express,32701,Seminole County
28.652480,-81.468421,Panda Express,32714,Seminole County
26.535381,-80.090402,Panda Express,33426,Palm Beach County
27.937677,-82.263622,Panda Express,33594,Hillsborough County
27.929820,-82.323018,Panda Express,33511,Hillsborough County
27.960776,-82.727140,Panda Express,33764,Pinellas County
26.275669,-80.201889,Panda Express,33063,Broward County
26.047931,-80.251483,Panda Express,33024,Broward County
29.184438,-81.078598,Panda Express,32114,Volusia County
25.456449,-80.475256,Panda Express,33034,Miami-Dade County
26.607594,-81.811447,Panda Express,33966,Lee County
30.440824,-86.638825,Panda Express,32544,Okaloosa County
29.644890,-82.350399,Panda Express,32603,Alachua County
29.639133,-82.343612,Panda Express,32603,Alachua County
29.623165,-82.377091,Panda Express,32608,Alachua County
29.659096,-82.406807,Panda Express,32607,Alachua County
30.138426,-81.547372,Panda Express,32258,Duval County
30.287545,-81.462599,Panda Express,32224,Duval County
30.481169,-81.636938,Panda Express,32218,Duval County
30.254509,-81.535912,Panda Express,32216,Duval County
30.303124,-81.758982,Panda Express,32205,Duval County
30.196620,-81.825862,Panda Express,32222,Duval County
30.218800,-81.554527,Panda Express,32257,Duval County
28.342193,-81.419348,Panda Express,34741,Osceola County
28.328682,-81.471666,Panda Express,34741,Osceola County
30.179390,-82.680190,Panda Express,32024,Columbia County
28.934927,-81.936999,Panda Express,32159,Lake County
28.094783,-81.973630,Panda Express,33805,Polk County
27.916797,-82.763925,Panda Express,33771,Pinellas County
28.123254,-80.671748,Panda Express,32935,Brevard County
28.035633,-80.668036,Panda Express,32907,Brevard County
25.701218,-80.368314,Panda Express,33173,Miami-Dade County
25.761141,-80.379929,Panda Express,33174,Miami-Dade County
25.656332,-80.412378,Panda Express,33186,Miami-Dade County
25.769457,-80.338305,Panda Express,33174,Miami-Dade County
25.721130,-80.279892,Panda Express,33146,Miami-Dade County
25.978744,-80.310248,Panda Express,33027,Broward County
26.142510,-81.793469,Panda Express,34102,Collier County
30.514993,-86.461183,Panda Express,32542,Okaloosa County
25.925787,-80.171776,Panda Express,33162,Miami-Dade County
29.155258,-82.181007,Panda Express,34474,Marion County
30.186985,-81.735578,Panda Express,32073,Clay County
30.140103,-81.770274,Panda Express,32073,Clay County
28.457537,-81.390114,Panda Express,32809,Orange County
28.553447,-81.349324,Panda Express,32803,Orange County
28.511064,-81.459194,Panda Express,32811,Orange County
28.490897,-81.428157,Panda Express,32839,Orange County
28.476199,-81.462533,Panda Express,32811,Orange County
28.467985,-81.309813,Panda Express,32812,Orange County
28.554405,-81.206581,Panda Express,32826,Orange County
28.452696,-81.470660,Panda Express,32819,Orange County
28.431091,-81.305139,Panda Express,32827,Orange County
27.998514,-80.638270,Panda Express,32907,Brevard County
29.475604,-81.213826,Panda Express,32164,Flagler County
30.239721,-85.911664,Panda Express,32413,Bay County
26.007912,-80.355104,Panda Express,33028,Broward County
30.480610,-87.215184,Panda Express,32504,Escambia County
30.531668,-87.223091,Panda Express,32514,Escambia County
30.350235,-87.272521,Panda Express,32508,Escambia County
27.835759,-82.681654,Panda Express,33714,Pinellas County
26.120602,-80.254614,Panda Express,33324,Broward County
27.311324,-80.406457,Panda Express,34986,St. Lucie County
27.893668,-82.332340,Panda Express,33511,Hillsborough County
29.865400,-81.322968,Panda Express,32084,St. Johns County
28.800268,-81.331330,Panda Express,32771,Seminole County
27.240790,-82.478151,Panda Express,34238,Sarasota County
30.449082,-84.305343,Panda Express,32304,Leon County
30.480863,-84.236681,Panda Express,32308,Leon County
28.050926,-82.450729,Panda Express,33612,Hillsborough County
28.026029,-82.558940,Panda Express,33634,Hillsborough County
28.061150,-82.413147,Panda Express,33617,Hillsborough County
28.553367,-80.841735,Panda Express,32780,Brevard County
27.049945,-82.393975,Panda Express,34293,Sarasota County
26.672082,-80.202412,Panda Express,33411,Palm Beach County
28.522839,-81.587589,Panda Express,34787,Orange County
34.036502,-84.683482,Panda Express,30101,Cobb County
34.000713,-84.285267,Panda Express,30076,Fulton County
34.091604,-84.276052,Panda Express,30009,Fulton County
33.639614,-84.442770,Panda Express,30337,Fulton County
33.777997,-84.396203,Panda Express,30363,Fulton County
33.488728,-82.080343,Panda Express,30909,Richmond County
33.750442,-84.581197,Panda Express,30336,Fulton County
34.081163,-83.949427,Panda Express,30519,Gwinnett County
34.250726,-84.474636,Panda Express,30114,Cherokee County
32.541349,-84.949767,Panda Express,31909,Muscogee County
33.632061,-84.014627,Panda Express,30013,Rockdale County
34.180896,-84.132521,Panda Express,30041,Forsyth County
34.760923,-84.999414,Panda Express,30720,Whitfield County
33.731483,-84.737092,Panda Express,30135,Douglas County
33.955561,-84.132077,Panda Express,30096,Gwinnett County
33.676162,-84.454622,Panda Express,30344,Fulton County
31.822890,-81.599488,Panda Express,31301,Liberty County
33.889862,-84.749063,Panda Express,30141,Paulding County
34.037142,-84.589035,Panda Express,30144,Cobb County
33.998108,-84.020437,Panda Express,30043,Gwinnett County
33.967598,-84.023505,Panda Express,30046,Gwinnett County
33.979495,-84.006426,Panda Express,30046,Gwinnett County
33.826669,-84.097016,Panda Express,30087,DeKalb County
33.441303,-84.322033,Panda Express,30228,Henry County
32.900688,-83.688347,Panda Express,31204,Bibb County
33.900999,-84.478126,Panda Express,30067,Cobb County
33.984152,-84.426827,Panda Express,30068,Cobb County
33.563418,-84.324476,Panda Express,30260,Clayton County
33.396479,-84.744440,Panda Express,30265,Coweta County
33.949332,-84.232264,Panda Express,30071,Gwinnett County
33.397032,-84.597946,Panda Express,30277,Coweta County
32.105026,-81.252487,Panda Express,31322,Chatham County
33.560721,-84.414033,Panda Express,30274,Clayton County
33.908359,-84.378734,Panda Express,30328,Fulton County
32.004770,-81.112170,Panda Express,31406,Chatham County
33.887808,-84.487603,Panda Express,30080,Cobb County
33.876984,-84.012784,Panda Express,30078,Gwinnett County
32.406214,-81.769933,Panda Express,30458,Bulloch County
33.802773,-84.193374,Panda Express,30083,DeKalb County
34.073950,-84.165350,Panda Express,30005,Fulton County
33.846101,-84.254567,Panda Express,30345,DeKalb County
30.839805,-83.320281,Panda Express,31602,Lowndes County
32.618228,-83.672523,Panda Express,31028,Houston County
34.087487,-84.483778,Panda Express,30188,Cherokee County
34.114971,-84.513779,Panda Express,30189,Cherokee County
21.386693,-157.930319,Panda Express,96701,Honolulu County
21.324980,-158.024234,Panda Express,96706,Honolulu County
19.699137,-155.062466,Panda Express,96749,Hawaii County
21.294350,-157.854306,Panda Express,96814,Honolulu County
21.294750,-157.845849,Panda Express,96814,Honolulu County
21.297631,-157.837874,Panda Express,96814,Honolulu County
21.335311,-157.868766,Panda Express,96819,Honolulu County
21.279316,-157.829174,Panda Express,96815,Honolulu County
21.307775,-157.817821,Panda Express,96822,Honolulu County
21.285071,-157.709152,Panda Express,96825,Honolulu County
21.281723,-157.797390,Panda Express,96816,Honolulu County
21.345180,-157.927874,Panda Express,96818,Honolulu County
21.284040,-157.813980,Panda Express,96826,Honolulu County
20.889155,-156.470469,Panda Express,96793,Maui County
20.876360,-156.455059,Panda Express,96793,Maui County
19.711577,-155.892990,Panda Express,96740,Hawaii County
21.420231,-157.803037,Panda Express,96744,Honolulu County
21.420469,-157.803491,Panda Express,96744,Honolulu County
22.061800,-159.320733,Panda Express,96746,Kauai County
21.330201,-158.085804,Panda Express,96707,Honolulu County
21.349559,-158.064591,Panda Express,96707,Honolulu County
20.748838,-156.455284,Panda Express,96753,Maui County
20.884892,-156.681950,Panda Express,96761,Maui County
21.452925,-158.007721,Panda Express,96789,Honolulu County
21.399440,-157.973424,Panda Express,96782,Honolulu County
21.411119,-157.998840,Panda Express,96797,Honolulu County
21.400615,-158.007825,Panda Express,96797,Honolulu County
41.644044,-93.506717,Panda Express,50009,Polk County
42.022904,-93.645089,Panda Express,50010,Story County
42.512383,-92.434235,Panda Express,50613,Black Hawk County
42.023228,-91.627236,Panda Express,52402,Linn County
41.691091,-91.608263,Panda Express,52241,Johnson County
41.222904,-95.838010,Panda Express,51501,Pottawattamie County
41.630355,-93.697752,Panda Express,50310,Polk County
41.645619,-91.554396,Panda Express,52242,Johnson County
42.464489,-92.325425,Panda Express,50702,Black Hawk County
41.595479,-93.751554,Panda Express,50324,Polk County
41.595973,-93.752046,Panda Express,50324,Polk County
41.561505,-93.796245,Panda Express,50266,Polk County
43.487176,-111.984375,Panda Express,83427,Bonneville County
43.615329,-116.284013,Panda Express,83704,Ada County
43.603641,-116.200798,Panda Express,83706,Ada County
43.608309,-116.283813,Panda Express,83704,Ada County
43.612870,-116.202831,Panda Express,83706,Ada County
43.590424,-116.279714,Panda Express,83709,Ada County
43.632357,-116.642787,Panda Express,83605,Canyon County
42.910194,-112.467056,Panda Express,83201,Bannock County
47.700748,-116.779952,Panda Express,83815,Kootenai County
47.737070,-116.794150,Panda Express,83815,Kootenai County
43.665219,-116.279485,Panda Express,83703,Ada County
43.490195,-112.051283,Panda Express,83404,Bonneville County
46.398266,-116.999320,Panda Express,99179,Whitman County
43.618455,-116.354328,Panda Express,83713,Ada County
43.597901,-116.390981,Panda Express,83642,Ada County
43.596615,-116.513234,Panda Express,83687,Canyon County
43.551114,-116.572998,Panda Express,83651,Canyon County
42.591164,-114.480507,Panda Express,83328,Twin Falls County
41.949641,-88.031809,Panda Express,60101,DuPage County
42.169908,-88.335394,Panda Express,60156,McHenry County
41.757666,-88.207778,Panda Express,60504,DuPage County
41.768796,-88.206071,Panda Express,60504,DuPage County
41.852411,-88.340598,Panda Express,60510,Kane County
40.459461,-88.952309,Panda Express,61704,McLean County
41.700513,-88.124486,Panda Express,60565,DuPage County
41.722660,-88.038238,Panda Express,60517,DuPage County
41.155319,-87.850952,Panda Express,60915,Kankakee County
41.599131,-87.559168,Panda Express,60409,Cook County
42.107296,-88.293311,Panda Express,60118,Kane County
40.140274,-88.245202,Panda Express,61820,Champaign County
40.145309,-88.257955,Panda Express,61820,Champaign County
40.110416,-88.229210,Panda Express,61820,Champaign County
41.884539,-87.631022,Panda Express,60602,Cook County
41.880318,-87.640930,Panda Express,60606,Cook County
41.884601,-87.623654,Panda Express,60602,Cook County
41.677512,-87.663193,Panda Express,60643,Cook County
41.925120,-87.671017,Panda Express,60614,Cook County
41.881931,-87.626873,Panda Express,60602,Cook County
41.946456,-87.701957,Panda Express,60618,Cook County
41.877957,-87.633930,Panda Express,60603,Cook County
41.881974,-87.639867,Panda Express,60606,Cook County
41.875292,-87.627615,Panda Express,60603,Cook County
41.891534,-87.624149,Panda Express,60602,Cook County
41.994559,-87.714009,Panda Express,60659,Cook County
41.879401,-87.625196,Panda Express,60604,Cook County
41.713936,-87.784184,Panda Express,60415,Cook County
41.836797,-87.743734,Panda Express,60804,Cook County
41.586051,-87.719688,Panda Express,60478,Cook County
41.781956,-87.868794,Panda Express,60525,Cook County
41.645581,-87.737831,Panda Express,60445,Cook County
42.226188,-88.300264,Panda Express,60014,McHenry County
41.751570,-87.983529,Panda Express,60561,DuPage County
41.927164,-88.741707,Panda Express,60112,DeKalb County
41.953959,-88.723431,Panda Express,60112,DeKalb County
41.806330,-88.014659,Panda Express,60515,DuPage County
40.726791,-89.544174,Panda Express,61603,Peoria County
39.137268,-88.564647,Panda Express,62401,Effingham County
42.012670,-87.959835,Panda Express,60007,Cook County
38.596454,-89.975819,Panda Express,62208,St. Clair County
39.903195,-88.955314,Panda Express,62535,Macon County
42.105477,-87.811893,Panda Express,60062,Cook County
42.385719,-87.974500,Panda Express,60031,Lake County
41.866794,-87.882690,Panda Express,60104,Cook County
42.079954,-88.223600,Panda Express,60192,Cook County
42.074372,-88.140948,Panda Express,60169,Cook County
41.564097,-87.636440,Panda Express,60430,Cook County
42.234404,-88.834584,Panda Express,61008,Boone County
42.233015,-88.834521,Panda Express,61008,Boone County
41.805690,-88.734499,Panda Express,60556,DeKalb County
41.783493,-87.909004,Panda Express,60558,Cook County
41.783508,-87.906782,Panda Express,60558,Cook County
42.252977,-87.902432,Panda Express,60045,Lake County
42.252996,-87.900171,Panda Express,60045,Lake County
41.578006,-87.599515,Panda Express,60476,Cook County
41.579314,-87.599211,Panda Express,60476,Cook County
41.950737,-87.883980,Panda Express,60176,Cook County
41.950324,-87.881850,Panda Express,60176,Cook County
41.522178,-88.141935,Panda Express,60435,Will County
41.579340,-88.165004,Panda Express,60435,Will County
42.182487,-88.083184,Panda Express,60047,Lake County
41.839816,-88.010574,Panda Express,60515,DuPage County
41.860237,-88.007086,Panda Express,60148,DuPage County
42.365695,-89.018774,Panda Express,61115,Winnebago County
41.506228,-87.730071,Panda Express,60443,Cook County
42.361477,-88.267284,Panda Express,60050,McHenry County
38.313770,-88.945058,Panda Express,62864,Jefferson County
42.066261,-87.920508,Panda Express,60056,Cook County
41.792423,-88.128083,Panda Express,60540,DuPage County
42.050524,-87.839937,Panda Express,60714,Cook County
40.504853,-88.953308,Panda Express,61704,McLean County
41.955404,-87.807475,Panda Express,60634,Cook County
41.848939,-87.803793,Panda Express,60546,Cook County
41.907299,-87.909865,Panda Express,60164,Cook County
41.719791,-87.774195,Panda Express,60415,Cook County
38.592650,-89.953639,Panda Express,62269,St. Clair County
41.619382,-87.851822,Panda Express,60462,Cook County
41.619350,-87.839069,Panda Express,60462,Cook County
41.602410,-87.792772,Panda Express,60452,Cook County
41.701190,-88.313018,Panda Express,60538,Kendall County
42.139149,-88.017441,Panda Express,60074,Cook County
40.744209,-89.629729,Panda Express,61614,Peoria County
41.637130,-88.203109,Panda Express,60544,Will County
39.935083,-91.365941,Panda Express,62301,Adams County
42.267253,-88.978863,Panda Express,61108,Winnebago County
42.241362,-88.974962,Panda Express,61112,Winnebago County
42.051488,-87.997251,Panda Express,60005,Cook County
41.609355,-88.123227,Panda Express,60446,Will County
42.007962,-87.885429,Panda Express,60018,Cook County
42.379017,-88.073367,Panda Express,60046,Lake County
42.049617,-88.077602,Panda Express,60194,Cook County
42.024819,-88.142702,Panda Express,60169,Cook County
42.049411,-88.037710,Panda Express,60173,Cook County
42.040860,-87.756922,Panda Express,60077,Cook County
42.011342,-87.761618,Panda Express,60646,Cook County
41.985852,-88.340899,Panda Express,60177,Kane County
39.764176,-89.705805,Panda Express,62711,Sangamon County
41.920840,-88.275445,Panda Express,60174,Kane County
42.245427,-87.949819,Panda Express,60061,Lake County
42.256408,-87.947692,Panda Express,60061,Lake County
41.829880,-88.107855,Panda Express,60189,DuPage County
42.139854,-87.908664,Panda Express,60090,Cook County
42.079588,-87.755959,Panda Express,60091,Cook County
40.066557,-85.652700,Panda Express,46013,Madison County
39.763706,-86.351454,Panda Express,46123,Hendricks County
39.971378,-86.154614,Panda Express,46032,Hamilton County
38.325612,-85.765783,Panda Express,47129,Clark County
41.723267,-85.973005,Panda Express,46514,Elkhart County
41.072732,-85.201373,Panda Express,46808,Allen County
41.113882,-85.135302,Panda Express,46805,Allen County
41.135556,-85.161458,Panda Express,46825,Allen County
39.610281,-86.158212,Panda Express,46142,Johnson County
41.526105,-87.471014,Panda Express,46322,Lake County
39.914349,-86.137466,Panda Express,46240,Marion County
39.664905,-86.083472,Panda Express,46237,Marion County
39.778356,-86.165999,Panda Express,46204,Marion County
39.927160,-86.022230,Panda Express,46038,Hamilton County
39.896214,-86.228074,Panda Express,46268,Marion County
40.392471,-86.853783,Panda Express,47901,Tippecanoe County
41.470304,-87.308785,Panda Express,46410,Lake County
41.470753,-87.336284,Panda Express,46410,Lake County
41.700975,-86.894216,Panda Express,46360,LaPorte County
41.704900,-86.187443,Panda Express,46635,St. Joseph County
41.651090,-86.158399,Panda Express,46545,St. Joseph County
40.218512,-85.439680,Panda Express,47304,Delaware County
39.993885,-85.922965,Panda Express,46037,Hamilton County
40.036078,-85.993666,Panda Express,46062,Hamilton County
39.717865,-86.356623,Panda Express,46231,Marion County
41.550528,-87.175691,Panda Express,46368,Porter County
39.381649,-87.394447,Panda Express,47802,Vigo County
41.270126,-85.866666,Panda Express,46582,Kosciusko County
40.424750,-86.907976,Panda Express,47907,Tippecanoe County
37.553291,-97.244276,Panda Express,67037,Sedgwick County
39.125915,-94.832566,Panda Express,66109,Wyandotte County
38.958703,-95.243548,Panda Express,66044,Douglas County
38.924231,-95.260492,Panda Express,66046,Douglas County
38.956733,-94.727266,Panda Express,66215,Johnson County
39.196410,-96.585514,Panda Express,66506,Riley County
38.910575,-94.767676,Panda Express,66219,Johnson County
38.885421,-94.834634,Panda Express,66061,Johnson County
38.956307,-94.718020,Panda Express,66214,Johnson County
38.883991,-94.669812,Panda Express,66223,Johnson County
38.964244,-94.667924,Panda Express,66212,Johnson County
38.985264,-94.608138,Panda Express,64114,Jackson County
39.014875,-94.726855,Panda Express,66216,Johnson County
39.032143,-95.762087,Panda Express,66604,Shawnee County
37.678170,-97.201083,Panda Express,67206,Sedgwick County
37.733037,-97.462637,Panda Express,67223,Sedgwick County
36.987240,-86.455162,Panda Express,42101,Warren County
39.009446,-84.648070,Panda Express,41042,Boone County
39.066004,-84.699894,Panda Express,41048,Boone County
38.002361,-84.520348,Panda Express,40503,Fayette County
38.040654,-84.504928,Panda Express,40507,Fayette County
38.227337,-85.578239,Panda Express,40220,Jefferson County
30.418678,-91.141663,Panda Express,70808,East Baton Rouge Parish
30.443345,-91.186994,Panda Express,70801,East Baton Rouge Parish
32.549332,-93.709367,Panda Express,71111,Bossier Parish
31.058479,-93.229256,Panda Express,71459,Vernon Parish
32.525575,-92.713408,Panda Express,71245,Lincoln Parish
30.519220,-90.469788,Panda Express,70401,Tangipahoa Parish
30.004012,-90.171007,Panda Express,70002,Jefferson Parish
29.939444,-90.119943,Panda Express,70118,Orleans Parish
32.442470,-93.717827,Panda Express,71105,Caddo Parish
30.284768,-89.752811,Panda Express,70458,St. Tammany Parish
42.038146,-72.616116,Panda Express,01001,Hampden County
42.350474,-71.108484,Panda Express,02139,Middlesex County
42.348779,-71.081854,Panda Express,02116,Suffolk County
42.257267,-71.170112,Panda Express,02026,Norfolk County
42.405705,-71.093519,Panda Express,02145,Middlesex County
42.155040,-71.204272,Panda Express,02032,Norfolk County
38.988068,-76.544498,Panda Express,21401,Anne Arundel County
39.113911,-76.775818,Panda Express,20701,Howard County
39.356552,-76.703186,Panda Express,21215,Baltimore city
39.022318,-77.133812,Panda Express,20814,Montgomery County
39.002603,-77.097073,Panda Express,20814,Montgomery County
38.670136,-76.876006,Panda Express,20613,Prince George's County
38.889494,-76.852875,Panda Express,20743,Prince George's County
39.287781,-76.733491,Panda Express,21228,Baltimore County
38.769715,-76.887826,Panda Express,20735,Prince George's County
38.992835,-76.951579,Panda Express,20783,Prince George's County
39.217016,-76.864214,Panda Express,21044,Howard County
38.852254,-76.914846,Panda Express,20746,Prince George's County
39.375278,-77.409819,Panda Express,21703,Frederick County
39.151116,-77.206022,Panda Express,20877,Montgomery County
39.181936,-77.265456,Panda Express,20876,Montgomery County
38.941791,-76.903625,Panda Express,20784,Prince George's County
39.168484,-76.785555,Panda Express,20794,Howard County
38.902459,-76.844989,Panda Express,20785,Prince George's County
39.096565,-76.850378,Panda Express,20707,Prince George's County
38.900070,-76.793499,Panda Express,20721,Prince George's County
39.336332,-76.489235,Panda Express,21237,Baltimore County
38.613223,-76.927874,Panda Express,20601,Charles County
39.038905,-77.053642,Panda Express,20902,Montgomery County
43.634848,-70.337193,Panda Express,04106,Cumberland County
42.281238,-83.206214,Panda Express,48122,Wayne County
42.287714,-83.719463,Panda Express,48109,Washtenaw County
42.275450,-83.740717,Panda Express,48109,Washtenaw County
42.238601,-83.742982,Panda Express,48108,Washtenaw County
42.701584,-83.304757,Panda Express,48359,Oakland County
42.357402,-83.070181,Panda Express,48201,Wayne County
42.737525,-84.483834,Panda Express,48825,Ingham County
42.884465,-85.741904,Panda Express,49519,Kent County
42.829292,-86.093183,Panda Express,49424,Ottawa County
42.721102,-84.421720,Panda Express,48864,Ingham County
42.635038,-83.131636,Panda Express,48307,Oakland County
43.414013,-83.926209,Panda Express,48607,Saginaw County
43.476771,-83.970058,Panda Express,48604,Saginaw County
42.558319,-83.115122,Panda Express,48083,Oakland County
44.731942,-93.221998,Panda Express,55124,Dakota County
44.855580,-93.242326,Panda Express,55425,Hennepin County
44.853563,-93.242603,Panda Express,55425,Hennepin County
44.861097,-93.301807,Panda Express,55435,Hennepin County
45.058601,-93.313789,Panda Express,55430,Hennepin County
45.093293,-93.381932,Panda Express,55445,Hennepin County
44.834925,-93.157237,Panda Express,55121,Dakota County
44.882735,-93.324172,Panda Express,55435,Hennepin County
44.166948,-93.953119,Panda Express,56001,Blue Earth County
44.976085,-93.230909,Panda Express,55414,Hennepin County
44.977619,-93.235687,Panda Express,55414,Hennepin County
45.031621,-93.018124,Panda Express,55109,Ramsey County
44.095654,-93.245776,Panda Express,55060,Steele County
45.553481,-94.208027,Panda Express,56303,Stearns County
44.797512,-93.450060,Panda Express,55347,Hennepin County
44.893250,-93.080571,Panda Express,55118,Dakota County
44.925711,-92.955458,Panda Express,55125,Washington County
38.444095,-90.376393,Panda Express,63010,Jefferson County
39.026835,-94.255274,Panda Express,64014,Jackson County
36.669741,-93.225537,Panda Express,65616,Taney County
38.647021,-90.536644,Panda Express,63017,St. Louis County
38.667468,-90.589707,Panda Express,63304,St. Charles County
38.855640,-93.891167,Panda Express,64019,Johnson County
38.603129,-90.446529,Panda Express,63131,St. Louis County
38.509440,-90.680330,Panda Express,63069,Franklin County
38.214146,-90.388092,Panda Express,63019,Jefferson County
38.804338,-90.308083,Panda Express,63033,St. Louis County
38.514822,-90.342400,Panda Express,63125,St. Louis County
38.785958,-90.415708,Panda Express,63044,St. Louis County
39.047769,-94.356653,Panda Express,64057,Jackson County
37.072948,-94.477272,Panda Express,64801,Jasper County
39.177603,-94.486395,Panda Express,64117,Clay County
39.182645,-94.576641,Panda Express,64118,Clay County
39.246766,-94.648466,Panda Express,64154,Platte County
39.244546,-94.465931,Panda Express,64158,Clay County
38.908650,-94.410441,Panda Express,64081,Jackson County
38.593255,-90.505056,Panda Express,63021,St. Louis County
38.629439,-90.334892,Panda Express,63117,St. Louis County
38.552509,-90.407707,Panda Express,63127,St. Louis County
38.636065,-90.347330,Panda Express,63117,St. Louis County
38.503959,-90.332038,Panda Express,63125,St. Louis County
38.636459,-90.233040,Panda Express,63103,St. Louis city
38.776152,-90.624853,Panda Express,63376,St. Charles County
37.141617,-93.259067,Panda Express,65804,Greene County
37.214823,-93.261551,Panda Express,65806,Greene County
37.198002,-93.276199,Panda Express,65802,Greene County
39.788705,-94.805323,Panda Express,64506,Buchanan County
38.813338,-90.875353,Panda Express,63348,St. Charles County
32.339790,-90.071352,Panda Express,39232,Rankin County
31.708856,-89.148663,Panda Express,39440,Jones County
34.365009,-89.532402,Panda Express,38655,Lafayette County
33.462083,-88.845598,Panda Express,39759,Oktibbeha County
33.455379,-88.789967,Panda Express,39759,Oktibbeha County
45.784175,-108.555147,Panda Express,59102,Yellowstone County
45.827828,-108.470230,Panda Express,59105,Yellowstone County
46.615975,-112.015567,Panda Express,59601,Lewis and Clark County
48.232658,-114.328125,Panda Express,59932,Flathead County
35.745150,-78.872620,Panda Express,27502,Wake County
35.584468,-82.526345,Panda Express,28801,Buncombe County
34.651702,-77.343928,Panda Express,28547,Onslow County
35.167919,-80.875788,Panda Express,28209,Mecklenburg County
35.100971,-80.949788,Panda Express,28273,Mecklenburg County
35.309137,-83.184364,Panda Express,28779,Jackson County
36.002033,-78.942537,Panda Express,27701,Durham County
35.074263,-78.958416,Panda Express,28303,Cumberland County
36.054916,-79.903947,Panda Express,27407,Guilford County
35.608684,-77.364655,Panda Express,27834,Pitt County
35.442421,-80.858353,Panda Express,28031,Mecklenburg County
46.894131,-96.801567,Panda Express,58102,Cass County
46.854841,-96.861724,Panda Express,58103,Cass County
40.927590,-98.382140,Panda Express,68803,Hall County
40.815765,-96.702200,Panda Express,68508,Lancaster County
40.813743,-96.636730,Panda Express,68510,Lancaster County
41.291527,-96.178947,Panda Express,68116,Douglas County
41.234680,-96.191078,Panda Express,68130,Douglas County
41.229195,-96.138396,Panda Express,68144,Douglas County
41.315914,-96.023952,Panda Express,68104,Douglas County
41.260208,-96.021896,Panda Express,68132,Douglas County
41.171173,-96.022942,Panda Express,68157,Sarpy County
39.358795,-74.419705,Panda Express,08401,Atlantic County
39.378364,-74.432361,Panda Express,08401,Atlantic County
40.668735,-74.117489,Panda Express,07002,Hudson County
40.257001,-74.291149,Panda Express,07726,Monmouth County
40.120193,-74.310125,Panda Express,08527,Ocean County
40.726299,-74.038692,Panda Express,07310,Hudson County
40.811638,-74.012130,Panda Express,07022,Bergen County
40.549789,-74.425303,Panda Express,07080,Middlesex County
40.688320,-74.308098,Panda Express,07033,Union County
35.135275,-106.610608,Panda Express,87107,Bernalillo County
35.049611,-106.618117,Panda Express,87106,Bernalillo County
35.112746,-106.701821,Panda Express,87104,Bernalillo County
35.080848,-106.614029,Panda Express,87106,Bernalillo County
35.026226,-106.714044,Panda Express,87105,Bernalillo County
35.136825,-106.710582,Panda Express,87104,Bernalillo County
35.198194,-106.690803,Panda Express,87114,Bernalillo County
35.108965,-106.570831,Panda Express,87110,Bernalillo County
35.175029,-106.577551,Panda Express,87113,Bernalillo County
35.086491,-106.532307,Panda Express,87112,Bernalillo County
35.130425,-106.536621,Panda Express,87111,Bernalillo County
35.318150,-106.575691,Panda Express,87004,Sandoval County
36.750804,-108.158619,Panda Express,87402,San Juan County
32.285016,-106.751100,Panda Express,88001,Doa Ana County
34.815495,-106.764181,Panda Express,87031,Valencia County
35.243890,-106.697110,Panda Express,87114,Bernalillo County
35.641000,-106.012013,Panda Express,87507,Santa Fe County
35.692766,-105.948276,Panda Express,87501,Santa Fe County
35.969130,-114.856201,Panda Express,89002,Clark County
39.110114,-119.778027,Panda Express,89705,Douglas County
36.040107,-114.980995,Panda Express,89015,Clark County
36.063952,-115.040639,Panda Express,89014,Clark County
36.062943,-115.040465,Panda Express,89014,Clark County
36.041386,-115.046971,Panda Express,89074,Clark County
36.020560,-115.083499,Panda Express,89074,Clark County
36.000345,-115.103686,Panda Express,89052,Clark County
36.060034,-115.062581,Panda Express,89014,Clark County
36.013474,-114.963386,Panda Express,89002,Clark County
36.065797,-115.036462,Panda Express,89014,Clark County
36.118343,-115.338821,Panda Express,89135,Clark County
36.158754,-115.334786,Panda Express,89144,Clark County
36.158604,-115.205577,Panda Express,89107,Clark County
36.013131,-115.136168,Panda Express,89183,Clark County
36.151935,-115.111507,Panda Express,89104,Clark County
36.192702,-115.304296,Panda Express,89134,Clark County
36.149182,-115.242914,Panda Express,89146,Clark County
36.145355,-115.065234,Panda Express,89110,Clark County
36.200478,-115.196792,Panda Express,89108,Clark County
36.142081,-115.118925,Panda Express,89104,Clark County
36.127616,-115.168036,Panda Express,89109,Clark County
36.115390,-115.102781,Panda Express,89121,Clark County
36.120999,-115.170448,Panda Express,89109,Clark County
36.119898,-115.169863,Panda Express,89109,Clark County
36.108809,-115.169776,Panda Express,89109,Clark County
36.107318,-115.172791,Panda Express,89109,Clark County
36.102368,-115.172599,Panda Express,89109,Clark County
36.119098,-115.137757,Panda Express,89169,Clark County
36.071396,-115.090502,Panda Express,89120,Clark County
36.089926,-115.172614,Panda Express,89119,Clark County
36.170219,-115.197459,Panda Express,89107,Clark County
36.115303,-115.197912,Panda Express,89103,Clark County
36.171915,-115.139974,Panda Express,89101,Clark County
36.172090,-115.140399,Panda Express,89101,Clark County
36.144722,-115.203727,Panda Express,89102,Clark County
36.033985,-115.205035,Panda Express,89139,Clark County
36.101038,-115.206304,Panda Express,89103,Clark County
36.249104,-115.241590,Panda Express,89130,Clark County
36.112671,-115.063879,Panda Express,89122,Clark County
36.095117,-115.297196,Panda Express,89147,Clark County
36.100362,-115.050846,Panda Express,89122,Clark County
36.264343,-115.256603,Panda Express,89130,Clark County
36.238767,-115.223795,Panda Express,89130,Clark County
36.275026,-115.206954,Panda Express,89031,Clark County
36.069197,-115.172566,Panda Express,89119,Clark County
36.281243,-115.287672,Panda Express,89149,Clark County
36.062945,-115.242481,Panda Express,89113,Clark County
36.125571,-115.245736,Panda Express,89146,Clark County
36.053905,-115.172176,Panda Express,89123,Clark County
36.196331,-115.258625,Panda Express,89128,Clark County
36.164197,-115.290342,Panda Express,89145,Clark County
36.158762,-115.309834,Panda Express,89144,Clark County
35.015765,-114.645044,Panda Express,86426,Mohave County
35.163138,-114.573370,Panda Express,86429,Mohave County
36.198960,-115.118548,Panda Express,89030,Clark County
36.217577,-115.120787,Panda Express,89030,Clark County
36.195677,-115.189877,Panda Express,89108,Clark County
36.239869,-115.118893,Panda Express,89030,Clark County
36.198960,-115.118548,Panda Express,89030,Clark County
36.292333,-115.183222,Panda Express,89085,Clark County
36.212465,-115.990220,Panda Express,89048,Nye County
35.617085,-115.387734,Panda Express,89019,Clark County
39.505849,-119.798521,Panda Express,89509,Washoe County
39.498889,-119.825391,Panda Express,89509,Washoe County
39.536824,-119.838328,Panda Express,89503,Washoe County
39.602402,-119.709103,Panda Express,89441,Washoe County
39.539053,-119.715534,Panda Express,89431,Washoe County
40.862845,-73.901541,Panda Express,10468,Bronx County
40.631980,-73.947880,Panda Express,11210,Kings County
40.691900,-73.988090,Panda Express,11201,Kings County
43.154761,-76.123103,Panda Express,13212,Onondaga County
40.739014,-73.888252,Panda Express,11373,Queens County
40.711500,-73.859300,Panda Express,11374,Queens County
40.646982,-73.786512,Panda Express,11422,Queens County
42.750553,-73.763817,Panda Express,12110,Albany County
40.765642,-73.957645,Panda Express,10021,New York County
40.750010,-73.994640,Panda Express,10119,New York County
40.756245,-73.970116,Panda Express,10154,New York County
43.131100,-77.635681,Panda Express,14611,Monroe County
43.047821,-76.237709,Panda Express,13219,Onondaga County
40.921358,-73.861352,Panda Express,10704,Westchester County
41.075623,-81.512434,Panda Express,44308,Summit County
41.468716,-82.019296,Panda Express,44011,Lorain County
41.378260,-83.640969,Panda Express,43402,Wood County
39.143641,-84.621288,Panda Express,45211,Hamilton County
40.049812,-82.915631,Panda Express,43224,Franklin County
39.984332,-83.150721,Panda Express,43228,Franklin County
40.003935,-83.008650,Panda Express,43210,Franklin County
40.064239,-82.863253,Panda Express,43230,Franklin County
39.661151,-84.105375,Panda Express,45440,Montgomery County
39.878928,-83.042806,Panda Express,43123,Franklin County
41.612114,-83.700783,Panda Express,43614,Lucas County
39.338853,-84.278894,Panda Express,45034,Warren County
39.301847,-84.314750,Panda Express,45249,Hamilton County
41.676315,-81.310804,Panda Express,44060,Lake County
40.083271,-82.427957,Panda Express,43055,Licking County
40.860242,-81.432128,Panda Express,44718,Stark County
41.377674,-81.734287,Panda Express,44129,Cuyahoga County
39.985790,-82.787522,Panda Express,43004,Franklin County
41.479957,-82.683022,Panda Express,44870,Erie County
41.502452,-81.536647,Panda Express,44118,Cuyahoga County
39.352608,-84.361260,Panda Express,45069,Butler County
40.146512,-82.922292,Panda Express,43082,Delaware County
39.973267,-82.900546,Panda Express,43213,Franklin County
41.028198,-80.635300,Panda Express,44514,Mahoning County
36.065390,-95.777052,Panda Express,74012,Tulsa County
36.165390,-95.757800,Panda Express,74108,Tulsa County
35.728085,-97.460507,Panda Express,73034,Oklahoma County
34.629747,-98.492260,Panda Express,73505,Comanche County
35.435385,-97.402079,Panda Express,73110,Oklahoma County
35.349361,-97.496153,Panda Express,73160,Cleveland County
35.238269,-97.482264,Panda Express,73069,Cleveland County
35.182702,-97.499629,Panda Express,73072,Cleveland County
35.391635,-97.511035,Panda Express,73139,Oklahoma County
35.614876,-97.567060,Panda Express,73134,Oklahoma County
35.523051,-97.546238,Panda Express,73118,Oklahoma County
35.493268,-97.549729,Panda Express,73106,Oklahoma County
35.461497,-97.618747,Panda Express,73128,Canadian County
35.562854,-97.650056,Panda Express,73162,Oklahoma County
36.293036,-95.835113,Panda Express,74055,Tulsa County
35.384337,-96.920343,Panda Express,74804,Pottawatomie County
36.142544,-97.052338,Panda Express,74074,Payne County
33.756005,-97.134265,Panda Express,73459,Love County
36.011524,-95.886461,Panda Express,74133,Tulsa County
36.133305,-95.924326,Panda Express,74112,Tulsa County
36.050689,-96.005074,Panda Express,74132,Tulsa County
36.061000,-95.866536,Panda Express,74133,Tulsa County
44.629794,-123.083605,Panda Express,97322,Linn County
45.489826,-122.795166,Panda Express,97005,Washington County
45.459264,-122.789437,Panda Express,97008,Washington County
44.102282,-121.299447,Panda Express,97701,Deschutes County
45.257015,-122.702861,Panda Express,97013,Clackamas County
44.564700,-123.280637,Panda Express,97331,Benton County
44.585463,-123.256840,Panda Express,97331,Benton County
44.069312,-123.105467,Panda Express,97401,Lane County
44.051294,-123.140758,Panda Express,97401,Lane County
44.036890,-123.059734,Panda Express,97403,Lane County
45.505138,-122.441182,Panda Express,97030,Multnomah County
45.496189,-122.408424,Panda Express,97080,Multnomah County
45.454791,-122.579157,Panda Express,97266,Multnomah County
45.550303,-122.901966,Panda Express,97006,Washington County
45.505205,-122.957251,Panda Express,97113,Washington County
45.540140,-122.866563,Panda Express,97006,Washington County
45.007290,-123.000243,Panda Express,97303,Marion County
45.396922,-122.743798,Panda Express,97035,Clackamas County
45.228292,-123.174293,Panda Express,97127,Yamhill County
42.309190,-122.853600,Panda Express,97501,Jackson County
42.361699,-122.859420,Panda Express,97502,Jackson County
45.414393,-122.630669,Panda Express,97267,Clackamas County
44.024832,-116.939885,Panda Express,83619,Payette County
45.324293,-122.580361,Panda Express,97068,Clackamas County
45.518148,-122.559511,Panda Express,97216,Multnomah County
45.572700,-122.557286,Panda Express,97220,Multnomah County
45.515234,-122.789478,Panda Express,97225,Washington County
45.436495,-122.578883,Panda Express,97222,Clackamas County
45.577012,-122.681377,Panda Express,97217,Multnomah County
45.533355,-122.537631,Panda Express,97220,Multnomah County
45.563589,-122.599062,Panda Express,97218,Multnomah County
44.294530,-121.173909,Panda Express,97756,Deschutes County
43.230789,-123.370461,Panda Express,97495,Douglas County
44.913561,-122.997521,Panda Express,97302,Marion County
44.961445,-123.083630,Panda Express,97304,Polk County
45.401648,-122.281758,Panda Express,97009,Clackamas County
45.355509,-122.852325,Panda Express,97140,Washington County
44.080923,-123.041662,Panda Express,97401,Lane County
45.402571,-122.797632,Panda Express,97224,Washington County
45.448465,-122.782641,Panda Express,97223,Washington County
45.334444,-122.766934,Panda Express,97070,Clackamas County
40.237878,-76.935708,Panda Express,17011,Cumberland County
40.682300,-80.101192,Panda Express,15086,Allegheny County
39.954034,-75.168406,Panda Express,19102,Philadelphia County
39.992570,-75.097850,Panda Express,19134,Philadelphia County
40.031657,-75.100692,Panda Express,19124,Philadelphia County
40.137074,-74.964312,Panda Express,19053,Bucks County
40.805343,-77.860198,Panda Express,16802,Centre County
40.348207,-79.946689,Panda Express,15236,Allegheny County
18.456855,-66.537684,Panda Express,00617,Barceloneta Municipio
18.401685,-66.156304,Panda Express,00934,Guaynabo Municipio
18.401685,-66.156304,Panda Express,00934,Guaynabo Municipio
18.249020,-66.034034,Panda Express,00778,Gurabo Municipio
18.249020,-66.034034,Panda Express,00778,Gurabo Municipio
18.375482,-65.904409,Panda Express,00772,Loza Municipio
18.421780,-65.973409,Panda Express,00924,San Juan Municipio
18.440868,-66.011650,Panda Express,00915,San Juan Municipio
18.376724,-65.971273,Panda Express,00979,Carolina Municipio
18.415754,-65.977730,Panda Express,00924,San Juan Municipio
18.340230,-65.640899,Panda Express,00773,Luquillo Municipio
18.359196,-66.112305,Panda Express,00965,Guaynabo Municipio
18.407293,-66.801033,Panda Express,00659,Hatillo Municipio
18.138008,-65.818993,Panda Express,00791,Humacao Municipio
18.445555,-67.012512,Panda Express,00678,Quebradillas Municipio
18.005301,-66.644623,Panda Express,00716,Ponce Municipio
18.400035,-66.085989,Panda Express,00920,San Juan Municipio
18.369365,-66.053879,Panda Express,00925,San Juan Municipio
18.369365,-66.053879,Panda Express,00925,San Juan Municipio
18.451523,-66.069481,Panda Express,00907,San Juan Municipio
18.403232,-66.214939,Panda Express,00952,Toa Baja Municipio
41.726500,-71.479952,Panda Express,02886,Kent County
32.932774,-80.036996,Panda Express,29406,Charleston County
34.681500,-82.783161,Panda Express,29630,Pickens County
34.021663,-80.946575,Panda Express,29206,Richland County
32.875564,-80.018478,Panda Express,29405,Charleston County
44.320461,-96.788338,Panda Express,57006,Brookings County
43.514754,-96.776885,Panda Express,57105,Minnehaha County
43.543875,-96.660309,Panda Express,57103,Minnehaha County
36.592880,-82.258160,Panda Express,24201,Bristol city
35.038943,-85.150743,Panda Express,37421,Hamilton County
35.045940,-89.680113,Panda Express,38139,Shelby County
35.944470,-86.819610,Panda Express,37067,Williamson County
36.380479,-86.464117,Panda Express,37066,Sumner County
36.321007,-86.597992,Panda Express,37075,Sumner County
35.664988,-88.859202,Panda Express,38305,Madison County
36.550157,-82.493094,Panda Express,37664,Sullivan County
35.899685,-84.161437,Panda Express,37932,Knox County
35.957550,-83.927094,Panda Express,37902,Knox County
36.189117,-86.295726,Panda Express,37090,Wilson County
36.304025,-86.689928,Panda Express,37115,Davidson County
35.141150,-89.795768,Panda Express,38018,Shelby County
35.103213,-89.866200,Panda Express,38117,Shelby County
35.049940,-89.818117,Panda Express,38119,Shelby County
35.139530,-90.032570,Panda Express,38105,Shelby County
35.854381,-86.366006,Panda Express,37130,Rutherford County
35.855791,-86.430278,Panda Express,37129,Rutherford County
36.108089,-86.765596,Panda Express,37204,Davidson County
36.206050,-86.696661,Panda Express,37216,Davidson County
36.138550,-86.880610,Panda Express,37209,Davidson County
35.979879,-86.564592,Panda Express,37086,Rutherford County
35.742023,-86.940184,Panda Express,37174,Williamson County
32.640150,-99.462937,Panda Express,79601,Taylor County
27.753326,-98.061262,Panda Express,78332,Jim Wells County
33.129603,-96.647375,Panda Express,75013,Collin County
33.101699,-96.674718,Panda Express,75013,Collin County
35.188271,-101.866798,Panda Express,79102,Potter County
35.159039,-101.920715,Panda Express,79121,Randall County
32.749886,-97.097360,Panda Express,76011,Tarrant County
32.723260,-97.089441,Panda Express,76010,Tarrant County
32.658605,-97.069681,Panda Express,76018,Tarrant County
32.731962,-97.109991,Panda Express,76010,Tarrant County
32.684089,-97.132651,Panda Express,76015,Tarrant County
32.671023,-97.201739,Panda Express,76016,Tarrant County
32.667046,-97.134204,Panda Express,76015,Tarrant County
30.454017,-97.827094,Panda Express,78726,Travis County
30.418353,-97.701493,Panda Express,78727,Travis County
30.256241,-97.810720,Panda Express,78746,Travis County
30.169444,-97.796360,Panda Express,78748,Travis County
30.221984,-97.838785,Panda Express,78749,Travis County
30.403416,-97.672882,Panda Express,78753,Travis County
30.322117,-97.714533,Panda Express,78751,Travis County
30.353840,-97.732399,Panda Express,78757,Travis County
32.734088,-96.617033,Panda Express,75180,Dallas County
30.110827,-97.355099,Panda Express,78602,Bastrop County
29.805017,-94.982339,Panda Express,77521,Harris County
32.843053,-97.133315,Panda Express,76021,Tarrant County
32.679929,-97.463394,Panda Express,76116,Tarrant County
25.969700,-97.514801,Panda Express,78520,Cameron County
30.635407,-96.379239,Panda Express,77801,Brazos County
32.570356,-97.319453,Panda Express,76140,Tarrant County
32.517107,-97.351262,Panda Express,76028,Johnson County
32.984610,-96.909641,Panda Express,75007,Denton County
33.023038,-96.885134,Panda Express,75010,Denton County
32.604541,-96.949936,Panda Express,75104,Dallas County
30.500637,-97.828508,Panda Express,78613,Williamson County
30.519907,-97.833603,Panda Express,78613,Williamson County
32.341560,-97.405648,Panda Express,76059,Johnson County
30.618343,-96.323500,Panda Express,77840,Brazos County
30.613645,-96.338339,Panda Express,77840,Brazos County
30.316305,-95.474661,Panda Express,77304,Montgomery County
31.264032,-98.085106,Panda Express,76522,Coryell County
27.727765,-97.380093,Panda Express,78411,Nueces County
27.679885,-97.372768,Panda Express,78413,Nueces County
32.070233,-96.448136,Panda Express,75110,Navarro County
29.974278,-95.700376,Panda Express,77429,Harris County
32.930678,-96.821110,Panda Express,75244,Dallas County
32.955738,-96.818435,Panda Express,75254,Dallas County
32.987534,-96.841918,Panda Express,75287,Denton County
32.648044,-96.864977,Panda Express,75237,Dallas County
32.735960,-96.890720,Panda Express,75211,Dallas County
32.853469,-96.769162,Panda Express,75206,Dallas County
32.864861,-96.788474,Panda Express,75225,Dallas County
32.861187,-96.858749,Panda Express,75220,Dallas County
33.229577,-97.578934,Panda Express,76234,Wise County
33.197380,-97.091700,Panda Express,76208,Denton County
33.229936,-97.167531,Panda Express,76201,Denton County
31.929239,-106.441413,Panda Express,79924,El Paso County
31.774785,-106.374951,Panda Express,79925,El Paso County
31.746963,-106.318481,Panda Express,79936,El Paso County
31.756519,-106.265213,Panda Express,79936,El Paso County
31.777133,-106.503447,Panda Express,79902,El Paso County
31.835547,-106.547584,Panda Express,79912,El Paso County
31.703171,-106.318909,Panda Express,79907,El Paso County
31.881690,-106.420131,Panda Express,79924,El Paso County
32.881270,-97.101751,Panda Express,76039,Tarrant County
32.923540,-96.881500,Panda Express,75234,Dallas County
33.013520,-97.067655,Panda Express,75028,Denton County
33.064977,-97.080171,Panda Express,75077,Denton County
32.741983,-96.444585,Panda Express,75126,Kaufman County
32.713249,-97.282797,Panda Express,76105,Tarrant County
32.705033,-97.388818,Panda Express,76109,Tarrant County
32.677512,-97.395773,Panda Express,76133,Tarrant County
32.750563,-97.433193,Panda Express,76127,Tarrant County
32.633513,-97.370074,Panda Express,76123,Tarrant County
32.762471,-97.168950,Panda Express,76120,Tarrant County
33.141287,-96.848542,Panda Express,75034,Denton County
33.101152,-96.805809,Panda Express,75024,Collin County
33.108018,-96.805969,Panda Express,75024,Collin County
32.924989,-96.625265,Panda Express,75040,Dallas County
30.632894,-97.693823,Panda Express,78628,Williamson County
32.434729,-97.774821,Panda Express,76048,Hood County
32.968180,-97.036908,Panda Express,76051,Tarrant County
32.842206,-97.290449,Panda Express,76137,Tarrant County
31.071504,-97.669788,Panda Express,76548,Bell County
26.181187,-97.718376,Panda Express,78550,Cameron County
31.682735,-106.200188,Panda Express,79927,El Paso County
29.877060,-95.411794,Panda Express,77037,Harris County
29.699311,-95.295745,Panda Express,77087,Harris County
29.919666,-95.609092,Panda Express,77065,Harris County
29.915458,-95.486895,Panda Express,77086,Harris County
29.770890,-95.182229,Panda Express,77015,Harris County
29.878982,-95.650459,Panda Express,77095,Harris County
29.828718,-95.379802,Panda Express,77022,Harris County
29.774666,-95.381646,Panda Express,77201,Harris County
29.734824,-95.623877,Panda Express,77082,Harris County
29.987892,-95.348488,Panda Express,77032,Harris County
29.997409,-95.481240,Panda Express,77068,Harris County
29.732933,-95.441451,Panda Express,77046,Harris County
29.952128,-95.343420,Panda Express,77032,Harris County
30.019109,-95.435338,Panda Express,77090,Harris County
29.850925,-95.504848,Panda Express,77040,Harris County
29.614821,-95.495525,Panda Express,77085,Harris County
29.963794,-95.543494,Panda Express,77069,Harris County
29.784939,-95.467051,Panda Express,77024,Harris County
29.737614,-95.513433,Panda Express,77063,Harris County
29.690285,-95.417458,Panda Express,77054,Harris County
29.686982,-95.458538,Panda Express,77401,Harris County
29.678191,-95.643397,Panda Express,77083,Harris County
29.785135,-95.534368,Panda Express,77080,Harris County
29.721640,-95.343826,Panda Express,77021,Harris County
29.998247,-95.172583,Panda Express,77346,Harris County
32.860985,-97.185982,Panda Express,76054,Tarrant County
32.912109,-96.991386,Panda Express,75063,Dallas County
29.787551,-95.719135,Panda Express,77094,Harris County
29.733940,-95.754919,Panda Express,77450,Harris County
29.776027,-95.752009,Panda Express,77450,Harris County
30.011874,-97.862987,Panda Express,78640,Hays County
29.045632,-95.455476,Panda Express,77566,Brazoria County
27.610340,-99.473778,Panda Express,78040,Webb County
29.518823,-95.073909,Panda Express,77573,Galveston County
29.468562,-95.092091,Panda Express,77573,Galveston County
33.046957,-97.009719,Panda Express,75057,Denton County
33.007434,-96.974266,Panda Express,75067,Denton County
33.005990,-96.971851,Panda Express,75067,Denton County
32.534795,-94.723126,Panda Express,75601,Gregg County
33.593590,-101.869972,Panda Express,79401,Lubbock County
33.519150,-101.955337,Panda Express,79414,Lubbock County
31.302798,-94.727006,Panda Express,75901,Angelina County
30.218635,-95.567992,Panda Express,77382,Montgomery County
32.554404,-97.110962,Panda Express,76063,Tarrant County
32.605892,-97.117273,Panda Express,76002,Tarrant County
26.270691,-98.237282,Panda Express,78504,Hidalgo County
26.190869,-98.206587,Panda Express,78577,Hidalgo County
33.216108,-96.625883,Panda Express,75069,Collin County
33.199101,-96.708526,Panda Express,75070,Collin County
32.810748,-96.624525,Panda Express,75150,Dallas County
32.806298,-96.625938,Panda Express,75150,Dallas County
32.030229,-102.146104,Panda Express,79707,Midland County
26.200207,-98.287596,Panda Express,78501,Hidalgo County
33.011310,-96.614674,Panda Express,75094,Collin County
31.603587,-94.655620,Panda Express,75965,Nacogdoches County
29.686635,-98.124529,Panda Express,78130,Comal County
31.902493,-102.336925,Panda Express,79762,Ector County
33.658840,-95.508944,Panda Express,75462,Lamar County
29.649727,-95.143536,Panda Express,77505,Harris County
30.465367,-97.597494,Panda Express,78660,Travis County
33.057305,-96.688809,Panda Express,75074,Collin County
33.055233,-96.770711,Panda Express,75023,Collin County
32.531830,-96.818650,Panda Express,75154,Ellis County
32.941323,-96.699842,Panda Express,75081,Dallas County
33.014593,-97.219627,Panda Express,76262,Denton County
32.891368,-96.470934,Panda Express,75087,Rockwall County
29.543834,-95.754869,Panda Express,77469,Fort Bend County
30.555734,-97.689521,Panda Express,78681,Williamson County
30.481310,-97.671277,Panda Express,78664,Williamson County
30.517475,-97.659174,Panda Express,78665,Williamson County
32.878807,-97.380169,Panda Express,76131,Tarrant County
29.435569,-98.699510,Panda Express,78245,Bexar County
29.492618,-98.701347,Panda Express,78250,Bexar County
29.546258,-98.576905,Panda Express,78230,Bexar County
29.550605,-98.664253,Panda Express,78249,Bexar County
29.569254,-98.383651,Panda Express,78233,Bexar County
29.492701,-98.435935,Panda Express,78209,Bexar County
29.600912,-98.599859,Panda Express,78256,Bexar County
29.489173,-98.535104,Panda Express,78201,Bexar County
29.640572,-98.454684,Panda Express,78259,Bexar County
29.356782,-98.529020,Panda Express,78225,Bexar County
29.351929,-98.436290,Panda Express,78235,Bexar County
29.381216,-98.639534,Panda Express,78227,Bexar County
29.376114,-98.461181,Panda Express,78210,Bexar County
29.481665,-98.598761,Panda Express,78238,Bexar County
29.480866,-98.362299,Panda Express,78244,Bexar County
29.436531,-98.651039,Panda Express,78251,Bexar County
29.520200,-98.505120,Panda Express,78213,Bexar County
29.585178,-98.617270,Panda Express,78249,Bexar County
29.843690,-97.968419,Panda Express,78666,Hays County
29.604081,-98.279285,Panda Express,78154,Guadalupe County
29.570361,-98.327007,Panda Express,78148,Bexar County
33.680003,-96.609287,Panda Express,75020,Grayson County
32.941931,-97.116273,Panda Express,76092,Tarrant County
30.073932,-95.511365,Panda Express,77379,Harris County
29.603590,-95.634999,Panda Express,77478,Fort Bend County
33.142335,-95.564497,Panda Express,75482,Hopkins County
30.089552,-95.633028,Panda Express,77375,Harris County
32.307110,-95.271050,Panda Express,75701,Smith County
32.273941,-95.306666,Panda Express,75701,Smith County
28.874846,-96.997561,Panda Express,77904,Victoria County
31.547287,-97.120637,Panda Express,76701,McLennan County
31.495909,-97.156037,Panda Express,76711,McLennan County
31.535299,-97.187143,Panda Express,76710,McLennan County
32.894233,-97.258611,Panda Express,76148,Tarrant County
32.421447,-96.839886,Panda Express,75165,Ellis County
32.732928,-97.792680,Panda Express,76086,Parker County
29.538401,-95.147489,Panda Express,77598,Harris County
26.170103,-97.990833,Panda Express,78596,Hidalgo County
33.876615,-98.539964,Panda Express,76308,Wichita County
40.386248,-111.820594,Panda Express,84043,Utah County
40.884122,-111.886416,Panda Express,84025,Davis County
37.656427,-113.090107,Panda Express,84721,Iron County
41.137720,-112.064519,Panda Express,84015,Davis County
40.526613,-111.888975,Panda Express,84020,Salt Lake County
40.988588,-111.901992,Panda Express,84037,Davis County
41.074775,-112.001776,Panda Express,84041,Davis County
41.757603,-111.820364,Panda Express,84341,Cache County
40.643439,-111.889072,Panda Express,84107,Salt Lake County
40.656620,-111.884560,Panda Express,84107,Salt Lake County
41.244482,-111.975296,Panda Express,84401,Weber County
40.299952,-111.676318,Panda Express,84097,Utah County
40.297008,-111.693426,Panda Express,84058,Utah County
40.720940,-111.543122,Panda Express,84098,Summit County
40.364248,-111.753135,Panda Express,84062,Utah County
40.233675,-111.683552,Panda Express,84601,Utah County
40.250981,-111.658451,Panda Express,84606,Utah County
41.188301,-111.983875,Panda Express,84401,Weber County
40.507805,-111.977953,Panda Express,84065,Salt Lake County
41.161821,-112.026409,Panda Express,84067,Weber County
40.725387,-111.858871,Panda Express,84105,Salt Lake County
40.766207,-111.904184,Panda Express,84180,Salt Lake County
40.760571,-111.850693,Panda Express,84102,Salt Lake County
40.626580,-111.824624,Panda Express,84093,Salt Lake County
40.561572,-111.890976,Panda Express,84070,Salt Lake County
40.585132,-111.863311,Panda Express,84094,Salt Lake County
40.385822,-111.916365,Panda Express,84043,Utah County
40.547095,-111.938676,Panda Express,84095,Salt Lake County
37.126888,-113.601611,Panda Express,84765,Washington County
37.074991,-113.562139,Panda Express,84765,Washington County
40.649817,-111.938974,Panda Express,84123,Salt Lake County
40.555228,-112.297654,Panda Express,84074,Tooele County
40.609670,-111.980572,Panda Express,84088,Salt Lake County
40.625493,-111.938924,Panda Express,84084,Salt Lake County
40.704472,-112.025714,Panda Express,84128,Salt Lake County
40.669043,-111.986408,Panda Express,84120,Salt Lake County
38.780897,-77.078573,Panda Express,22303,Fairfax County
38.741459,-77.164062,Panda Express,22315,Fairfax County
38.864322,-77.059216,Panda Express,22202,Arlington County
38.837979,-77.437696,Panda Express,20121,Fairfax County
36.762543,-76.251172,Panda Express,23320,Chesapeake city
37.162896,-80.427886,Panda Express,24073,Montgomery County
37.835020,-77.450309,Panda Express,23005,Hanover County
38.861592,-77.362263,Panda Express,22035,Fairfax County
38.835035,-77.310869,Panda Express,22032,Fairfax County
38.866768,-77.229015,Panda Express,22031,Fairfax County
38.304715,-77.509218,Panda Express,22401,Fredericksburg city
38.966783,-78.190890,Panda Express,22630,Warren County
37.048797,-76.391252,Panda Express,23666,Hampton city
37.345478,-79.188816,Panda Express,24502,Lynchburg city
38.786914,-77.515881,Panda Express,20109,Prince William County
38.745715,-77.450158,Panda Express,20111,Prince William County
38.919350,-77.220601,Panda Express,22102,Fairfax County
37.415091,-77.641101,Panda Express,23832,Chesterfield County
36.882450,-76.308319,Panda Express,23508,Norfolk city
36.849672,-76.289531,Panda Express,23510,Norfolk city
36.843522,-76.303394,Panda Express,23708,Portsmouth city
37.654524,-77.623467,Panda Express,23233,Henrico County
37.500091,-77.527098,Panda Express,23225,Richmond city
37.550369,-77.451461,Panda Express,23220,Richmond city
37.232158,-80.431474,Panda Express,24060,Montgomery County
38.772355,-77.176552,Panda Express,22150,Fairfax County
38.778876,-77.187957,Panda Express,22150,Fairfax County
36.804009,-76.014855,Panda Express,23454,Virginia Beach city
39.163832,-78.162966,Panda Express,22601,Winchester city
38.651252,-77.301926,Panda Express,22192,Prince William County
37.114720,-76.468990,Panda Express,23693,York County
47.642948,-117.575944,Panda Express,99001,Spokane County
48.152348,-122.177158,Panda Express,98271,Snohomish County
47.296419,-122.245928,Panda Express,98001,King County
45.769920,-122.541450,Panda Express,98604,Clark County
47.574853,-122.169461,Panda Express,98006,King County
48.771712,-122.461218,Panda Express,98226,Whatcom County
48.737774,-122.488014,Panda Express,98225,Whatcom County
48.784398,-122.486386,Panda Express,98226,Whatcom County
47.170053,-122.170107,Panda Express,98391,Pierce County
47.460895,-122.333774,Panda Express,98148,King County
46.034014,-118.381681,Panda Express,99324,Walla Walla County
47.359233,-122.111093,Panda Express,98042,King County
47.899889,-122.251419,Panda Express,98204,Snohomish County
47.912130,-122.213816,Panda Express,98208,Snohomish County
47.316895,-122.313504,Panda Express,98003,King County
47.288555,-122.313586,Panda Express,98003,King County
47.301229,-122.608058,Panda Express,98335,Pierce County
47.547765,-122.041141,Panda Express,98029,King County
46.224838,-119.224009,Panda Express,99336,Benton County
46.214060,-119.158049,Panda Express,99336,Benton County
47.058824,-122.764406,Panda Express,98503,Thurston County
47.162370,-122.520422,Panda Express,98499,Pierce County
46.144855,-122.930895,Panda Express,98632,Cowlitz County
47.849622,-122.253138,Panda Express,98037,Snohomish County
47.839505,-122.287371,Panda Express,98037,Snohomish County
47.811710,-122.283269,Panda Express,98036,Snohomish County
48.441258,-122.343147,Panda Express,98273,Skagit County
47.048293,-122.831033,Panda Express,98503,Thurston County
47.067468,-122.949888,Panda Express,98506,Thurston County
46.259300,-119.115844,Panda Express,99336,Benton County
46.733708,-117.179767,Panda Express,99163,Whitman County
47.107996,-122.293618,Panda Express,98375,Pierce County
47.681098,-122.125703,Panda Express,98052,King County
47.445527,-122.154080,Panda Express,98058,King County
47.448723,-122.201646,Panda Express,98055,King County
46.259002,-119.307738,Panda Express,99352,Benton County
47.719556,-122.295360,Panda Express,98125,King County
47.708450,-122.321667,Panda Express,98125,King County
47.701703,-122.362380,Panda Express,98117,King County
47.700540,-117.443756,Panda Express,99205,Spokane County
47.627959,-117.375108,Panda Express,99203,Spokane County
47.693646,-117.365082,Panda Express,99207,Spokane County
47.668693,-117.403534,Panda Express,99202,Spokane County
47.701648,-117.411053,Panda Express,99207,Spokane County
47.652510,-117.416449,Panda Express,99204,Spokane County
47.678783,-117.282005,Panda Express,99217,Spokane County
47.744709,-117.406446,Panda Express,99218,Spokane County
47.657171,-117.337425,Panda Express,99212,Spokane County
47.255576,-122.519069,Panda Express,98406,Pierce County
47.450074,-122.262283,Panda Express,98188,King County
47.450510,-122.278866,Panda Express,98188,King County
46.999821,-122.913790,Panda Express,98501,Thurston County
45.717515,-122.652314,Panda Express,98665,Clark County
45.618918,-122.646044,Panda Express,98661,Clark County
45.678637,-122.666990,Panda Express,98665,Clark County
45.618416,-122.476204,Panda Express,98683,Clark County
45.683557,-122.604245,Panda Express,98662,Clark County
45.656706,-122.581954,Panda Express,98662,Clark County
47.664446,-117.194748,Panda Express,99216,Spokane County
46.573742,-120.488747,Panda Express,98902,Yakima County
46.585262,-120.597511,Panda Express,98902,Yakima County
44.261181,-88.460465,Panda Express,54914,Outagamie County
44.272901,-88.469745,Panda Express,54914,Outagamie County
44.244306,-88.351913,Panda Express,54915,Outagamie County
43.784939,-88.478538,Panda Express,54935,Fond du Lac County
43.192632,-88.129718,Panda Express,53051,Waukesha County
43.123062,-87.914268,Panda Express,53217,Milwaukee County
42.949290,-88.008311,Panda Express,53129,Milwaukee County
42.712601,-89.001268,Panda Express,53546,Rock County
42.716215,-88.999152,Panda Express,53546,Rock County
44.073661,-87.704023,Panda Express,54220,Manitowoc County
43.038786,-87.914088,Panda Express,53203,Milwaukee County
42.979573,-87.948138,Panda Express,53221,Milwaukee County
42.898785,-87.911828,Panda Express,53154,Milwaukee County
42.565764,-87.927851,Panda Express,53142,Kenosha County
44.496165,-89.513614,Panda Express,54482,Portage County
42.718456,-87.845032,Panda Express,53406,Racine County
44.917065,-89.650032,Panda Express,54474,Marathon County
42.996947,-88.047115,Panda Express,53227,Milwaukee County
43.404600,-88.181730,Panda Express,53095,Washington County
43.018901,-87.968343,Panda Express,53208,Milwaukee County
39.446170,-77.987480,Panda Express,25401,Berkeley County
41.160217,-104.790988,Panda Express,82001,Laramie County
41.312465,-105.586024,Panda Express,82070,Albany County
33.305578,-111.896525,Panda Express,85224,Maricopa County
32.655645,-117.067911,Panda Express,91950,San Diego County
37.525179,-121.997559,Panda Express,94538,Alameda County
38.772249,-121.265954,Panda Express,95678,Placer County
38.600215,-121.428016,Panda Express,95825,Sacramento County
38.439826,-122.717399,Panda Express,95405,Sonoma County
38.852009,-104.775641,Panda Express,80909,El Paso County
39.722080,-105.200469,Panda Express,80401,Jefferson County
27.929966,-82.322906,Panda Express,33511,Hillsborough County
27.233254,-82.497435,Panda Express,34238,Sarasota County
33.984927,-84.078639,Panda Express,30096,Gwinnett County
21.281723,-157.797390,Panda Express,96816,Honolulu County
38.647021,-90.536644,Panda Express,63017,St. Louis County
38.636102,-90.347323,Panda Express,63117,St. Louis County
38.776147,-90.624853,Panda Express,63376,St. Charles County
40.824869,-96.622999,Panda Express,68505,Lancaster County
39.383892,-74.430153,Panda Express,08401,Atlantic County
36.151935,-115.111507,Panda Express,89104,Clark County
32.864861,-96.788474,Panda Express,75225,Dallas County
34.148312,-118.254257,Panda Express,91210,Los Angeles County
33.859303,-118.030792,Panda Express,90623,Orange County
34.067024,-117.581848,Panda Express,91764,San Bernardino County
34.150098,-118.078087,Panda Express,91024,Los Angeles County
32.714392,-117.161126,Panda Express,92101,San Diego County
32.865360,-117.212300,Panda Express,92122,San Diego County
