latitude,longitude,name,zipcode,county
33.232740,-86.809820,Whataburger,35007,Shelby County
33.426163,-86.706768,Whataburger,35242,Shelby County
31.149169,-87.065963,Whataburger,36426,Escambia County
33.326269,-86.650379,Whataburger,35043,Shelby County
30.762220,-88.074064,Whataburger,36611,Mobile County
32.800647,-86.575314,Whataburger,36091,Chilton County
30.367736,-87.683037,Whataburger,36535,Baldwin County
33.608862,-86.800349,Whataburger,35068,Jefferson County
30.672142,-88.099554,Whataburger,36606,Mobile County
30.640780,-88.224839,Whataburger,36695,Mobile County
30.678378,-88.191038,Whataburger,36609,Mobile County
33.334868,-86.784137,Whataburger,35124,Shelby County
30.801589,-88.095737,Whataburger,36571,Mobile County
33.639770,-86.626887,Whataburger,35235,Jefferson County
33.200500,-87.524950,Whataburger,35404,Tuscaloosa County
33.165271,-87.548891,Whataburger,35401,Tuscaloosa County
36.056735,-94.187927,Whataburger,72730,Washington County
36.124296,-94.144706,Whataburger,72703,Washington County
36.278225,-94.148299,Whataburger,72758,Benton County
36.193245,-94.176044,Whataburger,72762,Washington County
33.461539,-94.042946,Whataburger,75569,Bowie County
33.448951,-112.341256,Whataburger,85323,Maricopa County
32.879449,-111.748691,Whataburger,85122,Pinal County
33.305088,-111.968348,Whataburger,85226,Maricopa County
33.639532,-112.151085,Whataburger,85053,Maricopa County
33.485637,-112.365583,Whataburger,85395,Maricopa County
33.407439,-111.873310,Whataburger,85202,Maricopa County
33.408010,-111.772301,Whataburger,85204,Maricopa County
33.638352,-112.251074,Whataburger,85382,Maricopa County
33.429934,-112.099939,Whataburger,85007,Maricopa County
33.470739,-112.220965,Whataburger,85033,Maricopa County
33.524261,-112.111282,Whataburger,85017,Maricopa County
33.640341,-112.019790,Whataburger,85032,Maricopa County
33.610883,-112.120983,Whataburger,85053,Maricopa County
33.495001,-112.079812,Whataburger,85013,Maricopa County
33.404999,-111.978453,Whataburger,85034,Maricopa County
33.465583,-112.063858,Whataburger,85006,Maricopa County
33.481214,-111.908800,Whataburger,85251,Maricopa County
33.576894,-111.885936,Whataburger,85258,Maricopa County
33.413577,-111.926447,Whataburger,85282,Maricopa County
32.229395,-110.990512,Whataburger,85701,Pima County
32.297619,-110.996272,Whataburger,85705,Pima County
32.176599,-110.968087,Whataburger,85714,Pima County
32.133786,-110.975399,Whataburger,85714,Pima County
32.235822,-110.877276,Whataburger,85712,Pima County
32.206282,-110.853378,Whataburger,85708,Pima County
30.569773,-87.290229,Whataburger,32534,Escambia County
30.960992,-87.274344,Whataburger,32535,Escambia County
30.721985,-86.569382,Whataburger,32536,Okaloosa County
30.687733,-86.122812,Whataburger,32435,Walton County
30.395449,-86.510151,Whataburger,32541,Okaloosa County
30.378141,-86.352050,Whataburger,32550,Walton County
30.445775,-87.254256,Whataburger,32505,Escambia County
30.404612,-86.616526,Whataburger,32579,Okaloosa County
30.428055,-86.639633,Whataburger,32544,Okaloosa County
30.358566,-87.155957,Whataburger,32561,Santa Rosa County
30.262995,-81.623104,Whataburger,32207,Duval County
30.242130,-81.598209,Whataburger,32217,Duval County
30.295818,-81.775077,Whataburger,32210,Duval County
30.286938,-81.564676,Whataburger,32216,Duval County
30.221917,-85.648895,Whataburger,32444,Bay County
30.628743,-87.042890,Whataburger,32583,Santa Rosa County
30.401685,-86.889720,Whataburger,32563,Santa Rosa County
30.324058,-81.409412,Whataburger,32266,Duval County
30.487609,-86.421668,Whataburger,32541,Okaloosa County
30.100620,-81.709183,Whataburger,32003,Clay County
30.171568,-81.746607,Whataburger,32073,Clay County
30.603125,-87.116266,Whataburger,32514,Escambia County
30.642639,-87.180497,Whataburger,32571,Santa Rosa County
30.239721,-85.911664,Whataburger,32413,Bay County
30.427420,-87.270790,Whataburger,32505,Escambia County
30.445289,-87.236929,Whataburger,32505,Escambia County
30.533236,-87.265740,Whataburger,32534,Escambia County
30.417061,-87.204689,Whataburger,32501,Escambia County
30.472877,-87.212332,Whataburger,32504,Escambia County
30.471109,-87.244514,Whataburger,32505,Escambia County
30.463270,-87.302293,Whataburger,32505,Escambia County
30.493889,-87.220734,Whataburger,32504,Escambia County
29.943758,-82.096279,Whataburger,32091,Bradford County
30.454349,-84.278243,Whataburger,32301,Leon County
30.427562,-84.237619,Whataburger,32301,Leon County
30.476553,-84.297834,Whataburger,32308,Leon County
30.432740,-84.302114,Whataburger,32301,Leon County
30.627609,-81.552230,Whataburger,32097,Nassau County
30.839252,-83.943679,Whataburger,31757,Thomas County
30.387808,-91.062394,Whataburger,70809,East Baton Rouge Parish
32.517431,-93.716642,Whataburger,71101,Caddo Parish
32.554961,-93.710522,Whataburger,71111,Bossier Parish
30.236961,-90.912127,Whataburger,70737,Ascension Parish
30.253521,-92.037669,Whataburger,70507,Lafayette Parish
30.189683,-92.014894,Whataburger,70508,Lafayette Parish
30.184676,-92.075142,Whataburger,70506,Lafayette Parish
32.523161,-92.098053,Whataburger,71201,Ouachita Parish
32.540730,-92.628221,Whataburger,71270,Lincoln Parish
32.430959,-93.714228,Whataburger,71105,Caddo Parish
32.402219,-93.798606,Whataburger,71118,Caddo Parish
32.551478,-93.779831,Whataburger,71101,Caddo Parish
32.474380,-93.797384,Whataburger,71109,Caddo Parish
32.461281,-93.707407,Whataburger,71105,Caddo Parish
32.447123,-93.863626,Whataburger,71129,Caddo Parish
30.458529,-88.894653,Whataburger,39540,Harrison County
32.343135,-90.064721,Whataburger,39232,Rankin County
30.454366,-89.099869,Whataburger,39503,Harrison County
32.303494,-90.170052,Whataburger,39202,Hinds County
30.409617,-88.762018,Whataburger,39564,Jackson County
32.222312,-90.156121,Whataburger,39218,Rankin County
32.399742,-90.142525,Whataburger,39157,Madison County
32.314561,-90.876359,Whataburger,39180,Warren County
35.110436,-106.644398,Whataburger,87104,Bernalillo County
35.113184,-106.603873,Whataburger,87110,Bernalillo County
35.206301,-106.650897,Whataburger,87114,Bernalillo County
35.023278,-106.712515,Whataburger,87105,Bernalillo County
35.156472,-106.595309,Whataburger,87109,Bernalillo County
35.115992,-106.535707,Whataburger,87111,Bernalillo County
32.282020,-106.767189,Whataburger,88001,Doa Ana County
32.330327,-106.783226,Whataburger,88005,Doa Ana County
32.317224,-106.747743,Whataburger,88001,Doa Ana County
35.328693,-106.571458,Whataburger,87004,Sandoval County
33.417923,-104.523274,Whataburger,88230,Chaves County
34.664675,-99.333631,Whataburger,73521,Jackson County
34.185814,-97.165462,Whataburger,73401,Carter County
36.000596,-95.886482,Whataburger,74133,Tulsa County
36.061091,-95.760278,Whataburger,74012,Tulsa County
36.293860,-95.630287,Whataburger,74019,Rogers County
33.998753,-96.410667,Whataburger,74701,Bryan County
35.701549,-97.427376,Whataburger,73034,Oklahoma County
35.650866,-97.482045,Whataburger,73003,Oklahoma County
35.951642,-96.013670,Whataburger,74033,Tulsa County
34.623513,-98.423652,Whataburger,73503,Comanche County
34.623337,-98.476112,Whataburger,73505,Comanche County
35.436421,-97.370413,Whataburger,73110,Oklahoma County
35.296654,-97.489008,Whataburger,73160,Cleveland County
35.392699,-97.724216,Whataburger,73064,Canadian County
35.218454,-97.460122,Whataburger,73069,Cleveland County
35.406088,-97.535397,Whataburger,73109,Oklahoma County
35.604246,-97.549459,Whataburger,73134,Oklahoma County
35.452489,-97.601226,Whataburger,73108,Oklahoma County
35.607200,-97.620542,Whataburger,73142,Oklahoma County
35.463538,-97.654131,Whataburger,73128,Canadian County
35.523779,-97.565779,Whataburger,73112,Oklahoma County
35.507880,-97.583456,Whataburger,73112,Oklahoma County
35.550661,-97.618847,Whataburger,73132,Oklahoma County
36.293035,-95.829939,Whataburger,74055,Tulsa County
35.979149,-96.113736,Whataburger,74041,Creek County
35.381170,-96.930316,Whataburger,74804,Pottawatomie County
36.132710,-97.060768,Whataburger,74074,Payne County
36.119227,-95.856964,Whataburger,74129,Tulsa County
36.141419,-95.975715,Whataburger,74120,Tulsa County
36.132952,-95.922955,Whataburger,74112,Tulsa County
36.104212,-95.912316,Whataburger,74135,Tulsa County
36.077297,-95.904463,Whataburger,74145,Tulsa County
36.051733,-96.005494,Whataburger,74132,Tulsa County
32.412749,-99.773780,Whataburger,79605,Taylor County
32.451585,-99.778415,Whataburger,79605,Taylor County
32.448285,-99.708570,Whataburger,79605,Taylor County
26.188736,-98.122442,Whataburger,78516,Hidalgo County
27.753351,-98.060362,Whataburger,78332,Jim Wells County
27.861110,-98.086059,Whataburger,78372,Jim Wells County
33.128933,-96.648071,Whataburger,75013,Collin County
32.413510,-97.220135,Whataburger,76009,Johnson County
29.403881,-95.238317,Whataburger,77517,Galveston County
35.188326,-101.866412,Whataburger,79102,Potter County
35.176231,-101.920111,Whataburger,79121,Randall County
35.192534,-101.794050,Whataburger,79104,Potter County
35.163675,-101.882256,Whataburger,79109,Randall County
35.116884,-101.903711,Whataburger,79110,Randall County
35.220478,-101.830468,Whataburger,79101,Potter County
29.176320,-95.432424,Whataburger,77515,Brazoria County
27.925093,-97.178418,Whataburger,78362,San Patricio County
32.734803,-97.061696,Whataburger,76010,Tarrant County
32.770164,-97.097252,Whataburger,76006,Tarrant County
32.692478,-97.063599,Whataburger,76014,Tarrant County
32.688859,-97.129856,Whataburger,76015,Tarrant County
32.680076,-97.093469,Whataburger,76014,Tarrant County
32.675693,-97.198616,Whataburger,76016,Tarrant County
32.651897,-97.134774,Whataburger,76001,Tarrant County
29.998215,-95.160889,Whataburger,77346,Harris County
32.211838,-95.829206,Whataburger,75752,Henderson County
30.375178,-97.676655,Whataburger,78753,Travis County
30.469439,-97.790085,Whataburger,78717,Williamson County
30.433806,-97.670222,Whataburger,78728,Travis County
30.229906,-97.786862,Whataburger,78745,Travis County
30.230845,-97.735823,Whataburger,78741,Travis County
30.293454,-97.742156,Whataburger,78705,Travis County
30.359088,-97.737333,Whataburger,78757,Travis County
30.282857,-97.702797,Whataburger,78722,Travis County
30.182700,-97.847579,Whataburger,78749,Travis County
30.258393,-97.750494,Whataburger,78701,Travis County
30.342599,-97.679495,Whataburger,78752,Travis County
30.330441,-97.723321,Whataburger,78756,Travis County
30.445240,-97.743942,Whataburger,78729,Williamson County
30.220240,-97.835274,Whataburger,78749,Travis County
30.190943,-97.772416,Whataburger,78744,Travis County
30.420425,-97.845619,Whataburger,78726,Travis County
30.164138,-97.788404,Whataburger,78748,Travis County
30.365178,-97.695981,Whataburger,78758,Travis County
32.898781,-97.542931,Whataburger,76020,Tarrant County
32.733734,-96.618998,Whataburger,75180,Dallas County
29.489967,-98.550731,Whataburger,78201,Bexar County
30.110415,-97.389645,Whataburger,78602,Bastrop County
28.983757,-95.970238,Whataburger,77414,Matagorda County
29.745343,-94.977064,Whataburger,77520,Harris County
29.805282,-94.980861,Whataburger,77521,Harris County
29.818820,-94.899841,Whataburger,77523,Chambers County
30.071517,-94.172024,Whataburger,77707,Jefferson County
30.068210,-94.127198,Whataburger,77702,Jefferson County
30.118290,-94.144382,Whataburger,77706,Jefferson County
28.417256,-97.755388,Whataburger,78102,Bee County
31.604262,-97.103353,Whataburger,76705,McLennan County
31.054102,-97.451777,Whataburger,76502,Bell County
32.673561,-97.469928,Whataburger,76132,Tarrant County
32.263542,-101.484259,Whataburger,79720,Howard County
29.746147,-98.825307,Whataburger,78063,Bandera County
30.138951,-96.395590,Whataburger,77833,Washington County
30.033576,-93.833300,Whataburger,77611,Orange County
25.925063,-97.511332,Whataburger,78526,Cameron County
25.905867,-97.483243,Whataburger,78526,Cameron County
25.951035,-97.483792,Whataburger,78526,Cameron County
25.948871,-97.504389,Whataburger,78526,Cameron County
25.922065,-97.484803,Whataburger,78526,Cameron County
25.977801,-97.519894,Whataburger,78520,Cameron County
25.942441,-97.426683,Whataburger,78526,Cameron County
31.729991,-98.976419,Whataburger,76801,Brown County
30.642424,-96.351212,Whataburger,77801,Brazos County
30.664865,-96.371849,Whataburger,77803,Brazos County
30.086885,-97.822517,Whataburger,78610,Hays County
32.139599,-95.323074,Whataburger,75757,Smith County
34.081590,-98.558117,Whataburger,76354,Wichita County
32.536885,-97.333994,Whataburger,76028,Johnson County
30.759096,-98.224392,Whataburger,78611,Burnet County
32.555719,-95.794144,Whataburger,75127,Van Zandt County
31.912094,-106.583925,Whataburger,79835,El Paso County
32.983957,-96.907855,Whataburger,75007,Denton County
32.953410,-96.883730,Whataburger,75006,Dallas County
33.026126,-96.841924,Whataburger,75287,Denton County
32.157591,-94.351585,Whataburger,75633,Panola County
32.600292,-96.943788,Whataburger,75104,Dallas County
30.480469,-97.832881,Whataburger,78613,Williamson County
30.533269,-97.786813,Whataburger,78613,Williamson County
30.513009,-97.824629,Whataburger,78613,Williamson County
31.804715,-94.191478,Whataburger,75935,Shelby County
32.305500,-95.490799,Whataburger,75758,Henderson County
29.778864,-95.123472,Whataburger,77530,Harris County
32.342117,-97.402762,Whataburger,76059,Johnson County
32.380378,-97.393040,Whataburger,76059,Johnson County
30.333518,-95.100032,Whataburger,77372,Montgomery County
29.010730,-95.421329,Whataburger,77531,Brazoria County
32.357205,-99.520485,Whataburger,79510,Callahan County
30.618540,-96.322142,Whataburger,77840,Brazos County
30.590505,-96.330493,Whataburger,77840,Brazos County
30.583286,-96.288382,Whataburger,77840,Brazos County
30.555844,-96.252748,Whataburger,77845,Brazos County
29.690339,-96.538874,Whataburger,78934,Colorado County
30.317928,-95.478808,Whataburger,77304,Montgomery County
30.312130,-95.459544,Whataburger,77301,Montgomery County
30.335924,-95.468927,Whataburger,77304,Montgomery County
29.506840,-98.288010,Whataburger,78150,Bexar County
32.987113,-96.992327,Whataburger,75019,Dallas County
31.120748,-97.868683,Whataburger,76539,Lampasas County
27.667712,-97.282672,Whataburger,78419,Nueces County
27.791757,-97.393059,Whataburger,78401,Nueces County
27.622230,-97.221709,Whataburger,78419,Nueces County
27.703230,-97.363023,Whataburger,78412,Nueces County
27.765837,-97.402649,Whataburger,78404,Nueces County
27.735510,-97.426126,Whataburger,78416,Nueces County
27.773733,-97.419748,Whataburger,78404,Nueces County
27.737878,-97.405005,Whataburger,78411,Nueces County
27.856697,-97.629550,Whataburger,78410,Nueces County
27.727894,-97.379503,Whataburger,78411,Nueces County
27.830720,-97.385622,Whataburger,78401,Nueces County
27.797483,-97.443632,Whataburger,78408,Nueces County
27.849047,-97.583176,Whataburger,78410,Nueces County
27.690730,-97.394883,Whataburger,78413,Nueces County
27.754331,-97.388972,Whataburger,78404,Nueces County
27.720557,-97.398852,Whataburger,78411,Nueces County
27.755649,-97.458900,Whataburger,78405,Nueces County
27.679106,-97.371290,Whataburger,78413,Nueces County
27.701336,-97.411478,Whataburger,78413,Nueces County
27.696368,-97.348367,Whataburger,78412,Nueces County
27.808991,-97.398637,Whataburger,78401,Nueces County
27.669120,-97.394002,Whataburger,78413,Nueces County
27.689448,-97.331451,Whataburger,78412,Nueces County
27.826237,-97.548211,Whataburger,78409,Nueces County
30.993448,-94.827213,Whataburger,75939,Polk County
32.083355,-96.479870,Whataburger,75110,Navarro County
32.070531,-96.447880,Whataburger,75110,Navarro County
31.314951,-95.436675,Whataburger,75835,Houston County
29.896273,-95.063384,Whataburger,77532,Harris County
33.236591,-97.020104,Whataburger,76208,Denton County
29.097411,-97.288073,Whataburger,77954,DeWitt County
29.972869,-95.695490,Whataburger,77429,Harris County
29.991201,-95.747631,Whataburger,77433,Harris County
29.911219,-95.726103,Whataburger,77433,Harris County
29.911728,-95.685969,Whataburger,77095,Harris County
32.864603,-96.678140,Whataburger,75041,Dallas County
32.908259,-96.700294,Whataburger,75042,Dallas County
32.910986,-96.768069,Whataburger,75251,Dallas County
32.950453,-96.818197,Whataburger,75254,Dallas County
32.763700,-96.895182,Whataburger,75212,Dallas County
32.997048,-96.828934,Whataburger,75287,Denton County
32.998747,-96.855841,Whataburger,75287,Denton County
32.804438,-96.788838,Whataburger,75204,Dallas County
32.808757,-96.845874,Whataburger,75235,Dallas County
32.919831,-97.021109,Whataburger,75063,Dallas County
32.909931,-96.872031,Whataburger,75229,Dallas County
32.662305,-96.873187,Whataburger,75237,Dallas County
32.860434,-96.856623,Whataburger,75220,Dallas County
32.827958,-96.824005,Whataburger,75209,Dallas County
32.793114,-96.685224,Whataburger,75227,Dallas County
32.859116,-96.768419,Whataburger,75225,Dallas County
32.861718,-96.753904,Whataburger,75231,Dallas County
32.837889,-96.839222,Whataburger,75209,Dallas County
32.644323,-96.780298,Whataburger,75134,Dallas County
32.834838,-96.874437,Whataburger,75247,Dallas County
32.910805,-96.736358,Whataburger,75243,Dallas County
33.236886,-97.597704,Whataburger,76234,Wise County
29.386259,-100.905235,Whataburger,78843,Val Verde County
33.756721,-96.536970,Whataburger,75020,Grayson County
33.230198,-97.149746,Whataburger,76201,Denton County
33.193031,-97.096330,Whataburger,76208,Denton County
33.230386,-97.163893,Whataburger,76201,Denton County
33.198604,-97.138505,Whataburger,76205,Denton County
32.604421,-96.855222,Whataburger,75115,Dallas County
32.590018,-96.879033,Whataburger,75115,Dallas County
29.451992,-95.080036,Whataburger,77573,Galveston County
26.178086,-98.041293,Whataburger,78596,Hidalgo County
30.191682,-98.093477,Whataburger,78620,Hays County
32.662006,-96.911441,Whataburger,75116,Dallas County
32.633031,-96.900865,Whataburger,75137,Dallas County
28.701658,-100.483344,Whataburger,78852,Maverick County
26.299056,-98.145231,Whataburger,78539,Hidalgo County
26.303934,-98.180542,Whataburger,78539,Hidalgo County
26.282183,-98.166824,Whataburger,78539,Hidalgo County
28.977974,-96.645754,Whataburger,77957,Jackson County
29.203468,-96.275520,Whataburger,77437,Wharton County
31.744922,-106.332067,Whataburger,79907,El Paso County
31.755856,-106.342301,Whataburger,79915,El Paso County
31.760476,-106.271613,Whataburger,79936,El Paso County
31.782597,-106.394499,Whataburger,79925,El Paso County
31.806582,-106.265770,Whataburger,79936,El Paso County
31.681016,-106.312496,Whataburger,79927,El Paso County
31.721920,-106.303466,Whataburger,79907,El Paso County
31.763652,-106.319231,Whataburger,79936,El Paso County
31.765525,-106.463072,Whataburger,79901,El Paso County
31.773360,-106.500076,Whataburger,79902,El Paso County
31.807867,-106.444641,Whataburger,79930,El Paso County
31.898426,-106.435683,Whataburger,79924,El Paso County
31.850471,-106.583176,Whataburger,88063,Doa Ana County
31.783503,-106.422144,Whataburger,79905,El Paso County
31.900444,-106.407380,Whataburger,79924,El Paso County
31.819859,-106.540463,Whataburger,79922,El Paso County
31.765563,-106.367166,Whataburger,79915,El Paso County
31.729647,-106.349390,Whataburger,79907,El Paso County
31.853628,-106.439149,Whataburger,79904,El Paso County
31.858510,-106.557649,Whataburger,79912,El Paso County
31.793992,-106.358997,Whataburger,79925,El Paso County
26.293613,-97.987914,Whataburger,78596,Hidalgo County
32.334259,-96.616329,Whataburger,75119,Ellis County
32.881279,-97.101026,Whataburger,76039,Tarrant County
32.837996,-97.091249,Whataburger,76039,Tarrant County
32.856590,-97.025078,Whataburger,75061,Dallas County
27.183188,-98.146722,Whataburger,78355,Brooks County
29.143967,-98.156404,Whataburger,78114,Wilson County
32.769135,-96.489380,Whataburger,75181,Dallas County
32.795348,-97.348880,Whataburger,76106,Tarrant County
32.635030,-97.323523,Whataburger,76134,Tarrant County
32.759137,-97.167013,Whataburger,76120,Tarrant County
32.898392,-97.325363,Whataburger,76131,Tarrant County
32.784695,-97.380508,Whataburger,76114,Tarrant County
32.705945,-97.352463,Whataburger,76110,Tarrant County
32.714262,-97.331950,Whataburger,76110,Tarrant County
32.860877,-97.316979,Whataburger,76137,Tarrant County
32.660982,-97.282614,Whataburger,76140,Tarrant County
32.724933,-97.450763,Whataburger,76116,Tarrant County
32.649636,-97.368427,Whataburger,76133,Tarrant County
33.026152,-97.285307,Whataburger,76262,Denton County
32.732258,-97.371961,Whataburger,76107,Tarrant County
32.741218,-97.264895,Whataburger,76103,Tarrant County
32.841119,-97.290859,Whataburger,76137,Tarrant County
32.660723,-97.402637,Whataburger,76132,Tarrant County
32.756235,-97.218107,Whataburger,76112,Tarrant County
32.684460,-97.318870,Whataburger,76115,Tarrant County
32.760730,-97.480576,Whataburger,76108,Tarrant County
32.776418,-97.289082,Whataburger,76111,Tarrant County
30.261471,-98.856195,Whataburger,78624,Gillespie County
29.533745,-95.206510,Whataburger,77546,Galveston County
29.557961,-95.159126,Whataburger,77598,Harris County
29.510705,-95.186974,Whataburger,77546,Galveston County
33.090618,-96.822456,Whataburger,75024,Collin County
33.122798,-96.804929,Whataburger,75024,Collin County
36.298509,-115.269554,Whataburger,89149,Clark County
33.641048,-97.134436,Whataburger,76240,Cooke County
29.309386,-94.773730,Whataburger,77550,Galveston County
29.274642,-94.832100,Whataburger,77551,Galveston County
32.930477,-96.650025,Whataburger,75040,Dallas County
32.938186,-96.604172,Whataburger,75040,Dallas County
32.864554,-96.541473,Whataburger,75088,Dallas County
32.845026,-96.595244,Whataburger,75043,Dallas County
32.878380,-96.622602,Whataburger,75041,Dallas County
30.649555,-97.681320,Whataburger,78626,Williamson County
30.681528,-97.717803,Whataburger,78633,Williamson County
30.179567,-96.917946,Whataburger,78942,Lee County
32.750766,-94.939345,Whataburger,75645,Upshur County
28.668329,-97.389361,Whataburger,77963,Goliad County
29.513883,-97.458448,Whataburger,78629,Gonzales County
33.093976,-98.589623,Whataburger,76450,Young County
32.434285,-97.778144,Whataburger,76048,Hood County
32.757346,-97.028275,Whataburger,75050,Dallas County
32.795521,-97.055346,Whataburger,76155,Tarrant County
32.679201,-97.006634,Whataburger,75052,Dallas County
32.709250,-97.008020,Whataburger,75051,Dallas County
32.759134,-96.992868,Whataburger,75050,Dallas County
32.959174,-97.043506,Whataburger,76051,Tarrant County
32.941200,-97.074217,Whataburger,76051,Tarrant County
33.106050,-96.109804,Whataburger,75402,Hunt County
29.938594,-93.937152,Whataburger,77619,Jefferson County
32.330980,-96.129440,Whataburger,75156,Henderson County
32.504248,-94.578409,Whataburger,75650,Harrison County
31.069803,-97.666519,Whataburger,76548,Bell County
26.190406,-97.679481,Whataburger,78550,Cameron County
26.189862,-97.713283,Whataburger,78550,Cameron County
26.165123,-97.678977,Whataburger,78550,Cameron County
32.941120,-97.099739,Whataburger,76051,Tarrant County
32.158666,-94.784124,Whataburger,75654,Rusk County
33.129459,-97.044121,Whataburger,75065,Denton County
26.108419,-98.219337,Whataburger,78557,Hidalgo County
26.098606,-98.269669,Whataburger,78557,Hidalgo County
33.071580,-97.046035,Whataburger,75077,Denton County
32.008299,-97.098536,Whataburger,76645,Hill County
29.348125,-99.128889,Whataburger,78861,Medina County
31.682739,-106.186653,Whataburger,79927,El Paso County
29.756943,-95.365124,Whataburger,77010,Harris County
29.669994,-95.462467,Whataburger,77096,Harris County
29.786071,-95.543831,Whataburger,77080,Harris County
29.934897,-95.581395,Whataburger,77065,Harris County
29.981558,-95.423731,Whataburger,77073,Harris County
29.788902,-95.468018,Whataburger,77055,Harris County
29.612670,-95.220180,Whataburger,77034,Harris County
29.784085,-95.599970,Whataburger,77079,Harris County
29.736051,-95.598408,Whataburger,77077,Harris County
29.909786,-95.477480,Whataburger,77086,Harris County
29.971092,-95.485853,Whataburger,77066,Harris County
29.848811,-95.504278,Whataburger,77092,Harris County
29.770111,-95.180546,Whataburger,77015,Harris County
29.921326,-95.200637,Whataburger,77044,Harris County
29.807283,-95.169683,Whataburger,77049,Harris County
30.012816,-95.453511,Whataburger,77090,Harris County
29.778324,-95.291161,Whataburger,77020,Harris County
29.799996,-95.448659,Whataburger,77008,Harris County
29.941341,-95.409034,Whataburger,77060,Harris County
29.914867,-95.413797,Whataburger,77060,Harris County
30.014157,-95.592051,Whataburger,77070,Harris County
29.705911,-95.412269,Whataburger,77030,Harris County
29.815115,-95.545442,Whataburger,77080,Harris County
30.022389,-95.388060,Whataburger,77073,Harris County
29.736352,-95.558542,Whataburger,77042,Harris County
29.736253,-95.476780,Whataburger,77056,Harris County
29.987488,-95.340273,Whataburger,77032,Harris County
29.719540,-95.644252,Whataburger,77082,Harris County
29.702015,-95.364279,Whataburger,77021,Harris County
29.791020,-95.373051,Whataburger,77009,Harris County
29.741380,-95.436863,Whataburger,77046,Harris County
29.733227,-95.410784,Whataburger,77098,Harris County
29.728627,-95.436491,Whataburger,77046,Harris County
29.869612,-95.328208,Whataburger,77093,Harris County
29.870042,-95.406465,Whataburger,77076,Harris County
29.833045,-95.384869,Whataburger,77022,Harris County
29.838359,-95.472933,Whataburger,77092,Harris County
29.862950,-95.645162,Whataburger,77084,Harris County
29.672250,-95.289429,Whataburger,77087,Harris County
29.749947,-95.497868,Whataburger,77057,Harris County
29.718487,-95.497920,Whataburger,77081,Harris County
29.707261,-95.521116,Whataburger,77036,Harris County
29.702228,-95.296647,Whataburger,77087,Harris County
29.736323,-95.304768,Whataburger,77011,Harris County
29.807952,-95.301536,Whataburger,77026,Harris County
29.967249,-95.536112,Whataburger,77069,Harris County
29.615689,-95.496366,Whataburger,77085,Harris County
29.655797,-95.509965,Whataburger,77071,Harris County
29.691298,-95.557882,Whataburger,77036,Harris County
29.903335,-95.633287,Whataburger,77095,Harris County
29.640184,-95.243870,Whataburger,77587,Harris County
29.801771,-95.510281,Whataburger,77055,Harris County
29.812960,-95.411392,Whataburger,77008,Harris County
29.915744,-95.555704,Whataburger,77064,Harris County
29.675530,-95.544386,Whataburger,77031,Harris County
29.676505,-95.428177,Whataburger,77025,Harris County
29.999557,-95.269759,Whataburger,77338,Harris County
30.052180,-95.182640,Whataburger,77345,Harris County
29.937933,-95.249400,Whataburger,77396,Harris County
30.004661,-95.298805,Whataburger,77338,Harris County
30.715868,-95.567547,Whataburger,77320,Walker County
32.823820,-97.197600,Whataburger,76053,Tarrant County
32.650099,-96.708823,Whataburger,75141,Dallas County
30.500840,-97.582572,Whataburger,78664,Williamson County
27.877045,-97.172257,Whataburger,78362,San Patricio County
30.072909,-99.221623,Whataburger,78028,Kerr County
32.837994,-96.979784,Whataburger,75062,Dallas County
32.846327,-96.992600,Whataburger,75061,Dallas County
32.810542,-96.921041,Whataburger,75060,Dallas County
32.836142,-97.022494,Whataburger,75061,Dallas County
32.917500,-96.959721,Whataburger,75063,Dallas County
31.959595,-95.268586,Whataburger,75766,Cherokee County
30.907618,-93.994490,Whataburger,75951,Jasper County
29.887600,-95.579592,Whataburger,77041,Harris County
31.969998,-94.019392,Whataburger,71049,De Soto Parish
29.786859,-95.719288,Whataburger,77094,Harris County
29.756995,-95.806436,Whataburger,77494,Fort Bend County
29.777137,-95.847529,Whataburger,77494,Fort Bend County
29.801590,-95.775000,Whataburger,77449,Harris County
29.780745,-95.751668,Whataburger,77450,Harris County
29.863174,-95.721115,Whataburger,77449,Harris County
32.572615,-96.306969,Whataburger,75142,Kaufman County
32.934325,-97.217740,Whataburger,76248,Tarrant County
29.531281,-95.028003,Whataburger,77565,Galveston County
30.054627,-99.151046,Whataburger,78028,Kerr County
32.380010,-94.868914,Whataburger,75662,Gregg County
32.435540,-94.944151,Whataburger,75662,Gregg County
31.091485,-97.733717,Whataburger,76541,Bell County
27.491230,-97.847608,Whataburger,78363,Kleberg County
27.512448,-97.855682,Whataburger,78363,Kleberg County
30.068387,-95.243400,Whataburger,77339,Harris County
30.014100,-97.862490,Whataburger,78640,Hays County
26.165250,-97.824359,Whataburger,78559,Cameron County
29.908982,-96.841990,Whataburger,78945,Fayette County
26.255038,-98.477952,Whataburger,78560,Hidalgo County
29.402413,-95.033408,Whataburger,77568,Galveston County
29.664563,-95.028587,Whataburger,77571,Harris County
29.664263,-95.097515,Whataburger,77505,Harris County
29.350629,-98.130454,Whataburger,78121,Wilson County
29.047988,-95.460008,Whataburger,77566,Brazoria County
32.807512,-97.416443,Whataburger,76127,Tarrant County
30.342862,-97.967010,Whataburger,78738,Travis County
32.591230,-96.821833,Whataburger,75115,Dallas County
32.637676,-96.805949,Whataburger,75232,Dallas County
27.592331,-99.512487,Whataburger,78040,Webb County
27.568017,-99.496755,Whataburger,78040,Webb County
27.506752,-99.496508,Whataburger,78040,Webb County
27.530559,-99.468965,Whataburger,78040,Webb County
27.498016,-99.451986,Whataburger,78040,Webb County
27.544802,-99.504856,Whataburger,78040,Webb County
27.609674,-99.495064,Whataburger,78040,Webb County
27.565487,-99.473341,Whataburger,78040,Webb County
27.462447,-99.482203,Whataburger,78040,Webb County
27.595646,-99.480747,Whataburger,78040,Webb County
29.523363,-95.076171,Whataburger,77573,Galveston County
29.467985,-95.088882,Whataburger,77573,Galveston County
29.499573,-98.624540,Whataburger,78240,Bexar County
33.019498,-96.993738,Whataburger,75067,Denton County
33.047435,-97.009832,Whataburger,75057,Denton County
30.056693,-94.796712,Whataburger,77575,Liberty County
32.512555,-95.409671,Whataburger,75771,Smith County
29.555108,-98.347089,Whataburger,78233,Bexar County
30.711091,-94.950606,Whataburger,77335,Polk County
29.872277,-97.668942,Whataburger,78644,Caldwell County
32.497640,-94.751343,Whataburger,75601,Gregg County
32.495568,-94.775526,Whataburger,75601,Gregg County
32.532367,-94.788950,Whataburger,75604,Gregg County
32.454794,-94.707565,Whataburger,75602,Gregg County
32.541490,-94.730657,Whataburger,75601,Gregg County
33.490211,-101.904885,Whataburger,79424,Lubbock County
33.577915,-101.855409,Whataburger,79411,Lubbock County
33.548627,-101.855648,Whataburger,79412,Lubbock County
33.587528,-101.869358,Whataburger,79401,Lubbock County
33.548991,-101.914213,Whataburger,79414,Lubbock County
33.592519,-101.932073,Whataburger,79416,Lubbock County
33.519911,-101.954706,Whataburger,79414,Lubbock County
33.528667,-101.906296,Whataburger,79414,Lubbock County
33.519291,-101.870549,Whataburger,79412,Lubbock County
31.331322,-94.758794,Whataburger,75904,Angelina County
31.302321,-94.729134,Whataburger,75901,Angelina County
31.341488,-94.718524,Whataburger,75904,Angelina County
30.260184,-94.198863,Whataburger,77657,Hardin County
29.225121,-98.704430,Whataburger,78069,Atascosa County
30.191422,-95.590195,Whataburger,77382,Montgomery County
30.223433,-95.560928,Whataburger,77382,Montgomery County
32.170754,-96.012961,Whataburger,75148,Henderson County
30.349072,-97.540117,Whataburger,78653,Travis County
32.581444,-97.151154,Whataburger,76063,Tarrant County
32.575851,-97.082729,Whataburger,76063,Tarrant County
30.579724,-98.273136,Whataburger,78654,Burnet County
32.547522,-94.346718,Whataburger,75672,Harrison County
32.523900,-94.352027,Whataburger,75670,Harrison County
26.236603,-98.202872,Whataburger,78577,Hidalgo County
26.190471,-98.206783,Whataburger,78577,Hidalgo County
26.188864,-98.232378,Whataburger,78577,Hidalgo County
26.205757,-98.244078,Whataburger,78501,Hidalgo County
26.239930,-98.239697,Whataburger,78501,Hidalgo County
26.266437,-98.219456,Whataburger,78504,Hidalgo County
33.195089,-96.638494,Whataburger,75069,Collin County
33.218381,-96.678758,Whataburger,75070,Collin County
33.173942,-96.696481,Whataburger,75070,Collin County
33.128231,-96.726921,Whataburger,75025,Collin County
33.218603,-96.733377,Whataburger,75070,Collin County
26.159288,-97.902098,Whataburger,78570,Hidalgo County
32.770127,-96.597763,Whataburger,75149,Dallas County
32.767832,-96.624189,Whataburger,75149,Dallas County
32.805732,-96.611437,Whataburger,75150,Dallas County
32.803105,-96.644000,Whataburger,75150,Dallas County
31.684634,-96.470838,Whataburger,76667,Limestone County
32.016011,-102.079369,Whataburger,79701,Midland County
31.984295,-102.037364,Whataburger,79705,Midland County
32.017964,-102.124145,Whataburger,79703,Midland County
31.998967,-102.108687,Whataburger,79701,Midland County
32.474704,-96.978265,Whataburger,76065,Ellis County
32.456040,-96.935098,Whataburger,75167,Ellis County
32.668871,-95.486375,Whataburger,75773,Wood County
32.809290,-98.093523,Whataburger,76067,Palo Pinto County
26.229507,-98.321450,Whataburger,78573,Hidalgo County
26.194765,-98.282732,Whataburger,78501,Hidalgo County
26.232911,-98.366481,Whataburger,78572,Hidalgo County
26.211869,-98.302213,Whataburger,78501,Hidalgo County
29.539164,-95.537636,Whataburger,77459,Fort Bend County
30.382967,-95.653473,Whataburger,77356,Montgomery County
31.917741,-94.681292,Whataburger,75681,Rusk County
33.134216,-94.967963,Whataburger,75455,Titus County
33.011575,-96.610789,Whataburger,75094,Collin County
31.626778,-94.652472,Whataburger,75965,Nacogdoches County
29.727949,-98.076320,Whataburger,78130,Comal County
29.690308,-98.111346,Whataburger,78130,Comal County
29.716213,-98.159843,Whataburger,78130,Comal County
30.129165,-95.230270,Whataburger,77365,Montgomery County
32.842032,-97.213929,Whataburger,76180,Tarrant County
32.840559,-97.238746,Whataburger,76180,Tarrant County
32.860828,-97.186684,Whataburger,76054,Tarrant County
32.903732,-97.188089,Whataburger,76182,Tarrant County
31.860259,-102.347318,Whataburger,79761,Ector County
31.878268,-102.383127,Whataburger,79761,Ector County
31.893187,-102.334977,Whataburger,79762,Ector County
30.120900,-93.834919,Whataburger,77630,Orange County
30.094397,-93.756179,Whataburger,77632,Orange County
31.737324,-95.607495,Whataburger,75801,Anderson County
26.258861,-98.318720,Whataburger,78573,Hidalgo County
33.684780,-95.554481,Whataburger,75460,Lamar County
33.660971,-95.514585,Whataburger,75462,Lamar County
29.664918,-95.198840,Whataburger,77502,Harris County
29.681535,-95.150503,Whataburger,77503,Harris County
29.649925,-95.170629,Whataburger,77504,Harris County
29.690685,-95.203892,Whataburger,77502,Harris County
29.580225,-95.390307,Whataburger,77047,Harris County
29.563403,-95.286247,Whataburger,77581,Brazoria County
29.554466,-95.385056,Whataburger,77584,Brazoria County
30.465396,-97.596848,Whataburger,78660,Travis County
26.194907,-98.183096,Whataburger,78577,Hidalgo County
26.177560,-98.187372,Whataburger,78577,Hidalgo County
33.032416,-96.698882,Whataburger,75074,Collin County
33.044991,-96.701492,Whataburger,75023,Collin County
33.004024,-96.768020,Whataburger,75252,Collin County
33.060149,-96.770684,Whataburger,75023,Collin County
28.939847,-98.513138,Whataburger,78064,Atascosa County
27.827162,-97.067276,Whataburger,78336,San Patricio County
26.073175,-97.224995,Whataburger,78578,Cameron County
28.628508,-96.633647,Whataburger,77979,Calhoun County
30.105019,-95.235646,Whataburger,77365,Montgomery County
27.880294,-97.318616,Whataburger,78374,San Patricio County
33.175790,-96.515120,Whataburger,75069,Collin County
33.249962,-96.785058,Whataburger,75078,Collin County
26.482125,-97.770114,Whataburger,78580,Willacy County
32.530861,-96.821511,Whataburger,75154,Ellis County
32.511387,-96.804451,Whataburger,75154,Ellis County
28.313126,-97.273748,Whataburger,78377,Refugio County
32.976360,-96.768078,Whataburger,75080,Dallas County
32.942715,-96.699425,Whataburger,75081,Dallas County
29.689648,-95.772163,Whataburger,77407,Fort Bend County
29.559842,-95.761101,Whataburger,77406,Fort Bend County
26.399870,-98.929604,Whataburger,78584,Starr County
33.002483,-97.220708,Whataburger,76262,Denton County
27.788293,-97.655210,Whataburger,78380,Nueces County
28.042640,-97.042643,Whataburger,78336,San Patricio County
32.908607,-96.451253,Whataburger,75087,Rockwall County
26.408750,-98.973769,Whataburger,78584,Starr County
29.532808,-95.808412,Whataburger,77406,Fort Bend County
30.496047,-97.678610,Whataburger,78664,Williamson County
30.532099,-97.614285,Whataburger,78665,Williamson County
32.907655,-96.578582,Whataburger,75088,Dallas County
32.919721,-96.512423,Whataburger,75089,Dallas County
32.967187,-96.336344,Whataburger,75189,Rockwall County
31.805189,-95.151173,Whataburger,75785,Cherokee County
32.969413,-96.605687,Whataburger,75048,Dallas County
32.874821,-97.376556,Whataburger,76131,Tarrant County
32.840865,-97.343155,Whataburger,76106,Tarrant County
31.476290,-100.452707,Whataburger,76903,Tom Green County
31.445897,-100.478999,Whataburger,76903,Tom Green County
31.397155,-100.486961,Whataburger,76908,Tom Green County
29.531810,-98.496592,Whataburger,78216,Bexar County
29.555366,-98.534761,Whataburger,78231,Bexar County
29.393141,-98.485996,Whataburger,78210,Bexar County
29.551675,-98.406344,Whataburger,78247,Bexar County
29.488646,-98.444805,Whataburger,78209,Bexar County
29.321135,-98.554276,Whataburger,78224,Bexar County
29.564247,-98.592124,Whataburger,78249,Bexar County
29.567009,-98.383776,Whataburger,78233,Bexar County
29.579395,-98.475616,Whataburger,78232,Bexar County
29.576559,-98.513171,Whataburger,78248,Bexar County
29.599084,-98.419012,Whataburger,78247,Bexar County
29.614426,-98.603996,Whataburger,78256,Bexar County
29.611126,-98.508391,Whataburger,78248,Bexar County
29.611962,-98.468227,Whataburger,78232,Bexar County
29.637109,-98.455963,Whataburger,78259,Bexar County
29.645926,-98.505282,Whataburger,78258,Bexar County
29.412357,-98.431842,Whataburger,78203,Bexar County
29.513385,-98.533652,Whataburger,78213,Bexar County
29.485240,-98.526124,Whataburger,78201,Bexar County
29.460796,-98.711052,Whataburger,78251,Bexar County
29.402375,-98.443105,Whataburger,78210,Bexar County
29.455487,-98.470516,Whataburger,78215,Bexar County
29.466776,-98.622996,Whataburger,78238,Bexar County
29.351927,-98.435654,Whataburger,78235,Bexar County
29.383992,-98.461138,Whataburger,78210,Bexar County
29.423573,-98.488800,Whataburger,78205,Bexar County
29.219938,-98.414383,Whataburger,78112,Bexar County
29.485869,-98.589658,Whataburger,78238,Bexar County
29.484202,-98.400839,Whataburger,78218,Bexar County
29.430523,-98.553026,Whataburger,78237,Bexar County
29.378769,-98.512482,Whataburger,78225,Bexar County
29.356842,-98.499555,Whataburger,78214,Bexar County
29.398358,-98.391733,Whataburger,78220,Bexar County
29.440241,-98.499855,Whataburger,78205,Bexar County
29.437622,-98.710068,Whataburger,78245,Bexar County
29.493880,-98.704740,Whataburger,78250,Bexar County
29.488687,-98.498871,Whataburger,78201,Bexar County
29.543825,-98.614296,Whataburger,78240,Bexar County
29.588782,-98.621963,Whataburger,78249,Bexar County
29.595501,-98.355331,Whataburger,78233,Bexar County
29.357883,-98.534250,Whataburger,78225,Bexar County
29.491945,-98.333978,Whataburger,78244,Bexar County
29.513344,-98.569061,Whataburger,78229,Bexar County
29.417687,-98.650920,Whataburger,78227,Bexar County
29.436625,-98.651302,Whataburger,78251,Bexar County
29.515368,-98.465054,Whataburger,78216,Bexar County
29.529466,-98.485070,Whataburger,78216,Bexar County
29.479311,-98.656961,Whataburger,78251,Bexar County
29.556749,-98.664934,Whataburger,78249,Bexar County
29.425173,-98.434923,Whataburger,78202,Bexar County
26.144495,-97.634662,Whataburger,78586,Cameron County
29.867016,-97.938925,Whataburger,78666,Hays County
29.827268,-97.986824,Whataburger,78666,Hays County
29.602001,-98.278132,Whataburger,78154,Guadalupe County
29.690414,-96.902524,Whataburger,78956,Fayette County
29.565457,-95.025891,Whataburger,77586,Harris County
32.649855,-96.546405,Whataburger,75253,Dallas County
29.761350,-96.151486,Whataburger,77474,Austin County
29.583053,-97.992477,Whataburger,78123,Guadalupe County
29.571308,-97.941325,Whataburger,78155,Guadalupe County
33.675724,-96.607956,Whataburger,75020,Grayson County
30.342033,-94.182000,Whataburger,77656,Hardin County
28.035343,-97.516585,Whataburger,78370,San Patricio County
32.696081,-100.918995,Whataburger,79526,Scurry County
31.652948,-106.288193,Whataburger,79927,El Paso County
26.110396,-97.169419,Whataburger,78597,Cameron County
30.062025,-95.432994,Whataburger,77388,Harris County
30.078072,-95.517408,Whataburger,77379,Harris County
30.126809,-95.448113,Whataburger,77380,Montgomery County
30.019074,-95.527422,Whataburger,77379,Harris County
30.070270,-95.447572,Whataburger,77388,Harris County
30.112706,-95.389530,Whataburger,77386,Montgomery County
29.797944,-98.424388,Whataburger,78163,Comal County
29.634698,-95.565188,Whataburger,77477,Fort Bend County
32.203449,-98.239843,Whataburger,76446,Erath County
32.706505,-98.442899,Whataburger,76475,Palo Pinto County
29.664780,-95.643179,Whataburger,77498,Fort Bend County
29.563348,-95.688121,Whataburger,77479,Fort Bend County
29.610811,-95.647294,Whataburger,77498,Fort Bend County
29.582232,-95.585475,Whataburger,77478,Fort Bend County
33.115940,-95.595707,Whataburger,75482,Hopkins County
32.474888,-100.398684,Whataburger,79556,Nolan County
27.978595,-97.398290,Whataburger,78390,San Patricio County
30.598165,-97.415280,Whataburger,76574,Williamson County
31.102638,-97.358503,Whataburger,76504,Bell County
31.073153,-97.369578,Whataburger,76502,Bell County
31.116386,-97.413536,Whataburger,76502,Bell County
32.764610,-96.296539,Whataburger,75160,Kaufman County
32.738297,-96.297186,Whataburger,75160,Kaufman County
33.435679,-94.077731,Whataburger,75569,Bowie County
29.394419,-94.930005,Whataburger,77590,Galveston County
33.065839,-96.890589,Whataburger,75056,Denton County
30.206884,-95.461796,Whataburger,77384,Montgomery County
31.906101,-94.399473,Whataburger,75975,Shelby County
30.132687,-95.553521,Whataburger,77375,Harris County
30.085948,-95.631814,Whataburger,77375,Harris County
32.306190,-95.336144,Whataburger,75701,Smith County
32.303171,-95.301397,Whataburger,75701,Smith County
32.235986,-95.349086,Whataburger,75762,Smith County
32.331042,-95.266315,Whataburger,75701,Smith County
32.329794,-95.290974,Whataburger,75701,Smith County
32.365262,-95.322432,Whataburger,75702,Smith County
32.347595,-95.342633,Whataburger,75702,Smith County
32.296281,-95.263246,Whataburger,75701,Smith County
32.286082,-95.329802,Whataburger,75701,Smith County
32.395362,-95.270099,Whataburger,75702,Smith County
32.275038,-95.306896,Whataburger,75701,Smith County
29.550655,-98.297186,Whataburger,78148,Bexar County
29.218790,-99.766774,Whataburger,78870,Uvalde County
32.435355,-97.108141,Whataburger,76084,Johnson County
28.815498,-96.966060,Whataburger,77901,Victoria County
28.834460,-97.001402,Whataburger,77901,Victoria County
28.805460,-96.998759,Whataburger,77901,Victoria County
28.876760,-96.997055,Whataburger,77904,Victoria County
30.129990,-94.014980,Whataburger,77662,Orange County
31.512094,-97.187202,Whataburger,76710,McLennan County
31.531150,-97.186780,Whataburger,76710,McLennan County
31.480093,-97.206336,Whataburger,76643,McLennan County
31.548810,-97.125700,Whataburger,76701,McLennan County
32.885323,-97.260072,Whataburger,76148,Tarrant County
32.402136,-96.817205,Whataburger,75165,Ellis County
32.400564,-96.828980,Whataburger,75165,Ellis County
32.409322,-96.842105,Whataburger,75165,Ellis County
32.729619,-97.787699,Whataburger,76086,Parker County
32.745422,-97.797758,Whataburger,76086,Parker County
29.538061,-95.117105,Whataburger,77598,Harris County
26.170107,-97.990722,Whataburger,78596,Hidalgo County
26.174885,-98.005463,Whataburger,78596,Hidalgo County
26.164580,-98.006670,Whataburger,78596,Hidalgo County
32.760780,-97.414057,Whataburger,76127,Tarrant County
29.328060,-96.119629,Whataburger,77488,Wharton County
32.520447,-94.861197,Whataburger,75604,Gregg County
33.672724,-96.903814,Whataburger,76264,Grayson County
33.928320,-98.515783,Whataburger,76306,Wichita County
33.857661,-98.532112,Whataburger,76308,Wichita County
33.877944,-98.547869,Whataburger,76308,Wichita County
30.424417,-95.493437,Whataburger,77318,Montgomery County
32.735536,-97.634279,Whataburger,76008,Parker County
29.513325,-98.395839,Whataburger,78218,Bexar County
29.858560,-94.400899,Whataburger,77622,Jefferson County
30.768617,-94.414845,Whataburger,75979,Tyler County
